{
  "type": "FeatureCollection",
  "features": [
    {
      "type": "Feature",
      "properties": {
        "record": "BA-202605089",
        "address": "883 PLYMOUTH RD NE, ATLANTA GA 30306",
        "status": "Accepted",
        "date": "10/01/2026",
        "description": null,
        "owner": null,
        "tree_dbh": "37",
        "tree_location": "Front of the house",
        "reason_removal": "Uncorrectable defect",
        "tree_description": "This mature tree is approx 6ft away from the foundation, meaning the foundation and house is well within the CRZ.",
        "tree_number": "1",
        "species": "Chestnut Oak"
      },
      "geometry": {
        "type": "Point",
        "coordinates": [
          -84.357730787017,
          33.798916574504
        ]
      }
    },
    {
      "type": "Feature",
      "properties": {
        "record": "BA-202605106",
        "address": "2155 JERNIGAN DR SE, ATLANTA GA 30315",
        "status": "Accepted",
        "date": "10/01/2026",
        "description": null,
        "owner": "HENDERSON ANGELA D",
        "tree_dbh": "11",
        "tree_location": "Left side front yard",
        "reason_removal": "Dying tree",
        "tree_description": "80% canopy lossReason for Removal:Dying treeComments:orange paint\n\t\t\n\t\n\t\n                                \n                            \n                        \n                    \n                        \n                            \n                                \n                                    \n                                        \n                                         Parcel Information\n                                \n                            \n                            \n                                \n                                    \n\t\tParcel Number:14 00380003034 *Block:--Lot:--Subdivision:--",
        "tree_number": "1",
        "species": "Black Cherry"
      },
      "geometry": {
        "type": "Point",
        "coordinates": [
          -84.372436542685,
          33.695417395874
        ]
      }
    },
    {
      "type": "Feature",
      "properties": {
        "record": "26TMP-064979",
        "address": "3030 HUMPHRIES DR SE, ATLANTA GA 30354",
        "status": "",
        "date": "10/01/2026",
        "description": null,
        "owner": null,
        "tree_dbh": null,
        "tree_location": null,
        "reason_removal": null,
        "tree_description": null,
        "tree_number": null,
        "species": null
      },
      "geometry": {
        "type": "Point",
        "coordinates": [
          -84.375918223827,
          33.672565470201
        ]
      }
    },
    {
      "type": "Feature",
      "properties": {
        "record": "BA-202605087",
        "address": "672 ANDOVER DR NW, ATLANTA GA 30327",
        "status": "Accepted",
        "date": "10/01/2026",
        "description": null,
        "owner": "POPE CHILTON C",
        "tree_dbh": "14",
        "tree_location": "front yard right at road",
        "reason_removal": "Significant cavity/area of decay",
        "tree_description": "Picture of treeReason for Removal:Significant cavity/area of decayComments:major trunk decay with canine decline throughout \n\t\t\n\t\n\t\n                                \n                            \n                        \n                    \n                        \n                            \n                                \n                                    \n                                        \n                                         Parcel Information\n                                \n                            \n                            \n                                \n                                    \n\t\tParcel Number:17 01600001010 *Block:--Lot:--Subdivision:--",
        "tree_number": "1",
        "species": "Maple"
      },
      "geometry": {
        "type": "Point",
        "coordinates": [
          -84.408745369664,
          33.865583307574
        ]
      }
    },
    {
      "type": "Feature",
      "properties": {
        "record": "BA-202605105",
        "address": "340 8TH ST NE, ATLANTA GA 30309",
        "status": "Accepted",
        "date": "10/01/2026",
        "description": null,
        "owner": null,
        "tree_dbh": null,
        "tree_location": null,
        "reason_removal": null,
        "tree_description": null,
        "tree_number": null,
        "species": null
      },
      "geometry": {
        "type": "Point",
        "coordinates": [
          -84.376093592442,
          33.779559345845
        ]
      }
    },
    {
      "type": "Feature",
      "properties": {
        "record": "BA-202605097",
        "address": "120 JOHNSON RD NW, ATLANTA GA 30318",
        "status": "Accepted",
        "date": "10/01/2026",
        "description": null,
        "owner": "ROBIN LAURA B",
        "tree_dbh": "6",
        "tree_location": "left side of drive",
        "reason_removal": "Invasive/undesirable tree",
        "tree_description": "6\" Leyland, left side of drive between fence and concrete, undesirable speciesReason for Removal:Invasive/undesirable treeComments:6\" Leyland, left side of drive between fence and concrete, undesirable species\n\t\t\n\t\t\n\t\t\tTree number:2Species:Leyland cypressTree Size (DBH):6Tree location:left side of driveDescription of Tree:6\" Leyland, left side of drive between fence and concrete, undesirable speciesReason for Removal:Invasive/undesirable treeComments:6\" Leyland, left side of drive between fence and concrete, undesirable species\n\t\t\n\t\t\n\t\t\tTree number:3Species:Leyland cypressTree Size (DBH):7Tree location:left side of driveDescription of Tree:7\" Leyland, left side of drive between fence and concrete, undesirable speciesReason for Removal:Invasive/undesirable treeComments:7\" Leyland, left side of drive between fence and concrete, undesirable species\n\t\t\n\t\t\n\t\t\tTree number:4Species:Leyland cypressTree Size (DBH):8Tree location:left side of driveDescription of Tree:8\" Leyland, left side of drive between fence and concrete, undesirable speciesReason for Removal:Invasive/undesirable treeComments:8\" Leyland, left side of drive between fence and concrete, undesirable species\n\t\t\n\t\t\n\t\t\tTree number:5Species:Leyland cypressTree Size (DBH):8Tree location:left side of driveDescription of Tree:8\" Leyland, left side of drive between fence and concrete, undesirable speciesReason for Removal:Invasive/undesirable treeComments:8\" Leyland, left side of drive between fence and concrete, undesirable species\n\t\t\n\t\t\n\t\t\tTree number:6Species:Leyland cypressTree Size (DBH):9Tree location:left side of driveDescription of Tree:9\" Leyland, left side of drive between fence and concrete, undesirable speciesReason for Removal:Invasive/undesirable treeComments:9\" Leyland, left side of drive between fence and concrete, undesirable species\n\t\t\n\t\t\n\t\t\tTree number:7Species:Leyland cypressTree Size (DBH):9Tree location:left side of driveDescription of Tree:9\" Leyland, left side of drive between fence and concrete, undesirable speciesReason for Removal:Invasive/undesirable treeComments:9\" Leyland, left side of drive between fence and concrete, undesirable species\n\t\t\n\t\t\n\t\t\tTree number:8Species:Leyland cypressTree Size (DBH):10Tree location:left side of driveDescription of Tree:10\" Leyland, left side of drive between fence and concrete, undesirable speciesReason for Removal:Invasive/undesirable treeComments:10\" Leyland, left side of drive between fence and concrete, undesirable species\n\t\t\n\t\t\n\t\t\tTree number:9Species:Leyland cypressTree Size (DBH):10Tree location:left side of driveDescription of Tree:10\" Leyland, left side of drive between fence and concrete, undesirable speciesReason for Removal:Invasive/undesirable treeComments:10\" Leyland, left side of drive between fence and concrete, undesirable species\n\t\t\n\t\n\t\n                                \n                            \n                        \n                    \n                        \n                            \n                                \n                                    \n                                        \n                                         Parcel Information\n                                \n                            \n                            \n                                \n                                    \n\t\tParcel Number:17 02260002029 *Block:--Lot:--Subdivision:--",
        "tree_number": "1",
        "species": "Leyland cypress"
      },
      "geometry": {
        "type": "Point",
        "coordinates": [
          -84.450506079229,
          33.784152097885
        ]
      }
    },
    {
      "type": "Feature",
      "properties": {
        "record": "BA-202605088",
        "address": "1063 WEST PACES FERRY RD NW, ATLANTA GA 30327",
        "status": "Accepted",
        "date": "10/01/2026",
        "description": null,
        "owner": null,
        "tree_dbh": null,
        "tree_location": null,
        "reason_removal": null,
        "tree_description": null,
        "tree_number": null,
        "species": null
      },
      "geometry": {
        "type": "Point",
        "coordinates": [
          -84.420274436858,
          33.851023221243
        ]
      }
    },
    {
      "type": "Feature",
      "properties": {
        "record": "BA-202605096",
        "address": "3650 TUXEDO RD NW, ATLANTA GA 30305",
        "status": "Accepted",
        "date": "10/01/2026",
        "description": null,
        "owner": null,
        "tree_dbh": "22",
        "tree_location": "left side of back driveway just inside rear gate",
        "reason_removal": "Dead tree",
        "tree_description": "22\" White Oak, Dead, located left side of back driveway just inside rear gateReason for Removal:Dead treeComments:22\" White Oak, Dead, located left side of back driveway just inside rear gate\n\t\t\n\t\n\t\n                                \n                            \n                        \n                    \n                        \n                            \n                                \n                                    \n                                        \n                                         Parcel Information\n                                \n                            \n                            \n                                \n                                    \n\t\tParcel Number:17 0140  LL168 *Block:--Lot:--Subdivision:--",
        "tree_number": "1",
        "species": "White Oak"
      },
      "geometry": {
        "type": "Point",
        "coordinates": [
          -84.399757817545,
          33.854523013206
        ]
      }
    },
    {
      "type": "Feature",
      "properties": {
        "record": "BA-202605094",
        "address": "1871 CAMPBELLTON RD SW, ATLANTA GA 30311",
        "status": "Accepted",
        "date": "10/01/2026",
        "description": null,
        "owner": null,
        "tree_dbh": "19",
        "tree_location": "side yard",
        "reason_removal": "Other",
        "tree_description": "leaningReason for Removal:Other\n\t\t\n\t\t\n\t\t\tTree number:2Species:pineTree Size (DBH):19Tree location:side yardDescription of Tree:leaningReason for Removal:Other\n\t\t\n\t\t\n\t\t\tTree number:3Species:pineTree Size (DBH):14Tree location:side yardDescription of Tree:leaningReason for Removal:Other\n\t\t\n\t\t\n\t\t\tTree number:4Species:pineTree Size (DBH):20Tree location:back sideDescription of Tree:deadReason for Removal:Dead tree\n\t\t\n\t\t\n\t\t\tTree number:5Species:pineTree Size (DBH):24Tree location:side yardDescription of Tree:leaningReason for Removal:Other\n\t\t\n\t\n\t\n                                \n                            \n                        \n                    \n                        \n                            \n                                \n                                    \n                                        \n                                         Parcel Information\n                                \n                            \n                            \n                                \n                                    \n\t\tParcel Number:14 01680005010 *Block:--Lot:--Subdivision:--",
        "tree_number": "1",
        "species": "pine"
      },
      "geometry": {
        "type": "Point",
        "coordinates": [
          -84.450306013171,
          33.70929917668
        ]
      }
    },
    {
      "type": "Feature",
      "properties": {
        "record": "BA-202605104",
        "address": "2300 PEACHTREE RD NW, BLDG 100, ATLANTA GA 30309",
        "status": "Accepted",
        "date": "10/01/2026",
        "description": null,
        "owner": null,
        "tree_dbh": "15",
        "tree_location": "front right of property",
        "reason_removal": "Dying tree",
        "tree_description": "Leaning and growing toward stuctureReason for Removal:Uncorrectable defect\n\t\t\n\t\t\n\t\t\tTree number:2Species:Leyland cypressTree Size (DBH):22Tree location:rear right of propertyDescription of Tree:Double leadReason for Removal:Dying tree\n\t\t\n\t\t\n\t\t\tTree number:3Species:Leyland cypressTree Size (DBH):15Tree location:right rear of propertyDescription of Tree:single leaderReason for Removal:Dying tree\n\t\t\n\t\n\t\n                                \n                            \n                        \n                    \n                        \n                            \n                                \n                                    \n                                        \n                                         Parcel Information\n                                \n                            \n                            \n                                \n                                    \n\t\tParcel Number:17 01110002031 *Block:--Lot:--Subdivision:--",
        "tree_number": "1",
        "species": "Leyland cypress"
      },
      "geometry": {
        "type": "Point",
        "coordinates": [
          -84.390224724815,
          33.816543314833
        ]
      }
    },
    {
      "type": "Feature",
      "properties": {
        "record": "BA-202605113",
        "address": "2121 ADAMS OVERLOOK NW, ATLANTA GA 30318",
        "status": "ACA Pending",
        "date": "10/01/2026",
        "description": null,
        "owner": "patrick nesbitt",
        "tree_dbh": "18",
        "tree_location": "behind house",
        "reason_removal": "Other",
        "tree_description": "18” DBH River Birch located in a confined area immediately adjacent to the residence. The tree has significant exposed roots and limited growing space, creating concerns regarding root stability and potential impacts to the structure and surrounding improvements. Removal is requested to address these existing site and safety concerns.",
        "tree_number": "1",
        "species": "Riverbirch"
      },
      "geometry": {
        "type": "Point",
        "coordinates": [
          -84.454050826721,
          33.813437909504
        ]
      }
    },
    {
      "type": "Feature",
      "properties": {
        "record": "BA-202605095",
        "address": "1405 CLIFTON RD NE, ATLANTA GA",
        "status": "Accepted",
        "date": "10/01/2026",
        "description": null,
        "owner": "CHOA",
        "tree_dbh": "42",
        "tree_location": "along uppergate dr",
        "reason_removal": "Dying tree",
        "tree_description": null,
        "tree_number": "1",
        "species": "oak"
      },
      "geometry": {
        "type": "Point",
        "coordinates": [
          -84.320913222472,
          33.793423563494
        ]
      }
    },
    {
      "type": "Feature",
      "properties": {
        "record": "BA-202605101",
        "address": "1125 JOHNSON RD NW, ATLANTA GA 30318",
        "status": "Accepted",
        "date": "10/01/2026",
        "description": null,
        "owner": "NORTHWEST INTOWN DEVELOPMENT LLC",
        "tree_dbh": "19",
        "tree_location": "SOUTH PL, SEE PDF",
        "reason_removal": "Dead tree",
        "tree_description": "BROKEN AT APPROXIMATELY 10'Reason for Removal:Dead tree\n\t\t\n\t\n\t\n                                \n                            \n                        \n                    \n                        \n                            \n                                \n                                    \n                                        \n                                         Parcel Information\n                                \n                            \n                            \n                                \n                                    \n\t\tParcel Number:17 0225  LL025 *Block:--Lot:--Subdivision:--",
        "tree_number": "3953",
        "species": "BOXELDER"
      },
      "geometry": {
        "type": "Point",
        "coordinates": [
          -84.445958931188,
          33.785436112249
        ]
      }
    },
    {
      "type": "Feature",
      "properties": {
        "record": "BA-202605085",
        "address": "3566 CANTRELL RD NE, ATLANTA GA 30319",
        "status": "Accepted",
        "date": "10/01/2026",
        "description": null,
        "owner": "Atlanta Properties Buckhead",
        "tree_dbh": "52",
        "tree_location": "INSIDE THE FENCE",
        "reason_removal": "Other",
        "tree_description": null,
        "tree_number": "1",
        "species": "RED OAK"
      },
      "geometry": {
        "type": "Point",
        "coordinates": [
          -84.352442207034,
          33.85243969481
        ]
      }
    },
    {
      "type": "Feature",
      "properties": {
        "record": "BA-202605112",
        "address": "2185 VIRGINIA PL NE, ATLANTA GA 30305",
        "status": "ACA Pending",
        "date": "10/01/2026",
        "description": null,
        "owner": "Brent Cuddy",
        "tree_dbh": "10",
        "tree_location": "Back yard near back fence",
        "reason_removal": "Other",
        "tree_description": "Tree is in area I want to landscape so asking for a landscaping permit.Reason for Removal:Other\n\t\t\n\t\n\t\n                                \n                            \n                        \n                    \n                        \n                            \n                                \n                                    \n                                        \n                                         Parcel Information\n                                \n                            \n                            \n                                \n                                    \n\t\tParcel Number:17 01020013032 *Block:--Lot:--Subdivision:--",
        "tree_number": "1",
        "species": "Box elder"
      },
      "geometry": {
        "type": "Point",
        "coordinates": [
          -84.381624177756,
          33.814545677139
        ]
      }
    },
    {
      "type": "Feature",
      "properties": {
        "record": "BA-202605090",
        "address": "3131 HABERSHAM RD NW, ATLANTA GA 30305",
        "status": "Accepted",
        "date": "10/01/2026",
        "description": null,
        "owner": "Alan Merrill",
        "tree_dbh": "30",
        "tree_location": "Front left",
        "reason_removal": "Dead tree",
        "tree_description": "Tree is nonlivingReason for Removal:Dead treeComments:Orange dot\n\t\t\n\t\n\t\n                                \n                            \n                        \n                    \n                        \n                            \n                                \n                                    \n                                        \n                                         Parcel Information\n                                \n                            \n                            \n                                \n                                    \n\t\tParcel Number:17 01140002010 *Block:--Lot:--Subdivision:--",
        "tree_number": "1",
        "species": "White Oak"
      },
      "geometry": {
        "type": "Point",
        "coordinates": [
          -84.39633557393,
          33.84036028432
        ]
      }
    },
    {
      "type": "Feature",
      "properties": {
        "record": "BA-202605111",
        "address": "2216 DEFOORS FERRY RD NW, ATLANTA GA 30318",
        "status": "ACA Pending",
        "date": "10/01/2026",
        "description": null,
        "owner": null,
        "tree_dbh": "27",
        "tree_location": "on Defoors Ferry side of property",
        "reason_removal": "Dead tree",
        "tree_description": "27\" Pine, Dead, on Defoors Ferry side of propertyReason for Removal:Dead treeComments:27\" Pine, Dead, on Defoors Ferry side of property\n\t\t\n\t\n\t\n                                \n                            \n                        \n                    \n                        \n                            \n                                \n                                    \n                                        \n                                         Parcel Information\n                                \n                            \n                            \n                                \n                                    \n\t\tParcel Number:17 01940006010 *Block:--Lot:--Subdivision:--",
        "tree_number": "1",
        "species": "Pine"
      },
      "geometry": {
        "type": "Point",
        "coordinates": [
          -84.431171855033,
          33.815881880921
        ]
      }
    },
    {
      "type": "Feature",
      "properties": {
        "record": "BA-202605102",
        "address": "1145 WEST PACES FERRY RD NW, ATLANTA GA 30327",
        "status": "Accepted",
        "date": "10/01/2026",
        "description": null,
        "owner": null,
        "tree_dbh": "30",
        "tree_location": "left side front yard",
        "reason_removal": "Other",
        "tree_description": "30\" White Oak, Damaged, split on 2 different occasions, causing sever damage to tree, located left side of front yardReason for Removal:OtherComments:30\" White Oak, Damaged, split on 2 different occasions, causing sever damage to tree, located left side of front yard\n\t\t\n\t\n\t\n                                \n                            \n                        \n                    \n                        \n                            \n                                \n                                    \n                                        \n                                         Parcel Information\n                                \n                            \n                            \n                                \n                                    \n\t\tParcel Number:17 0181  LL089 *Block:--Lot:--Subdivision:--",
        "tree_number": "1",
        "species": "White Oak"
      },
      "geometry": {
        "type": "Point",
        "coordinates": [
          -84.423269399406,
          33.851279862551
        ]
      }
    },
    {
      "type": "Feature",
      "properties": {
        "record": "BA-202605099",
        "address": "745 BROOKLINE ST SW, ATLANTA GA 30310",
        "status": "Accepted",
        "date": "10/01/2026",
        "description": null,
        "owner": "Elias Flores",
        "tree_dbh": "16",
        "tree_location": "Back left",
        "reason_removal": "Dead tree",
        "tree_description": "Tree has zero foliage, constantly drops large branches, and dry. Reason for Removal:Dead tree\n\t\t\n\t\n\t\n                                \n                            \n                        \n                    \n                        \n                            \n                                \n                                    \n                                        \n                                         Parcel Information\n                                \n                            \n                            \n                                \n                                    \n\t\tParcel Number:14 01060007018 *Block:--Lot:--Subdivision:--",
        "tree_number": "1",
        "species": "Uknown"
      },
      "geometry": {
        "type": "Point",
        "coordinates": [
          -84.412063786547,
          33.727172392387
        ]
      }
    },
    {
      "type": "Feature",
      "properties": {
        "record": "BA-202605103",
        "address": "338 OLD IVY RD NE, ATLANTA GA 30342",
        "status": "Accepted",
        "date": "10/01/2026",
        "description": null,
        "owner": null,
        "tree_dbh": "36",
        "tree_location": "back center",
        "reason_removal": "Dying tree",
        "tree_description": "The tree is exhibiting significant signs of decline, including the presence of fungal mushrooms at its base, soft soil beneath the root system, separation of bark at the base, and invasive ivy that has spread throughout the upper canopy.Reason for Removal:Dying tree\n\t\t\n\t\n\t\n                                \n                            \n                        \n                    \n                        \n                            \n                                \n                                    \n                                        \n                                         Parcel Information\n                                \n                            \n                            \n                                \n                                    \n\t\tParcel Number:17 00630005012 *Block:--Lot:--Subdivision:--",
        "tree_number": "1",
        "species": "oak"
      },
      "geometry": {
        "type": "Point",
        "coordinates": [
          -84.376510087144,
          33.856986775857
        ]
      }
    },
    {
      "type": "Feature",
      "properties": {
        "record": "BA-202605093",
        "address": "574 JAMES P BRAWLEY DR NW, ATLANTA GA 30318",
        "status": "Accepted",
        "date": "10/01/2026",
        "description": null,
        "owner": "Karyl Bentley",
        "tree_dbh": "18",
        "tree_location": "rear right of the home",
        "reason_removal": "Dying tree",
        "tree_description": "Dying and at an excessive angleReason for Removal:Dying tree\n\t\t\n\t\n\t\n                                \n                            \n                        \n                    \n                        \n                            \n                                \n                                    \n                                        \n                                         Parcel Information\n                                \n                            \n                            \n                                \n                                    \n\t\tParcel Number:14 01110002010 *Block:--Lot:--Subdivision:--",
        "tree_number": "1",
        "species": "Hardwood"
      },
      "geometry": {
        "type": "Point",
        "coordinates": [
          -84.412650424227,
          33.769716801522
        ]
      }
    },
    {
      "type": "Feature",
      "properties": {
        "record": "BA-202605114",
        "address": "2117 ADAMS OVERLOOK NW, ATLANTA GA 30318",
        "status": "ACA Pending",
        "date": "10/01/2026",
        "description": null,
        "owner": "margaret daly",
        "tree_dbh": "16",
        "tree_location": "behind house",
        "reason_removal": "Other",
        "tree_description": "16” DBH Maple located in a confined growing area immediately adjacent to the residence. The tree has exposed roots and limited available growing space, creating concerns regarding root stability and potential impacts to the structure and surrounding improvements. Removal is requested to address these existing site and safety concerns.",
        "tree_number": "1",
        "species": "Maple"
      },
      "geometry": {
        "type": "Point",
        "coordinates": [
          -84.454059092704,
          33.813248972973
        ]
      }
    },
    {
      "type": "Feature",
      "properties": {
        "record": "BA-202605100",
        "address": "1588 NORTH AVE NW, ATLANTA GA 30318",
        "status": "Accepted",
        "date": "10/01/2026",
        "description": null,
        "owner": "RODNEYSHA LACHAL BROWN",
        "tree_dbh": "14",
        "tree_location": "1588 noth ave",
        "reason_removal": "Dead tree",
        "tree_description": "deadReason for Removal:Dead tree\n\t\t\n\t\n\t\n                                \n                            \n                        \n                    \n                        \n                            \n                                \n                                    \n                                        \n                                         Parcel Information\n                                \n                            \n                            \n                                \n                                    \n\t\tParcel Number:14 01460010024 *Block:--Lot:--Subdivision:--",
        "tree_number": "1",
        "species": "oak"
      },
      "geometry": {
        "type": "Point",
        "coordinates": [
          -84.439778536769,
          33.767990267828
        ]
      }
    }
  ]
}