{
  "type": "FeatureCollection",
  "features": [
    {
      "type": "Feature",
      "properties": {
        "record": "BA-202604600",
        "address": "1544 BRAEBURN DR SE, ATLANTA GA 30316",
        "status": "ACA Pending",
        "date": "09/11/2026",
        "description": null,
        "owner": "RICHARDSON CAROLYN H",
        "tree_dbh": "25",
        "tree_location": "Rear",
        "reason_removal": "Significant cavity/area of decay",
        "tree_description": "Decay at base.",
        "tree_number": "1",
        "species": "Pine"
      },
      "geometry": {
        "type": "Point",
        "coordinates": [
          -84.33663712722,
          33.735221822677
        ]
      }
    },
    {
      "type": "Feature",
      "properties": {
        "record": "BA-202604593",
        "address": "2834 NORMANDY DR NW, ATLANTA GA 30305",
        "status": "Accepted",
        "date": "09/11/2026",
        "description": null,
        "owner": null,
        "tree_dbh": "14",
        "tree_location": "right side of property between fence and street",
        "reason_removal": "Dead tree",
        "tree_description": "14\" Oak, right side of property between fence and street, DeadReason for Removal:Dead treeComments:14\" Oak, right side of property between fence and street, Dead\n\t\t\n\t\n\t\n                                \n                            \n                        \n                    \n                        \n                            \n                                \n                                    \n                                        \n                                         Parcel Information\n                                \n                            \n                            \n                                \n                                    \n\t\tParcel Number:17 01430004018 *Block:--Lot:--Subdivision:--",
        "tree_number": "1",
        "species": "Oak"
      },
      "geometry": {
        "type": "Point",
        "coordinates": [
          -84.402614327158,
          33.832268727051
        ]
      }
    },
    {
      "type": "Feature",
      "properties": {
        "record": "BA-202604594",
        "address": "1458 HOSEA L WILLIAMS DR NE, ATLANTA GA 30317",
        "status": "Accepted",
        "date": "09/11/2026",
        "description": null,
        "owner": "Andrew Gilbert",
        "tree_dbh": "30",
        "tree_location": "Backyard along the street side.",
        "reason_removal": "Uncorrectable defect",
        "tree_description": "The tree has a significant lean that’s close to 45°. The tree has a small basal cavity and a section of rot at the base. Reason for Removal:Uncorrectable defect\n\t\t\n\t\n\t\n                                \n                            \n                        \n                    \n                        \n                            \n                                \n                                    \n                                        \n                                         Parcel Information\n                                \n                            \n                            \n                                \n                                    \n\t\tParcel Number:15 208 01 090 *Block:--Lot:--Subdivision:--",
        "tree_number": "1",
        "species": "Oak"
      },
      "geometry": {
        "type": "Point",
        "coordinates": [
          -84.339966154366,
          33.753483301176
        ]
      }
    },
    {
      "type": "Feature",
      "properties": {
        "record": "26TMP-060279",
        "address": "19 SARATOGA PL NE, ATLANTA GA 30324",
        "status": "",
        "date": "09/11/2026",
        "description": null,
        "owner": null,
        "tree_dbh": null,
        "tree_location": null,
        "reason_removal": null,
        "tree_description": null,
        "tree_number": null,
        "species": null
      },
      "geometry": {
        "type": "Point",
        "coordinates": [
          -84.35075888266,
          33.827427105958
        ]
      }
    },
    {
      "type": "Feature",
      "properties": {
        "record": "BA-202604591",
        "address": "197 MEADOR WAY SE, ATLANTA GA 30315",
        "status": "Accepted",
        "date": "09/11/2026",
        "description": null,
        "owner": null,
        "tree_dbh": "23",
        "tree_location": "front",
        "reason_removal": "Diseased",
        "tree_description": "*** 23-Inch DBH Pine Tree – Immediate Removal Recommended",
        "tree_number": "1",
        "species": "pine"
      },
      "geometry": {
        "type": "Point",
        "coordinates": [
          -84.381719904388,
          33.697943280672
        ]
      }
    },
    {
      "type": "Feature",
      "properties": {
        "record": "26TMP-060160",
        "address": "45 VALLEY RD NW, ATLANTA GA 30305",
        "status": "",
        "date": "09/11/2026",
        "description": null,
        "owner": null,
        "tree_dbh": null,
        "tree_location": null,
        "reason_removal": null,
        "tree_description": null,
        "tree_number": null,
        "species": null
      },
      "geometry": {
        "type": "Point",
        "coordinates": [
          -84.389391326335,
          33.849484856771
        ]
      }
    },
    {
      "type": "Feature",
      "properties": {
        "record": "BA-202604589",
        "address": "3793 FORREST PARK RD SE, ATLANTA GA 30354",
        "status": "Accepted",
        "date": "09/11/2026",
        "description": null,
        "owner": "NEAL JEANETTE",
        "tree_dbh": "10",
        "tree_location": "on property",
        "reason_removal": "Dying tree",
        "tree_description": "Damaged and hazardous Reason for Removal:Dying treeComments:I do not know what kind of tree this is nor do I know the size of the tree.\n\t\t\n\t\t\n\t\t\tTree number:2Species:unknownTree Size (DBH):10Tree location:on propertyDescription of Tree:Damaged and hazardous Reason for Removal:Dying treeComments:I do not know what kind of tree this is nor do I know the size of the tree.\n\t\t\n\t\t\n\t\t\tTree number:3Species:unknownTree Size (DBH):10Tree location:on propertyDescription of Tree:Damaged and hazardous Reason for Removal:Dying treeComments:I do not know what kind of tree this is nor do I know the size of the tree.\n\t\t\n\t\t\n\t\t\tTree number:4Species:unknownTree Size (DBH):10Tree location:on propertyDescription of Tree:Damaged and hazardous Reason for Removal:Dying treeComments:I do not know what kind of tree this is nor do I know the size of the tree.\n\t\t\n\t\t\n\t\t\tTree number:5Species:unknownTree Size (DBH):10Tree location:on propertyDescription of Tree:Damaged and hazardous Reason for Removal:Dying treeComments:I do not know what kind of tree this is nor do I know the size of the tree.\n\t\t\n\t\t\n\t\t\tTree number:6Species:unknownTree Size (DBH):10Tree location:on propertyDescription of Tree:Damaged and hazardous Reason for Removal:Dying treeComments:I do not know what kind of tree this is nor do I know the size of the tree.\n\t\t\n\t\t\n\t\t\tTree number:7Species:unknownTree Size (DBH):10Tree location:on propertyDescription of Tree:Damaged and hazardous Reason for Removal:Dying treeComments:I do not know what kind of tree this is nor do I know the size of the tree.\n\t\t\n\t\t\n\t\t\tTree number:8Species:unknownTree Size (DBH):10Tree location:on propertyDescription of Tree:Damaged and hazardous Reason for Removal:Dying treeComments:I do not know what kind of tree this is nor do I know the size of the tree.\n\t\t\n\t\t\n\t\t\tTree number:9Species:unknownTree Size (DBH):10Tree location:on propertyDescription of Tree:Damaged and hazardous Reason for Removal:Dying treeComments:I do not know what kind of tree this is nor do I know the size of the tree.\n\t\t\n\t\n\t\n                                \n                            \n                        \n                    \n                        \n                            \n                                \n                                    \n                                        \n                                         Parcel Information\n                                \n                            \n                            \n                                \n                                    \n\t\tParcel Number:14 00010002055 *Block:--Lot:--Subdivision:--",
        "tree_number": "1",
        "species": "unknown"
      },
      "geometry": {
        "type": "Point",
        "coordinates": [
          -84.357812874895,
          33.651132412767
        ]
      }
    },
    {
      "type": "Feature",
      "properties": {
        "record": "BA-202604592",
        "address": "1262 GRAYMONT DR SW, ATLANTA GA 30310",
        "status": "Accepted",
        "date": "09/11/2026",
        "description": null,
        "owner": "SKRINE MELVIN",
        "tree_dbh": "22",
        "tree_location": "front center",
        "reason_removal": "Dying tree",
        "tree_description": "***Tree #1 – 22” DBH Red Maple – Front Yard, Center\n    * Several small cavities throughout the canopy from failed branches and/or pruning cuts that did not properly compartmentalize.\n    * Codominant structure consisting of two equal-diameter leaders joined at a weak, acute angle approximately 2’ above grade.\n    * Inward-facing included bark present at the leader union.\n    * Phytophthora present along the lower trunk.Reason for Removal:Other\n\t\t\n\t\t\n\t\t\tTree number:2Species:box elderTree Size (DBH):10Tree location:rear leftDescription of Tree:***Tree #2 – 10” DBH Boxelder – Rear Left\n    * Located just inside the chain-link fence line.\n    * Central leader has failed leaving the top out of the tree. This make the tree DDH dyingReason for Removal:Uncorrectable defect\n\t\t\n\t\t\n\t\t\tTree number:3Species:boxelderTree Size (DBH):11Tree location:rear leftDescription of Tree:*** * Tree #3 – 11” DBH Boxelder – Rear Left\n    * Located just inside and to the right of Tree #2.\n    * Tree exhibits a lean exceeding 45 degrees. This is considered extremely hazardous to surrounding structures and residents.Reason for Removal:Uncorrectable defect\n\t\t\n\t\t\n\t\t\tTree number:4Species:poplarTree Size (DBH):22Tree location:rearDescription of Tree:***     Tree #4 – 22” DBH Poplar – Rear\n    * Tree exhibits greater than 30% canopy dieback and is in an active state of decline.\n    * Tree has an excessive lean toward the neighboring residence, creating an elevated risk to the adjacent property.\n    * Due to the extent of canopy decline and excessive lean toward an occupied target, the tree is highly recommended for removal.Reason for Removal:Dying tree\n\t\t\n\t\n\t\n                                \n                            \n                        \n                    \n                        \n                            \n                                \n                                    \n                                        \n                                         Parcel Information\n                                \n                            \n                            \n                                \n                                    \n\t\tParcel Number:14 01370001103 *Block:--Lot:--Subdivision:--",
        "tree_number": "1",
        "species": "maple"
      },
      "geometry": {
        "type": "Point",
        "coordinates": [
          -84.436376104202,
          33.720899943506
        ]
      }
    },
    {
      "type": "Feature",
      "properties": {
        "record": "BA-202604601",
        "address": "1837 VOLBERG ST NW, A, ATLANTA GA 30318",
        "status": "ACA Pending",
        "date": "09/11/2026",
        "description": null,
        "owner": "COOPER DAVID C",
        "tree_dbh": "39",
        "tree_location": "Located to the left of 1752A",
        "reason_removal": "Dying tree",
        "tree_description": "This Oak has fungal fruiting bodies, I assume it is Armilliaria. It also appears to have signs of termites. There is approximately 15% tip die back. Reason for Removal:Dying tree\n\t\t\n\t\t\n\t\t\tTree number:2Species:loblolly pineTree Size (DBH):23Tree location:Located to the right of 1837ADescription of Tree:This pine has basal decay present with a slight lean towards house.Reason for Removal:Dying tree\n\t\t\n\t\t\n\t\t\tTree number:3Species:loblolly pineTree Size (DBH):13Tree location:Located to the right of 1837ADescription of Tree:This pine has basal decay present.Reason for Removal:Dying tree\n\t\t\n\t\t\n\t\t\tTree number:4Species:sweetgumTree Size (DBH):17Tree location:Located to the left of 1752ADescription of Tree:The top of this tree is dead and is growing into a retaining wall.",
        "tree_number": "1",
        "species": "red oak `"
      },
      "geometry": {
        "type": "Point",
        "coordinates": [
          -84.42142541476,
          33.805558976511
        ]
      }
    },
    {
      "type": "Feature",
      "properties": {
        "record": "BA-202604587",
        "address": "1307 LORENZO DR SW, ATLANTA GA 30310",
        "status": "Accepted",
        "date": "09/11/2026",
        "description": null,
        "owner": "Wedgefield Properties LLC",
        "tree_dbh": "1",
        "tree_location": "Backyard",
        "reason_removal": "Dying tree",
        "tree_description": "Tree is located in the back yard outside my fence close to my neighbors property lineReason for Removal:Dying tree\n\t\t\n\t\t\n\t\t\tTree number:1Species:UnknownTree Size (DBH):1Tree location:BackyardDescription of Tree:Tree is located in the back yard outside my fence close to my neighbors property lineReason for Removal:Dying tree\n\t\t\n\t\n\t\n                                \n                            \n                        \n                    \n                        \n                            \n                                \n                                    \n                                        \n                                         Parcel Information\n                                \n                            \n                            \n                                \n                                    \n\t\tParcel Number:14 01370002026 *Block:--Lot:--Subdivision:--",
        "tree_number": "0",
        "species": "Unknown"
      },
      "geometry": {
        "type": "Point",
        "coordinates": [
          -84.432613465755,
          33.719779828792
        ]
      }
    },
    {
      "type": "Feature",
      "properties": {
        "record": "BA-202604595",
        "address": "231 WHITEFOORD AVE NE, ATLANTA GA 30307",
        "status": "ACA Pending",
        "date": "09/11/2026",
        "description": null,
        "owner": "GOLDWIRE BERNITA QUOVARDIS",
        "tree_dbh": "22",
        "tree_location": "Right Front Yard",
        "reason_removal": "Dying tree",
        "tree_description": "Double trunk Red Oak with large cavity and large amount of rot and decay.  12\" DBH and 22\" DBHReason for Removal:Dying tree\n\t\t\n\t\n\t\n                                \n                            \n                        \n                    \n                        \n                            \n                                \n                                    \n                                        \n                                         Parcel Information\n                                \n                            \n                            \n                                \n                                    \n\t\tParcel Number:15 209 02 098 *Block:--Lot:--Subdivision:--",
        "tree_number": "1",
        "species": "Red Oak"
      },
      "geometry": {
        "type": "Point",
        "coordinates": [
          -84.341861579752,
          33.759665866309
        ]
      }
    },
    {
      "type": "Feature",
      "properties": {
        "record": "BA-202604596",
        "address": "717 KENNOLIA DR SW, ATLANTA GA 30310",
        "status": "ACA Pending",
        "date": "09/11/2026",
        "description": null,
        "owner": null,
        "tree_dbh": "52",
        "tree_location": "backyard",
        "reason_removal": "Dead tree",
        "tree_description": "ree Species: White oak (Quercus alba)",
        "tree_number": "1",
        "species": "Tree Species: White oak (Quercus alba)"
      },
      "geometry": {
        "type": "Point",
        "coordinates": [
          -84.449049179049,
          33.735674429019
        ]
      }
    },
    {
      "type": "Feature",
      "properties": {
        "record": "BA-202604598",
        "address": "993 WOODBOURNE DR SW, ATLANTA GA 30310",
        "status": "ACA Pending",
        "date": "09/11/2026",
        "description": null,
        "owner": "Eyoel Tewdros",
        "tree_dbh": "8",
        "tree_location": "Backyard",
        "reason_removal": "Dying tree",
        "tree_description": "Very large tree, recently removed kudzoo all around and was looking healthy until yesterdayReason for Removal:Dying treeComments:I really just want to see if this tree is saveable or if it is a danger to our home..\n\t\t\n\t\n\t\n                                \n                            \n                        \n                    \n                        \n                            \n                                \n                                    \n                                        \n                                         Parcel Information\n                                \n                            \n                            \n                                \n                                    \n\t\tParcel Number:14 01210006038 *Block:--Lot:--Subdivision:--",
        "tree_number": "1",
        "species": "oak"
      },
      "geometry": {
        "type": "Point",
        "coordinates": [
          -84.419810863336,
          33.710071694814
        ]
      }
    },
    {
      "type": "Feature",
      "properties": {
        "record": "26TMP-060281",
        "address": "987 FLEETWOOD CIR SW, ATLANTA GA 30311",
        "status": "",
        "date": "09/11/2026",
        "description": null,
        "owner": null,
        "tree_dbh": null,
        "tree_location": null,
        "reason_removal": null,
        "tree_description": null,
        "tree_number": null,
        "species": null
      },
      "geometry": {
        "type": "Point",
        "coordinates": [
          -84.460162627987,
          33.73769430669
        ]
      }
    },
    {
      "type": "Feature",
      "properties": {
        "record": "BA-202604588",
        "address": "815 HAVEN OAKS CT NE, ATLANTA GA 30342",
        "status": "Accepted",
        "date": "09/11/2026",
        "description": null,
        "owner": null,
        "tree_dbh": "30",
        "tree_location": "front yard",
        "reason_removal": "Uncorrectable defect",
        "tree_description": "recent failure damage to canopy and stemReason for Removal:Uncorrectable defect\n\t\t\n\t\n\t\n                                \n                            \n                        \n                    \n                        \n                            \n                                \n                                    \n                                        \n                                         Parcel Information\n                                \n                            \n                            \n                                \n                                    \n\t\tParcel Number:17 0044  LL103 *Block:--Lot:--Subdivision:--",
        "tree_number": "1",
        "species": "oak"
      },
      "geometry": {
        "type": "Point",
        "coordinates": [
          -84.359224900981,
          33.85833594859
        ]
      }
    },
    {
      "type": "Feature",
      "properties": {
        "record": "BA-202604597",
        "address": "491 MONUMENT AVE SE, ATLANTA GA 30316",
        "status": "ACA Pending",
        "date": "09/11/2026",
        "description": null,
        "owner": "Charles Deyo",
        "tree_dbh": "43",
        "tree_location": "491 Monument Ave SE",
        "reason_removal": "Dying tree",
        "tree_description": "Tulip Poplar in backyard next to the creek. This is the 2nd of 2 Tulip Poplars that have been deemed hazardous the the city's stream restoration project at 483 Monument aveReason for Removal:Dying treeComments:Tulip Poplar in backyard next to the creek. This is the 2nd of 2 Tulip Poplars that have been deemed hazardous the the city's stream restoration project at 483 Monument ave\n\t\t\n\t\n\t\n                                \n                            \n                        \n                    \n                        \n                            \n                                \n                                    \n                                        \n                                         Parcel Information\n                                \n                            \n                            \n                                \n                                    \n\t\tParcel Number:15 177 02 138 *Block:--Lot:--Subdivision:--",
        "tree_number": "43",
        "species": "Tulip Poplar"
      },
      "geometry": {
        "type": "Point",
        "coordinates": [
          -84.341396989597,
          33.741377456854
        ]
      }
    },
    {
      "type": "Feature",
      "properties": {
        "record": "BA-202604599",
        "address": "1215 PIEDMONT AVE NE, ATLANTA GA 30309",
        "status": "ACA Pending",
        "date": "09/11/2026",
        "description": null,
        "owner": "PIEDMONT DRIVING CLUB",
        "tree_dbh": "24",
        "tree_location": "Between building and Piedmont Rd",
        "reason_removal": "Dead tree",
        "tree_description": "Red maple",
        "tree_number": "1",
        "species": "Red Maple"
      },
      "geometry": {
        "type": "Point",
        "coordinates": [
          -84.378067859218,
          33.787268062098
        ]
      }
    }
  ]
}