{
  "type": "FeatureCollection",
  "features": [
    {
      "type": "Feature",
      "properties": {
        "record": "BA-202605232",
        "address": "1382 EVERHART ST SW, ATLANTA GA 0",
        "status": "ACA Pending",
        "date": "10/07/2026",
        "description": null,
        "owner": "Thomas Garcia",
        "tree_dbh": "39",
        "tree_location": "Rear left property line",
        "reason_removal": "Dying tree",
        "tree_description": "Mature Water Oak with documented root crown and lower trunk decay. Arborist Resistograph testing found up to 44% strength loss and shell walls of approximately 5–6 inches.Reason for Removal:Dying treeComments:Certified arborist inspection performed December 14, 2020. Arborist determined the tree presented an unreasonable risk and recommended removal. Recent fungal/mushroom growth has also been observed around the base. See attached arborist report and current photographs.\n\t\t\n\t\n\t\n                                \n                            \n                        \n                    \n                        \n                            \n                                \n                                    \n                                        \n                                         Parcel Information\n                                \n                            \n                            \n                                \n                                    \n\t\tParcel Number:T14 01050008072 82 *Block:--Lot:--Subdivision:--",
        "tree_number": "1",
        "species": "Water Oak"
      },
      "geometry": {
        "type": "Point",
        "coordinates": [
          -84.413988332829,
          33.71680601624
        ]
      }
    },
    {
      "type": "Feature",
      "properties": {
        "record": "BA-202605221",
        "address": "1752 INVERNESS AVE NE, ATLANTA GA 30306",
        "status": "ACA Pending",
        "date": "10/07/2026",
        "description": null,
        "owner": null,
        "tree_dbh": null,
        "tree_location": null,
        "reason_removal": null,
        "tree_description": null,
        "tree_number": null,
        "species": null
      },
      "geometry": {
        "type": "Point",
        "coordinates": [
          -84.345844611699,
          33.802152905458
        ]
      }
    },
    {
      "type": "Feature",
      "properties": {
        "record": "BA-202605223",
        "address": "1004 DELAWARE AVE SE, ATLANTA GA 30316",
        "status": "ACA Pending",
        "date": "10/07/2026",
        "description": null,
        "owner": null,
        "tree_dbh": null,
        "tree_location": null,
        "reason_removal": null,
        "tree_description": null,
        "tree_number": null,
        "species": null
      },
      "geometry": {
        "type": "Point",
        "coordinates": [
          -84.355073002445,
          33.731230698379
        ]
      }
    },
    {
      "type": "Feature",
      "properties": {
        "record": "BA-202605234",
        "address": "1467 PEACHTREE BATTLE AVE NW, ATLANTA GA 30327",
        "status": "ACA Pending",
        "date": "10/07/2026",
        "description": null,
        "owner": null,
        "tree_dbh": null,
        "tree_location": null,
        "reason_removal": null,
        "tree_description": null,
        "tree_number": null,
        "species": null
      },
      "geometry": {
        "type": "Point",
        "coordinates": [
          -84.435635910839,
          33.82738608389
        ]
      }
    },
    {
      "type": "Feature",
      "properties": {
        "record": "BA-202605246",
        "address": "534 ETHEL ST NW, ATLANTA GA 30318",
        "status": "ACA Pending",
        "date": "10/07/2026",
        "description": null,
        "owner": null,
        "tree_dbh": null,
        "tree_location": null,
        "reason_removal": null,
        "tree_description": null,
        "tree_number": null,
        "species": null
      },
      "geometry": {
        "type": "Point",
        "coordinates": [
          -84.404793295298,
          33.784469263004
        ]
      }
    },
    {
      "type": "Feature",
      "properties": {
        "record": "BA-202605244",
        "address": "3160 ARDEN RD NW, ATLANTA GA 30305",
        "status": "ACA Pending",
        "date": "10/07/2026",
        "description": null,
        "owner": null,
        "tree_dbh": null,
        "tree_location": null,
        "reason_removal": null,
        "tree_description": null,
        "tree_number": null,
        "species": null
      },
      "geometry": {
        "type": "Point",
        "coordinates": [
          -84.399829179011,
          33.840894621057
        ]
      }
    },
    {
      "type": "Feature",
      "properties": {
        "record": "BA-202605225",
        "address": "808 PONCE DE LEON TER NE, ATLANTA GA 30306",
        "status": "ACA Pending",
        "date": "10/07/2026",
        "description": null,
        "owner": null,
        "tree_dbh": null,
        "tree_location": null,
        "reason_removal": null,
        "tree_description": null,
        "tree_number": null,
        "species": null
      },
      "geometry": {
        "type": "Point",
        "coordinates": [
          -84.360978323172,
          33.778770164728
        ]
      }
    },
    {
      "type": "Feature",
      "properties": {
        "record": "BA-202605236",
        "address": "2570 SHARONDALE DR NE, ATLANTA GA 30305",
        "status": "ACA Pending",
        "date": "10/07/2026",
        "description": null,
        "owner": null,
        "tree_dbh": null,
        "tree_location": null,
        "reason_removal": null,
        "tree_description": null,
        "tree_number": null,
        "species": null
      },
      "geometry": {
        "type": "Point",
        "coordinates": [
          -84.372853681894,
          33.824722645048
        ]
      }
    },
    {
      "type": "Feature",
      "properties": {
        "record": "BA-202605245",
        "address": "1444 LUCILE AVE SW, ATLANTA GA 30310",
        "status": "ACA Pending",
        "date": "10/07/2026",
        "description": null,
        "owner": null,
        "tree_dbh": null,
        "tree_location": null,
        "reason_removal": null,
        "tree_description": null,
        "tree_number": null,
        "species": null
      },
      "geometry": {
        "type": "Point",
        "coordinates": [
          -84.43565521503,
          33.742571333108
        ]
      }
    },
    {
      "type": "Feature",
      "properties": {
        "record": "BA-202605228",
        "address": "2550 BROOKDALE DR NW, ATLANTA GA 30305",
        "status": "ACA Pending",
        "date": "10/07/2026",
        "description": null,
        "owner": null,
        "tree_dbh": null,
        "tree_location": null,
        "reason_removal": null,
        "tree_description": null,
        "tree_number": null,
        "species": null
      },
      "geometry": {
        "type": "Point",
        "coordinates": [
          -84.404580541673,
          33.824943094053
        ]
      }
    },
    {
      "type": "Feature",
      "properties": {
        "record": "BA-202605233",
        "address": "1095 SIMS ST SW, ATLANTA GA 30310",
        "status": "ACA Pending",
        "date": "10/07/2026",
        "description": null,
        "owner": null,
        "tree_dbh": null,
        "tree_location": null,
        "reason_removal": null,
        "tree_description": null,
        "tree_number": null,
        "species": null
      },
      "geometry": {
        "type": "Point",
        "coordinates": [
          -84.403252836318,
          33.724930650653
        ]
      }
    },
    {
      "type": "Feature",
      "properties": {
        "record": "BA-202605217",
        "address": "2804 BONNYBROOK DR SW, ATLANTA GA 30311",
        "status": "ACA Pending",
        "date": "10/07/2026",
        "description": null,
        "owner": null,
        "tree_dbh": null,
        "tree_location": null,
        "reason_removal": null,
        "tree_description": null,
        "tree_number": null,
        "species": null
      },
      "geometry": {
        "type": "Point",
        "coordinates": [
          -84.479970197387,
          33.693574434233
        ]
      }
    },
    {
      "type": "Feature",
      "properties": {
        "record": "BA-202605219",
        "address": "590 MORELAND AVE SE, ATLANTA GA 30316",
        "status": "ACA Pending",
        "date": "10/07/2026",
        "description": null,
        "owner": null,
        "tree_dbh": null,
        "tree_location": null,
        "reason_removal": null,
        "tree_description": null,
        "tree_number": null,
        "species": null
      },
      "geometry": {
        "type": "Point",
        "coordinates": [
          -84.349186289353,
          33.738080342055
        ]
      }
    },
    {
      "type": "Feature",
      "properties": {
        "record": "BA-202605241",
        "address": "3549 CREIGHTON RD SW, ATLANTA GA 30331",
        "status": "ACA Pending",
        "date": "10/07/2026",
        "description": null,
        "owner": "STRICKLAND ALENE W",
        "tree_dbh": "39",
        "tree_location": "back of house",
        "reason_removal": "Uncorrectable defect",
        "tree_description": "*** Remove 39-inch DBH Red Oak — Immediate Removal Recommended",
        "tree_number": "1",
        "species": "oak"
      },
      "geometry": {
        "type": "Point",
        "coordinates": [
          -84.505029172028,
          33.700037495133
        ]
      }
    },
    {
      "type": "Feature",
      "properties": {
        "record": "BA-202605247",
        "address": "505 WOODWARD WAY NW, ATLANTA GA 30305",
        "status": "ACA Pending",
        "date": "10/07/2026",
        "description": null,
        "owner": "Annie Cook",
        "tree_dbh": "13",
        "tree_location": "Back of the house on the right.",
        "reason_removal": "Dead tree",
        "tree_description": "Uprooted oak being held up by another tree.Reason for Removal:Dead treeComments:Marked with red tape\n\t\t\n\t\t\n\t\t\tTree number:2Species:oakTree Size (DBH):17Tree location:Back of the house on the right.Description of Tree:dead tree with decay on the base and rot.Reason for Removal:Dead treeComments:marked with red tape\n\t\t\n\t\n\t\n                                \n                            \n                        \n                    \n                        \n                            \n                                \n                                    \n                                        \n                                         Parcel Information\n                                \n                            \n                            \n                                \n                                    \n\t\tParcel Number:17 01440004075 *Block:--Lot:--Subdivision:--",
        "tree_number": "1",
        "species": "oak"
      },
      "geometry": {
        "type": "Point",
        "coordinates": [
          -84.404080907293,
          33.820266789317
        ]
      }
    },
    {
      "type": "Feature",
      "properties": {
        "record": "BA-202605239",
        "address": "2820 ANDREWS DR NW, ATLANTA GA 30305",
        "status": "ACA Pending",
        "date": "10/07/2026",
        "description": null,
        "owner": "BAZZLE KENNETH L",
        "tree_dbh": "32",
        "tree_location": "front yard center",
        "reason_removal": "Significant cavity/area of decay",
        "tree_description": "32\" diameter loblolly pine at front yard center with canker on main stem approximately 45-50 feet above ground level. Photos have been provided from an aerial inspection of the tree.Reason for Removal:Significant cavity/area of decay\n\t\t\n\t\n\t\n                                \n                            \n                        \n                    \n                        \n                            \n                                \n                                    \n                                        \n                                         Parcel Information\n                                \n                            \n                            \n                                \n                                    \n\t\tParcel Number:17 01130007006 *Block:--Lot:--Subdivision:--",
        "tree_number": "1",
        "species": "Pine"
      },
      "geometry": {
        "type": "Point",
        "coordinates": [
          -84.388661109511,
          33.83194673223
        ]
      }
    },
    {
      "type": "Feature",
      "properties": {
        "record": "BA-202605227",
        "address": "850 BUCKHEAD TRCE NE, ATLANTA GA 30342",
        "status": "ACA Pending",
        "date": "10/07/2026",
        "description": null,
        "owner": null,
        "tree_dbh": "100",
        "tree_location": "right side yard",
        "reason_removal": "Dying tree",
        "tree_description": "large sweet gum treesReason for Removal:Dying treeComments:4 trees are dying in detention pond\n\t\t\n\t\n\t\n                                \n                            \n                        \n                    \n                        \n                            \n                                \n                                    \n                                        \n                                         Parcel Information\n                                \n                            \n                            \n                                \n                                    \n\t\tParcel Number:17 00430004097 *Block:--Lot:--Subdivision:--",
        "tree_number": "1",
        "species": "sweet gum"
      },
      "geometry": {
        "type": "Point",
        "coordinates": [
          -84.358612795171,
          33.863104416645
        ]
      }
    },
    {
      "type": "Feature",
      "properties": {
        "record": "26TMP-066172",
        "address": "145 VALLEY RD NW, ATLANTA GA 30305",
        "status": "",
        "date": "10/07/2026",
        "description": null,
        "owner": null,
        "tree_dbh": null,
        "tree_location": null,
        "reason_removal": null,
        "tree_description": null,
        "tree_number": null,
        "species": null
      },
      "geometry": {
        "type": "Point",
        "coordinates": [
          -84.39202642646,
          33.853396174967
        ]
      }
    },
    {
      "type": "Feature",
      "properties": {
        "record": "BA-202605237",
        "address": "3777 KING JAMES DR SW, ATLANTA GA 30331",
        "status": "ACA Pending",
        "date": "10/07/2026",
        "description": null,
        "owner": null,
        "tree_dbh": "29",
        "tree_location": "rear of house",
        "reason_removal": "Significant cavity/area of decay",
        "tree_description": "the tree is split 1/3 up the 50' heightReason for Removal:Significant cavity/area of decayComments:the tree is split and it is dying and subject to wind blowing it into the home\n\t\t\n\t\n\t\n                                \n                            \n                        \n                    \n                        \n                            \n                                \n                                    \n                                        \n                                         Parcel Information\n                                \n                            \n                            \n                                \n                                    \n\t\tParcel Number:14F00070003012 *Block:--Lot:--Subdivision:--",
        "tree_number": "39",
        "species": "pine"
      },
      "geometry": {
        "type": "Point",
        "coordinates": [
          -84.512217214291,
          33.700854963748
        ]
      }
    },
    {
      "type": "Feature",
      "properties": {
        "record": "BA-202605222",
        "address": "1503 PEACHTREE ST NE, ATLANTA GA 30309",
        "status": "ACA Pending",
        "date": "10/07/2026",
        "description": null,
        "owner": "INLAND AMERICAN ST PORTFOLIO I",
        "tree_dbh": "18",
        "tree_location": "Right side of building",
        "reason_removal": "Dying tree",
        "tree_description": "Tree is in complete declineReason for Removal:Dying tree\n\t\t\n\t\n\t\n                                \n                            \n                        \n                    \n                        \n                            \n                                \n                                    \n                                        \n                                         Parcel Information\n                                \n                            \n                            \n                                \n                                    \n\t\tParcel Number:17 01050003062 *Block:--Lot:--Subdivision:--",
        "tree_number": "1",
        "species": "Maple"
      },
      "geometry": {
        "type": "Point",
        "coordinates": [
          -84.387646409423,
          33.79951011143
        ]
      }
    },
    {
      "type": "Feature",
      "properties": {
        "record": "26TMP-066409",
        "address": "987 LAWTON ST SW, ATLANTA GA 30310",
        "status": "",
        "date": "10/07/2026",
        "description": null,
        "owner": null,
        "tree_dbh": null,
        "tree_location": null,
        "reason_removal": null,
        "tree_description": null,
        "tree_number": null,
        "species": null
      },
      "geometry": {
        "type": "Point",
        "coordinates": [
          -84.423424557047,
          33.728278154818
        ]
      }
    },
    {
      "type": "Feature",
      "properties": {
        "record": "BA-202605229",
        "address": "4065 PEACHTREE DUNWOODY RD NE, ATLANTA GA 30342",
        "status": "ACA Pending",
        "date": "10/07/2026",
        "description": null,
        "owner": "Jason Peace",
        "tree_dbh": "27",
        "tree_location": "Right of driveway",
        "reason_removal": "Dying tree",
        "tree_description": "30% dead canopyReason for Removal:Dying treeComments:pink tape\n\t\t\n\t\n\t\n                                \n                            \n                        \n                    \n                        \n                            \n                                \n                                    \n                                        \n                                         Parcel Information\n                                \n                            \n                            \n                                \n                                    \n\t\tParcel Number:17 00110001053 *Block:--Lot:--Subdivision:--",
        "tree_number": "1",
        "species": "Boxelder"
      },
      "geometry": {
        "type": "Point",
        "coordinates": [
          -84.357847778499,
          33.866134192683
        ]
      }
    },
    {
      "type": "Feature",
      "properties": {
        "record": "BA-202605224",
        "address": "1026 CORONADO DR NW, ATLANTA GA 30327",
        "status": "ACA Pending",
        "date": "10/07/2026",
        "description": null,
        "owner": null,
        "tree_dbh": "44",
        "tree_location": "back left corner of property",
        "reason_removal": "Other",
        "tree_description": "leaning treeReason for Removal:OtherComments:the tree leans towards the house really bad with a slight upheaval on back side.\n\t\t\n\t\n\t\n                                \n                            \n                        \n                    \n                        \n                            \n                                \n                                    \n                                        \n                                         Parcel Information\n                                \n                            \n                            \n                                \n                                    \n\t\tParcel Number:17 0178  LL127 *Block:--Lot:--Subdivision:--",
        "tree_number": "1",
        "species": "poplar"
      },
      "geometry": {
        "type": "Point",
        "coordinates": [
          -84.42043834826,
          33.873745124452
        ]
      }
    },
    {
      "type": "Feature",
      "properties": {
        "record": "BA-202605240",
        "address": "3199 ROCKINGHAM DR NW, ATLANTA GA 30327",
        "status": "ACA Pending",
        "date": "10/07/2026",
        "description": null,
        "owner": null,
        "tree_dbh": "30",
        "tree_location": "backyard center",
        "reason_removal": "Significant cavity/area of decay",
        "tree_description": "30\" DBH post oak tree at back yard center was observed to have a canker on the main stem in the upper 1/3rd of the crown.Reason for Removal:Significant cavity/area of decay\n\t\t\n\t\n\t\n                                \n                            \n                        \n                    \n                        \n                            \n                                \n                                    \n                                        \n                                         Parcel Information\n                                \n                            \n                            \n                                \n                                    \n\t\tParcel Number:17 01560006029 *Block:--Lot:--Subdivision:--",
        "tree_number": "1",
        "species": "post oak"
      },
      "geometry": {
        "type": "Point",
        "coordinates": [
          -84.415830786054,
          33.834695423765
        ]
      }
    },
    {
      "type": "Feature",
      "properties": {
        "record": "BA-202605220",
        "address": "314 BEREAN AVE SE, ATLANTA GA 30312",
        "status": "ACA Pending",
        "date": "10/07/2026",
        "description": null,
        "owner": "Amy Parker",
        "tree_dbh": "20",
        "tree_location": "between the two houses at the end of the driveway",
        "reason_removal": "Other",
        "tree_description": "Dangerous treeReason for Removal:OtherComments:Dangerous tree that could affect powerlines in the future since it is over the powerlines\n\t\t\n\t\n\t\n                                \n                            \n                        \n                    \n                        \n                            \n                                \n                                    \n                                        \n                                         Parcel Information\n                                \n                            \n                            \n                                \n                                    \n\t\tParcel Number:14 00210001053 *Block:--Lot:--Subdivision:--",
        "tree_number": "1",
        "species": "Oak"
      },
      "geometry": {
        "type": "Point",
        "coordinates": [
          -84.366634845488,
          33.745661537596
        ]
      }
    },
    {
      "type": "Feature",
      "properties": {
        "record": "BA-202605231",
        "address": "645 NORTHSIDE DR, ATLANTA GA 00000",
        "status": "ACA Pending",
        "date": "10/07/2026",
        "description": null,
        "owner": "BOARD OF REGENTS OF THE UNIV SYSTEM OF GEORGIA",
        "tree_dbh": "15",
        "tree_location": "GA Tech",
        "reason_removal": "Dying tree",
        "tree_description": "Bad Condition Reason for Removal:Dying tree\n\t\t\n\t\t\n\t\t\tTree number:2Species:ELMTree Size (DBH):18Tree location:GA TechReason for Removal:Dying treeComments:On GA Tech Property\n\t\t\n\t\n\t\n                                \n                            \n                        \n                    \n                        \n                            \n                                \n                                    \n                                        \n                                         Parcel Information\n                                \n                            \n                            \n                                \n                                    \n\t\tParcel Number:14 0082  LL016 *Block:--Lot:--Subdivision:--",
        "tree_number": "1",
        "species": "dogwood"
      },
      "geometry": {
        "type": "Point",
        "coordinates": [
          -84.408188332878,
          33.774459851596
        ]
      }
    },
    {
      "type": "Feature",
      "properties": {
        "record": "BA-202605242",
        "address": "1198 AVON AVE SW, ATLANTA GA 30310",
        "status": "ACA Pending",
        "date": "10/07/2026",
        "description": null,
        "owner": "OLUFEMI KHARIMASUD A",
        "tree_dbh": "53",
        "tree_location": "back left",
        "reason_removal": "Uncorrectable defect",
        "tree_description": "Removal of DDH Hazard 53” DBH White Oak located off the back left corner of the home.Reason for Removal:Significant cavity/area of decay\n\t\t\n\t\t\n\t\t\tTree number:2Species:white oakTree Size (DBH):34Tree location:left sideDescription of Tree:Removal of DDH Hazard 34” DBH White Oak located off the left side of the home.Reason for Removal:Uncorrectable defect\n\t\t\n\t\n\t\n                                \n                            \n                        \n                    \n                        \n                            \n                                \n                                    \n                                        \n                                         Parcel Information\n                                \n                            \n                            \n                                \n                                    \n\t\tParcel Number:14 01200001001 *Block:--Lot:--Subdivision:--",
        "tree_number": "1",
        "species": "white oak"
      },
      "geometry": {
        "type": "Point",
        "coordinates": [
          -84.42735603746,
          33.722198580764
        ]
      }
    },
    {
      "type": "Feature",
      "properties": {
        "record": "BA-202605238",
        "address": "978 NORTH AVE NE, ATLANTA GA 30306",
        "status": "ACA Pending",
        "date": "10/07/2026",
        "description": null,
        "owner": "CITY OF ATLANTA HIGHLAND SCH",
        "tree_dbh": "50",
        "tree_location": "east rear property",
        "reason_removal": "Uncorrectable defect",
        "tree_description": "see pink ribbonReason for Removal:Dying tree\n\t\t\n\t\t\n\t\t\tTree number:2Species:red cedarTree Size (DBH):25Tree location:east rear propertyDescription of Tree:see pink ribbonReason for Removal:Dying tree\n\t\t\n\t\t\n\t\t\tTree number:3Species:hackberryTree Size (DBH):100Tree location:east rear propertyDescription of Tree:see pink ribbonReason for Removal:Uncorrectable defectComments:Lean will fall towards building\n\t\t\n\t\n\t\n                                \n                            \n                        \n                    \n                        \n                            \n                                \n                                    \n                                        \n                                         Parcel Information\n                                \n                            \n                            \n                                \n                                    \n\t\tParcel Number:14 00160011068 *Block:--Lot:--Subdivision:--",
        "tree_number": "1",
        "species": "Red cedar"
      },
      "geometry": {
        "type": "Point",
        "coordinates": [
          -84.355227189194,
          33.771137855413
        ]
      }
    },
    {
      "type": "Feature",
      "properties": {
        "record": "BA-202605226",
        "address": "910 VIRGINIA CIR NE, ATLANTA GA 30306",
        "status": "ACA Pending",
        "date": "10/07/2026",
        "description": null,
        "owner": "HALL LEWIS MATTHEW",
        "tree_dbh": "11",
        "tree_location": "front left side of house",
        "reason_removal": "Other",
        "tree_description": "close to the water line and foundation.Reason for Removal:OtherComments:the tree is close to the water line and foundation.\n\t\t\n\t\n\t\n                                \n                            \n                        \n                    \n                        \n                            \n                                \n                                    \n                                        \n                                         Parcel Information\n                                \n                            \n                            \n                                \n                                    \n\t\tParcel Number:17 00010007032 *Block:--Lot:--Subdivision:--",
        "tree_number": "1",
        "species": "hackberry"
      },
      "geometry": {
        "type": "Point",
        "coordinates": [
          -84.357915871127,
          33.781077056503
        ]
      }
    },
    {
      "type": "Feature",
      "properties": {
        "record": "BA-202605230",
        "address": "2708 FAIRLANE DR SE, ATLANTA GA 30354",
        "status": "ACA Pending",
        "date": "10/07/2026",
        "description": null,
        "owner": null,
        "tree_dbh": "17",
        "tree_location": "back",
        "reason_removal": "Dying tree",
        "tree_description": "Fusiform Cankers on trunk and base",
        "tree_number": "1",
        "species": "pine"
      },
      "geometry": {
        "type": "Point",
        "coordinates": [
          -84.380308802581,
          33.680968176153
        ]
      }
    },
    {
      "type": "Feature",
      "properties": {
        "record": "BA-202605218",
        "address": "1881 VENETIAN DR SW, ATLANTA GA 30311",
        "status": "Accepted",
        "date": "10/07/2026",
        "description": "DDH",
        "owner": null,
        "tree_dbh": null,
        "tree_location": null,
        "reason_removal": null,
        "tree_description": null,
        "tree_number": null,
        "species": null
      },
      "geometry": {
        "type": "Point",
        "coordinates": [
          -84.4491193463,
          33.714772858816
        ]
      }
    }
  ]
}