{
  "type": "FeatureCollection",
  "features": [
    {
      "type": "Feature",
      "properties": {
        "record": "BA-202604308",
        "address": "448 ROCKWELL ST SW, ATLANTA GA 30310",
        "status": "ACA Pending",
        "date": "08/30/2026",
        "description": null,
        "owner": null,
        "tree_dbh": null,
        "tree_location": null,
        "reason_removal": null,
        "tree_description": null,
        "tree_number": null,
        "species": null
      },
      "geometry": {
        "type": "Point",
        "coordinates": [
          -84.402408603443,
          33.731875063716
        ]
      }
    },
    {
      "type": "Feature",
      "properties": {
        "record": "BA-202604310",
        "address": "286 TONAWANDA DR SE, ATLANTA GA 30315",
        "status": "ACA Pending",
        "date": "08/30/2026",
        "description": null,
        "owner": null,
        "tree_dbh": null,
        "tree_location": null,
        "reason_removal": null,
        "tree_description": null,
        "tree_number": null,
        "species": null
      },
      "geometry": {
        "type": "Point",
        "coordinates": [
          -84.385394142608,
          33.68456392996
        ]
      }
    },
    {
      "type": "Feature",
      "properties": {
        "record": "BA-202604309",
        "address": "296 ORMOND ST SE, ATLANTA GA 30315",
        "status": "ACA Pending",
        "date": "08/30/2026",
        "description": null,
        "owner": null,
        "tree_dbh": null,
        "tree_location": null,
        "reason_removal": null,
        "tree_description": null,
        "tree_number": null,
        "species": null
      },
      "geometry": {
        "type": "Point",
        "coordinates": [
          -84.378228793301,
          33.731558384551
        ]
      }
    },
    {
      "type": "Feature",
      "properties": {
        "record": "BA-202604312",
        "address": "385 CAREY DR SE, ATLANTA GA 30315",
        "status": "ACA Pending",
        "date": "08/30/2026",
        "description": null,
        "owner": null,
        "tree_dbh": null,
        "tree_location": null,
        "reason_removal": null,
        "tree_description": null,
        "tree_number": null,
        "species": null
      },
      "geometry": {
        "type": "Point",
        "coordinates": [
          -84.375474920409,
          33.693711270038
        ]
      }
    },
    {
      "type": "Feature",
      "properties": {
        "record": "BA-202604311",
        "address": "2036 ROGERS AVE SW, ATLANTA GA 30310",
        "status": "ACA Pending",
        "date": "08/30/2026",
        "description": null,
        "owner": null,
        "tree_dbh": null,
        "tree_location": null,
        "reason_removal": null,
        "tree_description": null,
        "tree_number": null,
        "species": null
      },
      "geometry": {
        "type": "Point",
        "coordinates": [
          -84.454853707882,
          33.737354274942
        ]
      }
    }
  ]
}