{
  "type": "FeatureCollection",
  "features": [
    {
      "type": "Feature",
      "properties": {
        "record": "BA-202604822",
        "address": "1344 OAKCREST DR SW, ATLANTA GA 30311",
        "status": "Accepted",
        "date": "09/21/2026",
        "description": null,
        "owner": "Terri McCoy",
        "tree_dbh": "18",
        "tree_location": "right rear",
        "reason_removal": "Uncorrectable defect",
        "tree_description": "Dying treeReason for Removal:Dying tree\n\t\t\n\t\t\n\t\t\tTree number:2Species:sweetgumTree Size (DBH):20.5Tree location:right rearDescription of Tree:Dying treeReason for Removal:Dying tree\n\t\t\n\t\t\n\t\t\tTree number:3Species:PineTree Size (DBH):24.5Tree location:right rear close to houseDescription of Tree:Dying tree/dangerous tree near the houseReason for Removal:Dying tree\n\t\t\n\t\t\n\t\t\tTree number:4Species:PineTree Size (DBH):27.5Tree location:center of the front yardDescription of Tree:Dying tree/dangerous tree near the houseReason for Removal:Other\n\t\t\n\t\t\n\t\t\tTree number:5Species:pineTree Size (DBH):35Tree location:left rear close to the houseDescription of Tree:Dying treeReason for Removal:Dying tree\n\t\t\n\t\t\n\t\t\tTree number:6Species:PineTree Size (DBH):15.9Tree location:left rearDescription of Tree:Leaning treeReason for Removal:Uncorrectable defect\n\t\t\n\t\n\t\n                                \n                            \n                        \n                    \n                        \n                            \n                                \n                                    \n                                        \n                                         Parcel Information\n                                \n                            \n                            \n                                \n                                    \n\t\tParcel Number:14 02340006029 *Block:--Lot:--Subdivision:--",
        "tree_number": "1",
        "species": "pine"
      },
      "geometry": {
        "type": "Point",
        "coordinates": [
          -84.495208114071,
          33.723460235596
        ]
      }
    },
    {
      "type": "Feature",
      "properties": {
        "record": "BA-202604800",
        "address": "1095 SIMS ST SW, ATLANTA GA 30310",
        "status": "Accepted",
        "date": "09/21/2026",
        "description": null,
        "owner": "Zachary Ryan",
        "tree_dbh": "50",
        "tree_location": "backyard",
        "reason_removal": "Dying tree",
        "tree_description": null,
        "tree_number": "1",
        "species": "unsure"
      },
      "geometry": {
        "type": "Point",
        "coordinates": [
          -84.403252836318,
          33.724930650653
        ]
      }
    },
    {
      "type": "Feature",
      "properties": {
        "record": "BA-202604830",
        "address": "176 BOLLING RD NE, ATLANTA GA 30305",
        "status": "Accepted",
        "date": "09/21/2026",
        "description": null,
        "owner": null,
        "tree_dbh": "55",
        "tree_location": "Front yard, right side of residence facing street, adjacent to sidewalk and street",
        "reason_removal": "Significant cavity/area of decay",
        "tree_description": "Mature water oak, 59\" DBH, approx. 65' tall, leaning ~10 degrees toward street. Level 3 risk assessment with resistograph drilling (Atlanta Arbor, Dec 2025, report attached) found decay at large trunk wound and rated the tree HIGH risk, likelihood of failure Probable, with whole-tree failure likely within two years under normal weather; removal recommended. Multiple fungal fruiting bodies (consistent with root/butt rot) currently present at root flare (photos attached). Trunk cavities and epicormic sprouting present. In Sept 2026, tree contacted power lines across street, smoked and caught fire during rain, causing line outage; Georgia Power trimmed lines. Targets: residence, neighboring residence across street, public street, sidewalk, overhead utilities.Reason for Removal:Significant cavity/area of decayComments:Requesting expedited inspection given documented probable-failure condition and recent fire event. Attachments: Atlanta Arbor Level 3 assessment report (Tyrell Phillips, ISA SO-6049A, TRAQ) and 9 photos documenting lean, trunk wound, cavities, fungal conks at root flare, and fire-damaged limb. Owner contact: 202-246-1192\n\t\t\n\t\n\t\n                                \n                            \n                        \n                    \n                        \n                            \n                                \n                                    \n                                        \n                                         Parcel Information\n                                \n                            \n                            \n                                \n                                    \n\t\tParcel Number:17 01000003076 *Block:--Lot:--Subdivision:--",
        "tree_number": "1",
        "species": "Water Oak (Quercus nigra)"
      },
      "geometry": {
        "type": "Point",
        "coordinates": [
          -84.38035566656,
          33.829724685466
        ]
      }
    },
    {
      "type": "Feature",
      "properties": {
        "record": "BA-202604825",
        "address": "175 KLONDIKE ST SW, ATLANTA GA 30331",
        "status": "ACA Pending",
        "date": "09/21/2026",
        "description": null,
        "owner": null,
        "tree_dbh": "44",
        "tree_location": "back",
        "reason_removal": "Dying tree",
        "tree_description": "House facing fungal fruiting bodies on base, previous improper pruning.Reason for Removal:Dying tree\n\t\t\n\t\n\t\n                                \n                            \n                        \n                    \n                        \n                            \n                                \n                                    \n                                        \n                                         Parcel Information\n                                \n                            \n                            \n                                \n                                    \n\t\tParcel Number:14F0009 LL190 *Block:--Lot:--Subdivision:--",
        "tree_number": "1",
        "species": "water oak"
      },
      "geometry": {
        "type": "Point",
        "coordinates": [
          -84.510297568069,
          33.718788569956
        ]
      }
    },
    {
      "type": "Feature",
      "properties": {
        "record": "BA-202604831",
        "address": "427 PEYTON RD SW, ATLANTA GA 30311",
        "status": "ACA Pending",
        "date": "09/21/2026",
        "description": null,
        "owner": "Michael Bowman",
        "tree_dbh": "30",
        "tree_location": "South",
        "reason_removal": "Other",
        "tree_description": "Tall tree, I'm not an arboristReason for Removal:OtherComments:I don't know how to complete tree specs.\n\t\t\n\t\t\n\t\t\tTree number:6Species:UnknownTree Size (DBH):30Tree location:SouthDescription of Tree:Tall tree, I'm not an arboristReason for Removal:OtherComments:I don't know how to complete tree specs.\n\t\t\n\t\n\t\n                                \n                            \n                        \n                    \n                        \n                            \n                                \n                                    \n                                        \n                                         Parcel Information\n                                \n                            \n                            \n                                \n                                    \n\t\tParcel Number:14 02130004014 *Block:--Lot:--Subdivision:--",
        "tree_number": "5",
        "species": "Unknown"
      },
      "geometry": {
        "type": "Point",
        "coordinates": [
          -84.479081174837,
          33.743793095575
        ]
      }
    },
    {
      "type": "Feature",
      "properties": {
        "record": "BA-202604820",
        "address": "1344 OAKCREST DR SW, ATLANTA GA 30311",
        "status": "ACA Pending",
        "date": "09/21/2026",
        "description": null,
        "owner": null,
        "tree_dbh": null,
        "tree_location": null,
        "reason_removal": null,
        "tree_description": null,
        "tree_number": null,
        "species": null
      },
      "geometry": {
        "type": "Point",
        "coordinates": [
          -84.495208114071,
          33.723460235596
        ]
      }
    },
    {
      "type": "Feature",
      "properties": {
        "record": "BA-202604838",
        "address": "3061 NANCY CREEK DR NW, ATLANTA GA 30327",
        "status": "ACA Pending",
        "date": "09/21/2026",
        "description": null,
        "owner": null,
        "tree_dbh": null,
        "tree_location": null,
        "reason_removal": null,
        "tree_description": null,
        "tree_number": null,
        "species": null
      },
      "geometry": {
        "type": "Point",
        "coordinates": [
          -84.440103105885,
          33.850182310136
        ]
      }
    },
    {
      "type": "Feature",
      "properties": {
        "record": "BA-202604836",
        "address": "1236 WOODLAND AVE SE, ATLANTA GA 30316",
        "status": "ACA Pending",
        "date": "09/21/2026",
        "description": null,
        "owner": null,
        "tree_dbh": null,
        "tree_location": null,
        "reason_removal": null,
        "tree_description": null,
        "tree_number": null,
        "species": null
      },
      "geometry": {
        "type": "Point",
        "coordinates": [
          -84.353459852122,
          33.720830328585
        ]
      }
    },
    {
      "type": "Feature",
      "properties": {
        "record": "BA-202604843",
        "address": "2281 PERKERSON RD SW, ATLANTA GA 30315",
        "status": "ACA Pending",
        "date": "09/21/2026",
        "description": null,
        "owner": null,
        "tree_dbh": null,
        "tree_location": null,
        "reason_removal": null,
        "tree_description": null,
        "tree_number": null,
        "species": null
      },
      "geometry": {
        "type": "Point",
        "coordinates": [
          -84.41145664542,
          33.692185637521
        ]
      }
    },
    {
      "type": "Feature",
      "properties": {
        "record": "BA-202604839",
        "address": "1680 VENETIAN DR SW, ATLANTA GA 30311",
        "status": "ACA Pending",
        "date": "09/21/2026",
        "description": null,
        "owner": null,
        "tree_dbh": null,
        "tree_location": null,
        "reason_removal": null,
        "tree_description": null,
        "tree_number": null,
        "species": null
      },
      "geometry": {
        "type": "Point",
        "coordinates": [
          -84.442582415302,
          33.714569859717
        ]
      }
    },
    {
      "type": "Feature",
      "properties": {
        "record": "BA-202604813",
        "address": "1624 SANDTOWN RD SW, ATLANTA GA 30311",
        "status": "ACA Pending",
        "date": "09/21/2026",
        "description": null,
        "owner": null,
        "tree_dbh": null,
        "tree_location": null,
        "reason_removal": null,
        "tree_description": null,
        "tree_number": null,
        "species": null
      },
      "geometry": {
        "type": "Point",
        "coordinates": [
          -84.441804668228,
          33.715475435905
        ]
      }
    },
    {
      "type": "Feature",
      "properties": {
        "record": "BA-202604835",
        "address": "1088 SANDERS AVE SE, ATLANTA GA 30316",
        "status": "ACA Pending",
        "date": "09/21/2026",
        "description": null,
        "owner": "NORMAN STEPHEN S",
        "tree_dbh": "24",
        "tree_location": "back yard fence line",
        "reason_removal": "Significant cavity/area of decay",
        "tree_description": "Top part of tree has cracked and is resting on other treesReason for Removal:Significant cavity/area of decayComments:I am not sure of the exact type or size of the tree; I am not currently in Georgia, but I can get a neighbor to meet\n\t\t\n\t\n\t\n                                \n                            \n                        \n                    \n                        \n                            \n                                \n                                    \n                                        \n                                         Parcel Information\n                                \n                            \n                            \n                                \n                                    \n\t\tParcel Number:14 00120008022 *Block:--Lot:--Subdivision:--",
        "tree_number": "1",
        "species": "Unknown"
      },
      "geometry": {
        "type": "Point",
        "coordinates": [
          -84.35173349802,
          33.742096672358
        ]
      }
    },
    {
      "type": "Feature",
      "properties": {
        "record": "BA-202604799",
        "address": "1165 EAST BEECHWOOD DR NW, ATLANTA GA 30327",
        "status": "ACA Pending",
        "date": "09/21/2026",
        "description": null,
        "owner": "HOSTETLER SCOTT A",
        "tree_dbh": "22",
        "tree_location": "left side",
        "reason_removal": "Dead tree",
        "tree_description": "dead white oak tree located on the left side of driveway by the street Reason for Removal:Dead treeComments: dead white oak tree located on the left side of driveway by the street \n\t\t\n\t\n\t\n                                \n                            \n                        \n                    \n                        \n                            \n                                \n                                    \n                                        \n                                         Parcel Information\n                                \n                            \n                            \n                                \n                                    \n\t\tParcel Number:17 0180  LL007 *Block:--Lot:--Subdivision:--",
        "tree_number": "1",
        "species": "white oak"
      },
      "geometry": {
        "type": "Point",
        "coordinates": [
          -84.425555289482,
          33.853786235512
        ]
      }
    },
    {
      "type": "Feature",
      "properties": {
        "record": "BA-202604818",
        "address": "317 ENGLEWOOD AVE SE, ATLANTA GA 30315",
        "status": "Issued",
        "date": "09/21/2026",
        "description": null,
        "owner": "HARRIEL MARIO",
        "tree_dbh": "20",
        "tree_location": "Front right",
        "reason_removal": "Uncorrectable defect",
        "tree_description": "Split at main leadReason for Removal:Uncorrectable defect\n\t\t\n\t\n\t\n                                \n                            \n                        \n                    \n                        \n                            \n                                \n                                    \n                                        \n                                         Parcel Information\n                                \n                            \n                            \n                                \n                                    \n\t\tParcel Number:14 00410001004 *Block:--Lot:--Subdivision:--",
        "tree_number": "1",
        "species": "Silver Maple"
      },
      "geometry": {
        "type": "Point",
        "coordinates": [
          -84.378206422796,
          33.721966376787
        ]
      }
    },
    {
      "type": "Feature",
      "properties": {
        "record": "BA-202604809",
        "address": "1680 WESTVIEW DR SW, ATLANTA GA 30310",
        "status": "ACA Pending",
        "date": "09/21/2026",
        "description": null,
        "owner": "WESTVIEW CEMETERY INC",
        "tree_dbh": "40",
        "tree_location": "Section 36",
        "reason_removal": "Dead tree",
        "tree_description": "significant root and stem decay throughout, significant canopy failures, dieback/decline exceeding 1/3 total canopy of tree",
        "tree_number": "1",
        "species": "Water Oak"
      },
      "geometry": {
        "type": "Point",
        "coordinates": [
          -84.431747305036,
          33.747298300307
        ]
      }
    },
    {
      "type": "Feature",
      "properties": {
        "record": "BA-202604802",
        "address": "4370 EAST BROOKHAVEN DR NE, ATLANTA GA 30319",
        "status": "ACA Pending",
        "date": "09/21/2026",
        "description": null,
        "owner": null,
        "tree_dbh": "32",
        "tree_location": "front yard behind azaleas",
        "reason_removal": "Uncorrectable defect",
        "tree_description": "Mature 32-inch DBH pine exhibiting a pronounced directional lean toward the residence, placing the home within the tree’s potential failure zone. The tree also exhibits multiple resinous wound areas along the main trunk, consistent with previous injury and localized disruption of the protective bark and underlying woody tissue.",
        "tree_number": "1",
        "species": "Pinus taeda"
      },
      "geometry": {
        "type": "Point",
        "coordinates": [
          -84.350427310141,
          33.873899833263
        ]
      }
    },
    {
      "type": "Feature",
      "properties": {
        "record": "BA-202604803",
        "address": "1767 DEFOOR AVE NW, A, ATLANTA GA 30318",
        "status": "ACA Pending",
        "date": "09/21/2026",
        "description": null,
        "owner": "Annika Orich",
        "tree_dbh": "8",
        "tree_location": "Right side parking lot",
        "reason_removal": "Uncorrectable defect",
        "tree_description": "Lean and unbalanced crownReason for Removal:Uncorrectable defectComments:Orange dot\n\t\t\n\t\n\t\n                                \n                            \n                        \n                    \n                        \n                            \n                                \n                                    \n                                        \n                                         Parcel Information\n                                \n                            \n                            \n                                \n                                    \n\t\tParcel Number:17 01870009019 *Block:--Lot:--Subdivision:--",
        "tree_number": "1",
        "species": "Boxelder"
      },
      "geometry": {
        "type": "Point",
        "coordinates": [
          -84.421221181363,
          33.803617449488
        ]
      }
    },
    {
      "type": "Feature",
      "properties": {
        "record": "BA-202604806",
        "address": "4431 GLENGARY DR NE, ATLANTA GA 30342",
        "status": "ACA Pending",
        "date": "09/21/2026",
        "description": null,
        "owner": null,
        "tree_dbh": null,
        "tree_location": null,
        "reason_removal": null,
        "tree_description": null,
        "tree_number": null,
        "species": null
      },
      "geometry": {
        "type": "Point",
        "coordinates": [
          -84.362701450353,
          33.874310916044
        ]
      }
    },
    {
      "type": "Feature",
      "properties": {
        "record": "26TMP-062192",
        "address": "715 EMILY PL NW, ATLANTA GA 30318",
        "status": "",
        "date": "09/21/2026",
        "description": null,
        "owner": null,
        "tree_dbh": null,
        "tree_location": null,
        "reason_removal": null,
        "tree_description": null,
        "tree_number": null,
        "species": null
      },
      "geometry": {
        "type": "Point",
        "coordinates": [
          -84.452170707298,
          33.77395260795
        ]
      }
    },
    {
      "type": "Feature",
      "properties": {
        "record": "BA-202604814",
        "address": "87 PEACHTREE WAY NE, ATLANTA GA 30305",
        "status": "ACA Pending",
        "date": "09/21/2026",
        "description": null,
        "owner": null,
        "tree_dbh": "30",
        "tree_location": "Front Yard",
        "reason_removal": "Dying tree",
        "tree_description": "Tall oak. It has been dropping limbs.Reason for Removal:Dying treeComments:Tree has been dropping limbs.\n\t\t\n\t\n\t\n                                \n                            \n                        \n                    \n                        \n                            \n                                \n                                    \n                                        \n                                         Parcel Information\n                                \n                            \n                            \n                                \n                                    \n\t\tParcel Number:17 01010005004 *Block:--Lot:--Subdivision:--",
        "tree_number": "1",
        "species": "oak"
      },
      "geometry": {
        "type": "Point",
        "coordinates": [
          -84.384786558319,
          33.827498972723
        ]
      }
    },
    {
      "type": "Feature",
      "properties": {
        "record": "BA-202604808",
        "address": "836 TIFT AVE SW, ATLANTA GA 30310",
        "status": "ACA Pending",
        "date": "09/21/2026",
        "description": null,
        "owner": "Francisco Sastre",
        "tree_dbh": "30",
        "tree_location": "front yard of house",
        "reason_removal": "Diseased",
        "tree_description": "not applying for removal, just for assessment. Hazardous treeReason for Removal:DiseasedComments:not applying for removal, just for assessment. Hazardous tree\n\t\t\n\t\n\t\n                                \n                            \n                        \n                    \n                        \n                            \n                                \n                                    \n                                        \n                                         Parcel Information\n                                \n                            \n                            \n                                \n                                    \n\t\tParcel Number:14 01070010021 *Block:--Lot:--Subdivision:--",
        "tree_number": "1",
        "species": "not sure"
      },
      "geometry": {
        "type": "Point",
        "coordinates": [
          -84.410400402554,
          33.732007834493
        ]
      }
    },
    {
      "type": "Feature",
      "properties": {
        "record": "BA-202604805",
        "address": "2006 MCLENDON AVE NE, ATLANTA GA 30307",
        "status": "ACA Pending",
        "date": "09/21/2026",
        "description": null,
        "owner": "Jenny McBride",
        "tree_dbh": "39",
        "tree_location": "Right side of house",
        "reason_removal": "Significant cavity/area of decay",
        "tree_description": "Cavity at base - TRA attachedReason for Removal:Significant cavity/area of decay\n\t\t\n\t\n\t\n                                \n                            \n                        \n                    \n                        \n                            \n                                \n                                    \n                                        \n                                         Parcel Information\n                                \n                            \n                            \n                                \n                                    \n\t\tParcel Number:15 238 04 073 *Block:--Lot:--Subdivision:--",
        "tree_number": "1",
        "species": "White Oak"
      },
      "geometry": {
        "type": "Point",
        "coordinates": [
          -84.321809339482,
          33.764688087287
        ]
      }
    },
    {
      "type": "Feature",
      "properties": {
        "record": "BA-202604817",
        "address": "1051 TUMLIN ST NW, ATLANTA GA 30318",
        "status": "ACA Pending",
        "date": "09/21/2026",
        "description": null,
        "owner": null,
        "tree_dbh": "40",
        "tree_location": "Left Corner of the House",
        "reason_removal": "Dead tree",
        "tree_description": "Dead old PoplarReason for Removal:Dead tree\n\t\t\n\t\n\t\n                                \n                            \n                        \n                    \n                        \n                            \n                                \n                                    \n                                        \n                                         Parcel Information\n                                \n                            \n                            \n                                \n                                    \n\t\tParcel Number:17 01490007035 *Block:--Lot:--Subdivision:--",
        "tree_number": "1",
        "species": "poplar"
      },
      "geometry": {
        "type": "Point",
        "coordinates": [
          -84.400513856344,
          33.783561417957
        ]
      }
    },
    {
      "type": "Feature",
      "properties": {
        "record": "BA-202604811",
        "address": "1265 OAK GROVE AVE SE, ATLANTA GA 30316",
        "status": "ACA Pending",
        "date": "09/21/2026",
        "description": null,
        "owner": null,
        "tree_dbh": null,
        "tree_location": null,
        "reason_removal": null,
        "tree_description": null,
        "tree_number": null,
        "species": null
      },
      "geometry": {
        "type": "Point",
        "coordinates": [
          -84.346666223389,
          33.742871527464
        ]
      }
    },
    {
      "type": "Feature",
      "properties": {
        "record": "BA-202604837",
        "address": "712 FRANCIS AVE SE, ATLANTA GA 30312",
        "status": "ACA Pending",
        "date": "09/21/2026",
        "description": null,
        "owner": "Hannah Huston",
        "tree_dbh": "21",
        "tree_location": "back left side of house",
        "reason_removal": "Diseased",
        "tree_description": "the tree exhibits extensive fungal fruiting bodies/conks along the main trunk, indicating significant internal fungal decay and deterioration of the tree’s structural wood. The widespread presence of these conks, particularly along the main stem, is consistent with advanced decay and compromised structural integrity. Due to the extent of the apparent decay, the tree has an increased risk of structural failure and presents a potential safety hazard to the surrounding property and occupants. Removal is recommended to eliminate the hazard, as pruning or other routine maintenance would not adequately address the internal structural deterioration.Reason for Removal:Diseased\n\t\t\n\t\t\n\t\t\tTree number:2Species:OakTree Size (DBH):27Tree location:back left side of houseDescription of Tree:the tree exhibits extensive fungal fruiting bodies/conks along the main trunk, indicating significant internal fungal decay and deterioration of the tree’s structural wood. The widespread presence of these conks, particularly along the main stem, is consistent with advanced decay and compromised structural integrity. Due to the extent of the apparent decay, the tree has an increased risk of structural failure and presents a potential safety hazard to the surrounding property and occupants. Removal is recommended to eliminate the hazard, as pruning or other routine maintenance would not adequately address the internal structural deterioration.Reason for Removal:Diseased\n\t\t\n\t\n\t\n                                \n                            \n                        \n                    \n                        \n                            \n                                \n                                    \n                                        \n                                         Parcel Information\n                                \n                            \n                            \n                                \n                                    \n\t\tParcel Number:14 00230010077 *Block:--Lot:--Subdivision:--",
        "tree_number": "1",
        "species": "Oak"
      },
      "geometry": {
        "type": "Point",
        "coordinates": [
          -84.365171032708,
          33.723435643217
        ]
      }
    },
    {
      "type": "Feature",
      "properties": {
        "record": "BA-202604819",
        "address": "98 FOURTEENTH ST NE, ATLANTA GA 30309",
        "status": "ACA Pending",
        "date": "09/21/2026",
        "description": null,
        "owner": null,
        "tree_dbh": "28",
        "tree_location": "SW area of site near 14th Street",
        "reason_removal": "Dying tree",
        "tree_description": "Water oak in center of grouping with recent dieback visible throughout canopyReason for Removal:Dying treeComments:Tree has recently declined in last three weeks with rapid browning throughout canopy\n\t\t\n\t\n\t\n                                \n                            \n                        \n                    \n                        \n                            \n                                \n                                    \n                                        \n                                         Parcel Information\n                                \n                            \n                            \n                                \n                                    \n\t\tParcel Number:17 0106  LL007 *Block:--Lot:--Subdivision:--",
        "tree_number": "1",
        "species": "Quercus nigra"
      },
      "geometry": {
        "type": "Point",
        "coordinates": [
          -84.383149666565,
          33.786650585692
        ]
      }
    },
    {
      "type": "Feature",
      "properties": {
        "record": "BA-202604842",
        "address": "2291 PERKERSON RD SW, ATLANTA GA 30315",
        "status": "ACA Pending",
        "date": "09/21/2026",
        "description": null,
        "owner": null,
        "tree_dbh": "17",
        "tree_location": "back yard",
        "reason_removal": "Dying tree",
        "tree_description": "white oak dying with root rot and hazardousReason for Removal:Dying tree\n\t\t\n\t\t\n\t\t\tTree number:2Species:Live OakTree Size (DBH):23Tree location:back yardDescription of Tree:Live oak tree is dying and hazardousReason for Removal:Dying tree\n\t\t\n\t\t\n\t\t\tTree number:3Species:White OakTree Size (DBH):39.5Tree location:back yardDescription of Tree:White Oak is dying and hazardousReason for Removal:Dying tree\n\t\t\n\t\n\t\n                                \n                            \n                        \n                    \n                        \n                            \n                                \n                                    \n                                        \n                                         Parcel Information\n                                \n                            \n                            \n                                \n                                    \n\t\tParcel Number:14 01020008007 *Block:--Lot:--Subdivision:--",
        "tree_number": "1",
        "species": "Live Oak"
      },
      "geometry": {
        "type": "Point",
        "coordinates": [
          -84.411460655853,
          33.691957978058
        ]
      }
    },
    {
      "type": "Feature",
      "properties": {
        "record": "BA-202604823",
        "address": "277 LITTLE ST SE, ATLANTA GA 30315",
        "status": "ACA Pending",
        "date": "09/21/2026",
        "description": null,
        "owner": "Michael Saxon",
        "tree_dbh": "20",
        "tree_location": "Left side of front yard",
        "reason_removal": "Uncorrectable defect",
        "tree_description": "several girdling roots, root intrusion has caused damage to sewer cleanout and water linesReason for Removal:Uncorrectable defectComments:Orange paint\n\t\t\n\t\n\t\n                                \n                            \n                        \n                    \n                        \n                            \n                                \n                                    \n                                        \n                                         Parcel Information\n                                \n                            \n                            \n                                \n                                    \n\t\tParcel Number:14 00540009019 *Block:--Lot:--Subdivision:--",
        "tree_number": "1",
        "species": "Red Maple"
      },
      "geometry": {
        "type": "Point",
        "coordinates": [
          -84.379147905176,
          33.733061273054
        ]
      }
    },
    {
      "type": "Feature",
      "properties": {
        "record": "BA-202604834",
        "address": "112 MOBILE AVE NE, ATLANTA GA 30305",
        "status": "ACA Pending",
        "date": "09/21/2026",
        "description": null,
        "owner": null,
        "tree_dbh": "15",
        "tree_location": "Left side front yard near street",
        "reason_removal": "Uncorrectable defect",
        "tree_description": "20 degree lean towards the street. 30% dead canopy.Reason for Removal:Uncorrectable defectComments:Pink tape\n\t\t\n\t\n\t\n                                \n                            \n                        \n                    \n                        \n                            \n                                \n                                    \n                                        \n                                         Parcel Information\n                                \n                            \n                            \n                                \n                                    \n\t\tParcel Number:17 01020004046 *Block:--Lot:--Subdivision:--",
        "tree_number": "1",
        "species": "Cherry Laurel"
      },
      "geometry": {
        "type": "Point",
        "coordinates": [
          -84.385814177548,
          33.816377953509
        ]
      }
    },
    {
      "type": "Feature",
      "properties": {
        "record": "BA-202604821",
        "address": "1344 OAKCREST DR SW, ATLANTA GA 30311",
        "status": "ACA Pending",
        "date": "09/21/2026",
        "description": null,
        "owner": "Terri McCoy",
        "tree_dbh": "18",
        "tree_location": "right rear",
        "reason_removal": "Uncorrectable defect",
        "tree_description": "Dying treeReason for Removal:Dying tree\n\t\t\n\t\t\n\t\t\tTree number:2Species:sweetgumTree Size (DBH):20.5Tree location:right rearDescription of Tree:dying treeReason for Removal:Dying tree\n\t\t\n\t\t\n\t\t\tTree number:3Species:pineTree Size (DBH):24.5Tree location:right rear close to houseDescription of Tree:dying tree/dangerous tree near the houseReason for Removal:Dying tree\n\t\t\n\t\t\n\t\t\tTree number:4Species:PineTree Size (DBH):27.5Tree location:center of the front yardDescription of Tree:dangerous tree near the houseReason for Removal:Other\n\t\t\n\t\t\n\t\t\tTree number:5Species:pineTree Size (DBH):35Tree location:left rear close to the houseDescription of Tree:dying treeReason for Removal:Dying tree\n\t\t\n\t\t\n\t\t\tTree number:6Species:PineTree Size (DBH):15.9Tree location:left rearDescription of Tree:leaning treeReason for Removal:Uncorrectable defect\n\t\t\n\t\n\t\n                                \n                            \n                        \n                    \n                        \n                            \n                                \n                                    \n                                        \n                                         Parcel Information\n                                \n                            \n                            \n                                \n                                    \n\t\tParcel Number:14 02340006029 *Block:--Lot:--Subdivision:--",
        "tree_number": "1",
        "species": "pine"
      },
      "geometry": {
        "type": "Point",
        "coordinates": [
          -84.495208114071,
          33.723460235596
        ]
      }
    },
    {
      "type": "Feature",
      "properties": {
        "record": "BA-202604810",
        "address": "1819 KING ALFRED DR SW, ATLANTA GA 30331",
        "status": "ACA Pending",
        "date": "09/21/2026",
        "description": null,
        "owner": "Veronica Williams",
        "tree_dbh": "28",
        "tree_location": "Front left",
        "reason_removal": "Significant cavity/area of decay",
        "tree_description": "28 DBH Pine.  Large sap section, >15 degree lean at base and rising root plate, decay pocket - 10' up.",
        "tree_number": "1",
        "species": "Pine"
      },
      "geometry": {
        "type": "Point",
        "coordinates": [
          -84.512655231641,
          33.70522552105
        ]
      }
    },
    {
      "type": "Feature",
      "properties": {
        "record": "BA-202604815",
        "address": "3297 CASCADE RD SW, ATLANTA GA 30311",
        "status": "ACA Pending",
        "date": "09/21/2026",
        "description": null,
        "owner": null,
        "tree_dbh": "12",
        "tree_location": "driveway",
        "reason_removal": "Dead tree",
        "tree_description": null,
        "tree_number": "1",
        "species": "unknown"
      },
      "geometry": {
        "type": "Point",
        "coordinates": [
          -84.496009582691,
          33.721508185389
        ]
      }
    },
    {
      "type": "Feature",
      "properties": {
        "record": "BA-202604807",
        "address": "3 MIDDLE PLANTATION RD NW, ATLANTA GA 30318",
        "status": "ACA Pending",
        "date": "09/21/2026",
        "description": null,
        "owner": null,
        "tree_dbh": "24",
        "tree_location": "located behind Palace Green Pl",
        "reason_removal": "Dead tree",
        "tree_description": "One 24'' dead Maple located just after entrance to Phase 1Reason for Removal:Dead treeComments:One 24'' dead Maple located just after entrance to Phase 1\n\t\t\n\t\t\n\t\t\tTree number:2Species:pineTree Size (DBH):22Tree location:located behind Ironbound and Palace green plDescription of Tree:located behind Ironbound and Palace green plReason for Removal:Dead treeComments:(2) dead/dying 22'' Pines located behind Ironbound and Palace green pl\n\t\t\n\t\t\n\t\t\tTree number:3Species:pineTree Size (DBH):22Tree location: behind Ironbound and Palace green plDescription of Tree:Two dead/dying 22'' Pines located behind Ironbound and Palace green plReason for Removal:Dead treeComments:Two dead/dying 22'' Pines located behind Ironbound and Palace green pl\n\t\t\n\t\t\n\t\t\tTree number:4Species:boxelderTree Size (DBH):18Tree location:behind Palace Green PlDescription of Tree:Two 18\" leaning Boxelders located behind Palace Green PlReason for Removal:Dead treeComments:Two 18\" leaning Boxelders located behind Palace Green Pl\n\t\t\n\t\t\n\t\t\tTree number:5Species:boxelderTree Size (DBH):18Tree location:located behind Palace Green PlDescription of Tree:Two 18\" leaning Boxelders located behind Palace Green PlReason for Removal:Dead treeComments:Two 18\" leaning Boxelders located behind Palace Green Pl\n\t\t\n\t\n\t\n                                \n                            \n                        \n                    \n                        \n                            \n                                \n                                    \n                                        \n                                         Parcel Information\n                                \n                            \n                            \n                                \n                                    \n\t\tParcel Number:17 02200008149 *Block:--Lot:--Subdivision:--",
        "tree_number": "1",
        "species": "maple"
      },
      "geometry": {
        "type": "Point",
        "coordinates": [
          -84.439697752215,
          33.822281311848
        ]
      }
    },
    {
      "type": "Feature",
      "properties": {
        "record": "BA-202604824",
        "address": "1344 OAKCREST DR SW, ATLANTA GA 30311",
        "status": "ACA Pending",
        "date": "09/21/2026",
        "description": null,
        "owner": "Terri McCoy",
        "tree_dbh": "18",
        "tree_location": "right rear",
        "reason_removal": "Uncorrectable defect",
        "tree_description": "dying treeReason for Removal:Dying tree\n\t\t\n\t\t\n\t\t\tTree number:2Species:sweetgumTree Size (DBH):20.5Tree location:right rearDescription of Tree:dying treeReason for Removal:Dying tree\n\t\t\n\t\t\n\t\t\tTree number:3Species:pinTree Size (DBH):24.5Tree location:right rear close to houseDescription of Tree:dying tree/dangerous tree near the houseReason for Removal:Dying tree\n\t\t\n\t\t\n\t\t\tTree number:4Species:PineTree Size (DBH):27.5Tree location:center of the front yardDescription of Tree:dangerous tree near the houseReason for Removal:Other\n\t\t\n\t\t\n\t\t\tTree number:5Species:pineTree Size (DBH):35Tree location:left rear close to the houseDescription of Tree:dying treeReason for Removal:Dying tree\n\t\t\n\t\t\n\t\t\tTree number:6Species:PineTree Size (DBH):15.9Tree location:left rearDescription of Tree:leaning treeReason for Removal:Uncorrectable defect\n\t\t\n\t\n\t\n                                \n                            \n                        \n                    \n                        \n                            \n                                \n                                    \n                                        \n                                         Parcel Information\n                                \n                            \n                            \n                                \n                                    \n\t\tParcel Number:14 02340006029 *Block:--Lot:--Subdivision:--",
        "tree_number": "1",
        "species": "pine"
      },
      "geometry": {
        "type": "Point",
        "coordinates": [
          -84.495208114071,
          33.723460235596
        ]
      }
    },
    {
      "type": "Feature",
      "properties": {
        "record": "26TMP-054608",
        "address": "366 PEACHTREE AVE NE, ATLANTA GA 30305",
        "status": "",
        "date": "09/21/2026",
        "description": null,
        "owner": null,
        "tree_dbh": null,
        "tree_location": null,
        "reason_removal": null,
        "tree_description": null,
        "tree_number": null,
        "species": null
      },
      "geometry": {
        "type": "Point",
        "coordinates": [
          -84.375617956455,
          33.835029415301
        ]
      }
    },
    {
      "type": "Feature",
      "properties": {
        "record": "BA-202604812",
        "address": "1735 BREWER BLVD SW, ATLANTA GA 30310",
        "status": "ACA Pending",
        "date": "09/21/2026",
        "description": null,
        "owner": null,
        "tree_dbh": "100",
        "tree_location": "Backyard",
        "reason_removal": "Invasive/undesirable tree",
        "tree_description": null,
        "tree_number": "1",
        "species": "Sycamore"
      },
      "geometry": {
        "type": "Point",
        "coordinates": [
          -84.415601813542,
          33.707200038697
        ]
      }
    },
    {
      "type": "Feature",
      "properties": {
        "record": "BA-202604816",
        "address": "1348 WESTMONT RD SW, ATLANTA GA 30311",
        "status": "ACA Pending",
        "date": "09/21/2026",
        "description": null,
        "owner": "Colt Stout",
        "tree_dbh": "25",
        "tree_location": "rear of the property",
        "reason_removal": "Significant cavity/area of decay",
        "tree_description": "Leaning treeReason for Removal:Uncorrectable defect\n\t\t\n\t\t\n\t\t\tTree number:2Species:PineTree Size (DBH):22Tree location:rear of the propertyDescription of Tree:Dying treeReason for Removal:Significant cavity/area of decay\n\t\t\n\t\n\t\n                                \n                            \n                        \n                    \n                        \n                            \n                                \n                                    \n                                        \n                                         Parcel Information\n                                \n                            \n                            \n                                \n                                    \n\t\tParcel Number:14 01370001034 *Block:--Lot:--Subdivision:--",
        "tree_number": "1",
        "species": "Pine"
      },
      "geometry": {
        "type": "Point",
        "coordinates": [
          -84.437584375115,
          33.718541431443
        ]
      }
    },
    {
      "type": "Feature",
      "properties": {
        "record": "BA-202604828",
        "address": "462 PAGE AVE NE, ATLANTA GA 30307",
        "status": "ACA Pending",
        "date": "09/21/2026",
        "description": null,
        "owner": "Christina Searles Tai",
        "tree_dbh": "15",
        "tree_location": "Right foundation",
        "reason_removal": "Invasive/undesirable tree",
        "tree_description": "too close to foundation and gas meter, undesirable speciesReason for Removal:Invasive/undesirable treeComments:Ribbon\n\t\t\n\t\n\t\n                                \n                            \n                        \n                    \n                        \n                            \n                                \n                                    \n                                        \n                                         Parcel Information\n                                \n                            \n                            \n                                \n                                    \n\t\tParcel Number:15 239 02 018 *Block:--Lot:--Subdivision:--",
        "tree_number": "1",
        "species": "Cherry Laurel"
      },
      "geometry": {
        "type": "Point",
        "coordinates": [
          -84.334218088965,
          33.766718204337
        ]
      }
    },
    {
      "type": "Feature",
      "properties": {
        "record": "BA-202604832",
        "address": "1575 MAYFLOWER AVE SW, ATLANTA GA 30311",
        "status": "ACA Pending",
        "date": "09/21/2026",
        "description": null,
        "owner": "Devin Kennedy",
        "tree_dbh": "40",
        "tree_location": "Front of House",
        "reason_removal": "Dying tree",
        "tree_description": null,
        "tree_number": "1",
        "species": "Oak"
      },
      "geometry": {
        "type": "Point",
        "coordinates": [
          -84.439300080825,
          33.728085566553
        ]
      }
    },
    {
      "type": "Feature",
      "properties": {
        "record": "BA-202604829",
        "address": "1054 CRANE RD NE, ATLANTA GA 30324",
        "status": "ACA Pending",
        "date": "09/21/2026",
        "description": null,
        "owner": "Mary Jane Hannah",
        "tree_dbh": "10",
        "tree_location": "Right side of yard",
        "reason_removal": "Dying tree",
        "tree_description": "marked with blue tapeReason for Removal:Dead tree\n\t\t\n\t\t\n\t\t\tTree number:2Species:PoplarTree Size (DBH):10Tree location:left side of yardDescription of Tree:marked with blue tapeReason for Removal:Dying tree\n\t\t\n\t\t\n\t\t\tTree number:3Species:PoplarTree Size (DBH):10Tree location:Right side of yardDescription of Tree:marked with Blue TapeReason for Removal:Dying tree\n\t\t\n\t\n\t\n                                \n                            \n                        \n                    \n                        \n                            \n                                \n                                    \n                                        \n                                         Parcel Information\n                                \n                            \n                            \n                                \n                                    \n\t\tParcel Number:17 00080008033 *Block:--Lot:--Subdivision:--",
        "tree_number": "1",
        "species": "Poplar"
      },
      "geometry": {
        "type": "Point",
        "coordinates": [
          -84.354365867727,
          33.839748637275
        ]
      }
    },
    {
      "type": "Feature",
      "properties": {
        "record": "BA-202604827",
        "address": "526 MCWILLIAMS RD SE, ATLANTA GA 30315",
        "status": "ACA Pending",
        "date": "09/21/2026",
        "description": null,
        "owner": null,
        "tree_dbh": "47",
        "tree_location": "Front left side of lot",
        "reason_removal": "Dying tree",
        "tree_description": "Multipl fungal conks with bacterial flux; one of two central leaders denuded with multiple scaffold limb failures; canopy loss >50%Reason for Removal:Dying tree\n\t\t\n\t\n\t\n                                \n                            \n                        \n                    \n                        \n                            \n                                \n                                    \n                                        \n                                         Parcel Information\n                                \n                            \n                            \n                                \n                                    \n\t\tParcel Number:14 00380001005 *Block:--Lot:--Subdivision:--",
        "tree_number": "1",
        "species": "Oak"
      },
      "geometry": {
        "type": "Point",
        "coordinates": [
          -84.371334165041,
          33.688886873627
        ]
      }
    },
    {
      "type": "Feature",
      "properties": {
        "record": "BA-202604826",
        "address": "73 WARREN ST SE, ATLANTA GA 30317",
        "status": "ACA Pending",
        "date": "09/21/2026",
        "description": null,
        "owner": "THOMAS ANTHONY J SR",
        "tree_dbh": "31",
        "tree_location": "back left of lot",
        "reason_removal": "Dying tree",
        "tree_description": "distinctive lean to the treeReason for Removal:Dying tree\n\t\t\n\t\t\n\t\t\tTree number:5Species:oakTree Size (DBH):10Tree location:a few feet to the left of the houseReason for Removal:Dying tree\n\t\t\n\t\n\t\n                                \n                            \n                        \n                    \n                        \n                            \n                                \n                                    \n                                        \n                                         Parcel Information\n                                \n                            \n                            \n                                \n                                    \n\t\tParcel Number:15 206 03 023 *Block:--Lot:--Subdivision:--",
        "tree_number": "1",
        "species": "oak"
      },
      "geometry": {
        "type": "Point",
        "coordinates": [
          -84.326311725923,
          33.751289678141
        ]
      }
    },
    {
      "type": "Feature",
      "properties": {
        "record": "26TMP-062070",
        "address": "440 CALHOUN ST NW, ATLANTA GA 30318",
        "status": "",
        "date": "09/21/2026",
        "description": null,
        "owner": null,
        "tree_dbh": null,
        "tree_location": null,
        "reason_removal": null,
        "tree_description": null,
        "tree_number": null,
        "species": null
      },
      "geometry": {
        "type": "Point",
        "coordinates": [
          -84.401581009073,
          33.782817776221
        ]
      }
    },
    {
      "type": "Feature",
      "properties": {
        "record": "BA-202604841",
        "address": "1379 CHATTAHOOCHEE AVE NW, ATLANTA GA 30318",
        "status": "ACA Pending",
        "date": "09/21/2026",
        "description": null,
        "owner": null,
        "tree_dbh": "22",
        "tree_location": "front",
        "reason_removal": "Dead tree",
        "tree_description": "leaning dead tree yellow ribbonReason for Removal:Dead tree\n\t\t\n\t\n\t\n                                \n                            \n                        \n                    \n                        \n                            \n                                \n                                    \n                                        \n                                         Parcel Information\n                                \n                            \n                            \n                                \n                                    \n\t\tParcel Number:17 0192  LL079 *Block:--Lot:--Subdivision:--",
        "tree_number": "1",
        "species": "sweetgum"
      },
      "geometry": {
        "type": "Point",
        "coordinates": [
          -84.435902744041,
          33.808629968887
        ]
      }
    },
    {
      "type": "Feature",
      "properties": {
        "record": "BA-202604796",
        "address": "1588 ROGERS AVE SW, ATLANTA GA 30310",
        "status": "Accepted",
        "date": "09/21/2026",
        "description": "DDH",
        "owner": null,
        "tree_dbh": null,
        "tree_location": null,
        "reason_removal": null,
        "tree_description": null,
        "tree_number": null,
        "species": null
      },
      "geometry": {
        "type": "Point",
        "coordinates": [
          -84.439621847486,
          33.737219307099
        ]
      }
    }
  ]
}