{
  "type": "FeatureCollection",
  "features": [
    {
      "type": "Feature",
      "properties": {
        "record": "BA-202604606",
        "address": "982 CARDOVA DR NE, ATLANTA GA 30324",
        "status": "ACA Pending",
        "date": "09/13/2026",
        "description": null,
        "owner": "Booth Benjamin Chase",
        "tree_dbh": "22",
        "tree_location": "Backyard",
        "reason_removal": "Dead tree",
        "tree_description": "Tree is shedding bark and hanging over the house. Reason for Removal:Dead tree\n\t\t\n\t\n\t\n                                \n                            \n                        \n                    \n                        \n                            \n                                \n                                    \n                                        \n                                         Parcel Information\n                                \n                            \n                            \n                                \n                                    \n\t\tParcel Number:17 00050003014 *Block:--Lot:--Subdivision:--",
        "tree_number": "1",
        "species": "Oak"
      },
      "geometry": {
        "type": "Point",
        "coordinates": [
          -84.356170940262,
          33.816736814287
        ]
      }
    },
    {
      "type": "Feature",
      "properties": {
        "record": "BA-202604612",
        "address": "3331 LANDINGS SOUTH DR SW, ATLANTA GA 30331",
        "status": "ACA Pending",
        "date": "09/13/2026",
        "description": null,
        "owner": null,
        "tree_dbh": null,
        "tree_location": null,
        "reason_removal": null,
        "tree_description": null,
        "tree_number": null,
        "species": null
      },
      "geometry": {
        "type": "Point",
        "coordinates": [
          -84.52111768856,
          33.662641299543
        ]
      }
    },
    {
      "type": "Feature",
      "properties": {
        "record": "BA-202604608",
        "address": "1289 BEECH VALLEY RD NE, ATLANTA GA 30306",
        "status": "ACA Pending",
        "date": "09/13/2026",
        "description": null,
        "owner": null,
        "tree_dbh": null,
        "tree_location": null,
        "reason_removal": null,
        "tree_description": null,
        "tree_number": null,
        "species": null
      },
      "geometry": {
        "type": "Point",
        "coordinates": [
          -84.344423960612,
          33.7955978484
        ]
      }
    },
    {
      "type": "Feature",
      "properties": {
        "record": "BA-202604607",
        "address": "993 NORTHROPE DR NE, ATLANTA GA 30324",
        "status": "ACA Pending",
        "date": "09/13/2026",
        "description": null,
        "owner": null,
        "tree_dbh": null,
        "tree_location": null,
        "reason_removal": null,
        "tree_description": null,
        "tree_number": null,
        "species": null
      },
      "geometry": {
        "type": "Point",
        "coordinates": [
          -84.355607522273,
          33.818264101014
        ]
      }
    },
    {
      "type": "Feature",
      "properties": {
        "record": "BA-202604611",
        "address": "3321 LANDINGS SOUTH DR SW, ATLANTA GA 30331",
        "status": "ACA Pending",
        "date": "09/13/2026",
        "description": null,
        "owner": null,
        "tree_dbh": null,
        "tree_location": null,
        "reason_removal": null,
        "tree_description": null,
        "tree_number": null,
        "species": null
      },
      "geometry": {
        "type": "Point",
        "coordinates": [
          -84.521114473642,
          33.662546425713
        ]
      }
    },
    {
      "type": "Feature",
      "properties": {
        "record": "BA-202604610",
        "address": "3311 LANDINGS SOUTH DR SW, ATLANTA GA 30331",
        "status": "ACA Pending",
        "date": "09/13/2026",
        "description": null,
        "owner": null,
        "tree_dbh": null,
        "tree_location": null,
        "reason_removal": null,
        "tree_description": null,
        "tree_number": null,
        "species": null
      },
      "geometry": {
        "type": "Point",
        "coordinates": [
          -84.521106635948,
          33.662447148186
        ]
      }
    },
    {
      "type": "Feature",
      "properties": {
        "record": "26TMP-060419",
        "address": "1676 FERNLEAF CIR NW, ATLANTA GA 30318",
        "status": "",
        "date": "09/13/2026",
        "description": null,
        "owner": null,
        "tree_dbh": null,
        "tree_location": null,
        "reason_removal": null,
        "tree_description": null,
        "tree_number": null,
        "species": null
      },
      "geometry": {
        "type": "Point",
        "coordinates": [
          -84.441041264906,
          33.820321461526
        ]
      }
    },
    {
      "type": "Feature",
      "properties": {
        "record": "BA-202604609",
        "address": "1307 BATTLE VIEW DR NW, ATLANTA GA 30327",
        "status": "Accepted",
        "date": "09/13/2026",
        "description": null,
        "owner": null,
        "tree_dbh": null,
        "tree_location": null,
        "reason_removal": null,
        "tree_description": null,
        "tree_number": null,
        "species": null
      },
      "geometry": {
        "type": "Point",
        "coordinates": [
          -84.430436942118,
          33.824599636483
        ]
      }
    }
  ]
}