{
  "type": "FeatureCollection",
  "features": [
    {
      "type": "Feature",
      "properties": {
        "record": "26TMP-056909",
        "address": "189 CHILDS DR NW, ATLANTA GA 30314",
        "status": "",
        "date": "08/28/2026",
        "description": null,
        "owner": null,
        "tree_dbh": null,
        "tree_location": null,
        "reason_removal": null,
        "tree_description": null,
        "tree_number": null,
        "species": null
      },
      "geometry": {
        "type": "Point",
        "coordinates": [
          -84.436477105763,
          33.760943507032
        ]
      }
    },
    {
      "type": "Feature",
      "properties": {
        "record": "BA-202604302",
        "address": "916 ROSEDALE RD NE, ATLANTA GA 30306",
        "status": "ACA Pending",
        "date": "08/28/2026",
        "description": null,
        "owner": "PAULSON MICHAEL SCOTT OR PAULSON MOLLY",
        "tree_dbh": "22",
        "tree_location": "back left",
        "reason_removal": "Dying tree",
        "tree_description": "Large cavity tree along fenceReason for Removal:Dying tree\n\t\t\n\t\n\t\n                                \n                            \n                        \n                    \n                        \n                            \n                                \n                                    \n                                        \n                                         Parcel Information\n                                \n                            \n                            \n                                \n                                    \n\t\tParcel Number:15 241 03 106 *Block:--Lot:--Subdivision:--",
        "tree_number": "1",
        "species": "Hardw"
      },
      "geometry": {
        "type": "Point",
        "coordinates": [
          -84.348407890233,
          33.779628967909
        ]
      }
    },
    {
      "type": "Feature",
      "properties": {
        "record": "BA-202604282",
        "address": "2827 RAMSGATE NW, ATLANTA GA 30305",
        "status": "ACA Pending",
        "date": "08/28/2026",
        "description": null,
        "owner": "GOODMAN CAROL L",
        "tree_dbh": "9",
        "tree_location": "front center",
        "reason_removal": "Dying tree",
        "tree_description": "this tree has a poor growth structure as it is growing under canopy of overstay trees. Reason for Removal:Dying tree\n\t\t\n\t\n\t\n                                \n                            \n                        \n                    \n                        \n                            \n                                \n                                    \n                                        \n                                         Parcel Information\n                                \n                            \n                            \n                                \n                                    \n\t\tParcel Number:17 01130003028 *Block:--Lot:--Subdivision:--",
        "tree_number": "1",
        "species": "water oak"
      },
      "geometry": {
        "type": "Point",
        "coordinates": [
          -84.397648913743,
          33.831265942366
        ]
      }
    },
    {
      "type": "Feature",
      "properties": {
        "record": "BA-202604293",
        "address": "526 ROY ST SW, ATLANTA GA 30310",
        "status": "ACA Pending",
        "date": "08/28/2026",
        "description": null,
        "owner": null,
        "tree_dbh": "25",
        "tree_location": "back left corner on welch",
        "reason_removal": "Invasive/undesirable tree",
        "tree_description": "it is also dying Reason for Removal:Invasive/undesirable tree\n\t\t\n\t\n\t\n                                \n                            \n                        \n                    \n                        \n                            \n                                \n                                    \n                                        \n                                         Parcel Information\n                                \n                            \n                            \n                                \n                                    \n\t\tParcel Number:T14 00870007044 02 *Block:--Lot:--Subdivision:SD-22-036 / 526 ROY ST SW",
        "tree_number": "1",
        "species": "mulberry"
      },
      "geometry": {
        "type": "Point",
        "coordinates": [
          -84.404943442131,
          33.724166314074
        ]
      }
    },
    {
      "type": "Feature",
      "properties": {
        "record": "BA-202604291",
        "address": "1092 ST AUGUSTINE PL NE, ATLANTA GA 30306",
        "status": "ACA Pending",
        "date": "08/28/2026",
        "description": null,
        "owner": null,
        "tree_dbh": null,
        "tree_location": null,
        "reason_removal": null,
        "tree_description": null,
        "tree_number": null,
        "species": null
      },
      "geometry": {
        "type": "Point",
        "coordinates": [
          -84.350850098104,
          33.77449904847
        ]
      }
    },
    {
      "type": "Feature",
      "properties": {
        "record": "BA-202604281",
        "address": "2924 NANCY CREEK RD NW, ATLANTA GA 30327",
        "status": "ACA Pending",
        "date": "08/28/2026",
        "description": null,
        "owner": null,
        "tree_dbh": "18",
        "tree_location": "Front, right",
        "reason_removal": "Dead tree",
        "tree_description": "DDH -  compromised  structure - near multiple targetsReason for Removal:Dying tree\n\t\t\n\t\t\n\t\t\tTree number:2Species:Pine Tree Size (DBH):33Tree location:Front, right Description of Tree:Broken Crown - Storm damagedReason for Removal:OtherComments:The failure has altered the upper crown structure and left the tree with storm-related structural damage. Due to the height of the tree, proximity to the residence and street and the consequences of additional branch or stem failure, removal is requested for risk mitigation rather than long-term retention.\n\t\t\n\t\t\n\t\t\tTree number:3Species:Pine Tree Size (DBH):25Tree location:Front, right Description of Tree: At the time of visual inspection, no significant structural defect, advanced decline, or other condition independently warranting removal was observed.Reason for Removal:OtherComments:The property owner has requested removal and is seeking approval through the applicable permitting process.\n\t\t\n\t\t\n\t\t\tTree number:4Species:RiverbirchTree Size (DBH):17Tree location:Front, left of driveway Description of Tree:DDH Severe structural failure. Reason for Removal:Dead tree\n\t\t\n\t\n\t\n                                \n                            \n                        \n                    \n                        \n                            \n                                \n                                    \n                                        \n                                         Parcel Information\n                                \n                            \n                            \n                                \n                                    \n\t\tParcel Number:17 02330001010 *Block:--Lot:--Subdivision:--",
        "tree_number": "1",
        "species": "Red Maple"
      },
      "geometry": {
        "type": "Point",
        "coordinates": [
          -84.45163895953,
          33.836622123298
        ]
      }
    },
    {
      "type": "Feature",
      "properties": {
        "record": "BA-202604297",
        "address": "1760 DETROIT AVE NW, ATLANTA GA 30314",
        "status": "ACA Pending",
        "date": "08/28/2026",
        "description": null,
        "owner": "HOWARD WILLIE EVA",
        "tree_dbh": "28",
        "tree_location": "front",
        "reason_removal": "Diseased",
        "tree_description": "has fungus/spores growing in the rootsReason for Removal:Diseased\n\t\t\n\t\n\t\n                                \n                            \n                        \n                    \n                        \n                            \n                                \n                                    \n                                        \n                                         Parcel Information\n                                \n                            \n                            \n                                \n                                    \n\t\tParcel Number:14 01460014024 *Block:--Lot:--Subdivision:--",
        "tree_number": "1",
        "species": "oak"
      },
      "geometry": {
        "type": "Point",
        "coordinates": [
          -84.444802487055,
          33.767064107327
        ]
      }
    },
    {
      "type": "Feature",
      "properties": {
        "record": "BA-202604300",
        "address": "467 BLAKE AVE SE, ATLANTA GA 30316",
        "status": "ACA Pending",
        "date": "08/28/2026",
        "description": null,
        "owner": "GREEN BENETTA M",
        "tree_dbh": "30",
        "tree_location": "back yard",
        "reason_removal": "Dying tree",
        "tree_description": "tree is dyingReason for Removal:Dying tree\n\t\t\n\t\n\t\n                                \n                            \n                        \n                    \n                        \n                            \n                                \n                                    \n                                        \n                                         Parcel Information\n                                \n                            \n                            \n                                \n                                    \n\t\tParcel Number:15 178 03 106 *Block:--Lot:--Subdivision:--",
        "tree_number": "1",
        "species": "Oak"
      },
      "geometry": {
        "type": "Point",
        "coordinates": [
          -84.33838892924,
          33.741270145475
        ]
      }
    },
    {
      "type": "Feature",
      "properties": {
        "record": "26TMP-057009",
        "address": "683 COLLIER RD NW, ATLANTA GA 30318",
        "status": "",
        "date": "08/28/2026",
        "description": null,
        "owner": null,
        "tree_dbh": null,
        "tree_location": null,
        "reason_removal": null,
        "tree_description": null,
        "tree_number": null,
        "species": null
      },
      "geometry": {
        "type": "Point",
        "coordinates": [
          -84.476328918942,
          33.771041534614
        ]
      }
    },
    {
      "type": "Feature",
      "properties": {
        "record": "BA-202604292",
        "address": "3350 KNOLLWOOD DR NW, ATLANTA GA 30305",
        "status": "ACA Pending",
        "date": "08/28/2026",
        "description": null,
        "owner": "Jennifer Fallon",
        "tree_dbh": "11",
        "tree_location": "right side of house and driveway",
        "reason_removal": "Uncorrectable defect",
        "tree_description": null,
        "tree_number": "1",
        "species": "Cryptomeria"
      },
      "geometry": {
        "type": "Point",
        "coordinates": [
          -84.395790021624,
          33.847410528174
        ]
      }
    },
    {
      "type": "Feature",
      "properties": {
        "record": "BA-202604289",
        "address": "4582 CLUB CIR NE, ATLANTA GA 30219",
        "status": "ACA Pending",
        "date": "08/28/2026",
        "description": null,
        "owner": "GOLDBERG JULIENNE B",
        "tree_dbh": "24",
        "tree_location": "Front",
        "reason_removal": "Other",
        "tree_description": "Hazardous tree homeowner is worried after recent storm damageReason for Removal:OtherComments:28 trees over 20\" on property more than enough canopy coverage\n\t\t\n\t\t\n\t\t\tTree number:2Species:HickoryTree Size (DBH):20Tree location:LeftDescription of Tree:Severe lean over homeReason for Removal:OtherComments:28 trees over 20\" on property more than enough canopy coverage\n\t\t\n\t\n\t\n                                \n                            \n                        \n                    \n                        \n                            \n                                \n                                    \n                                        \n                                         Parcel Information\n                                \n                            \n                            \n                                \n                                    \n\t\tParcel Number:17 00130001081 *Block:--Lot:--Subdivision:--",
        "tree_number": "1",
        "species": "Hickory"
      },
      "geometry": {
        "type": "Point",
        "coordinates": [
          -84.354600168778,
          33.879034825994
        ]
      }
    },
    {
      "type": "Feature",
      "properties": {
        "record": "BA-202604299",
        "address": "2240 DEFOORS FERRY RD NW, ATLANTA GA 30318",
        "status": "ACA Pending",
        "date": "08/28/2026",
        "description": null,
        "owner": null,
        "tree_dbh": null,
        "tree_location": null,
        "reason_removal": null,
        "tree_description": null,
        "tree_number": null,
        "species": null
      },
      "geometry": {
        "type": "Point",
        "coordinates": [
          -84.43102329181,
          33.815189224069
        ]
      }
    },
    {
      "type": "Feature",
      "properties": {
        "record": "BA-202604284",
        "address": "925 NORTHCLIFFE DR NW, ATLANTA GA 30318",
        "status": "ACA Pending",
        "date": "08/28/2026",
        "description": null,
        "owner": null,
        "tree_dbh": "16",
        "tree_location": "front left",
        "reason_removal": "Dying tree",
        "tree_description": "16\" diameter dying river birch tree at front left of home with greater than 33% decline in the canopy.Reason for Removal:Dying tree\n\t\t\n\t\n\t\n                                \n                            \n                        \n                    \n                        \n                            \n                                \n                                    \n                                        \n                                         Parcel Information\n                                \n                            \n                            \n                                \n                                    \n\t\tParcel Number:17 01850001014 *Block:--Lot:--Subdivision:--",
        "tree_number": "1",
        "species": "river birch"
      },
      "geometry": {
        "type": "Point",
        "coordinates": [
          -84.418457944871,
          33.818291046482
        ]
      }
    },
    {
      "type": "Feature",
      "properties": {
        "record": "BA-202604279",
        "address": "1688 MAY AVE SE, ATLANTA GA 30316",
        "status": "ACA Pending",
        "date": "08/28/2026",
        "description": null,
        "owner": null,
        "tree_dbh": "4",
        "tree_location": "Front yard",
        "reason_removal": "Dying tree",
        "tree_description": "Maple tree that has lost 2 large limbs and has fungus on the trunkReason for Removal:Dying tree\n\t\t\n\t\n\t\n                                \n                            \n                        \n                    \n                        \n                            \n                                \n                                    \n                                        \n                                         Parcel Information\n                                \n                            \n                            \n                                \n                                    \n\t\tParcel Number:15 175 01 063 *Block:--Lot:--Subdivision:--",
        "tree_number": "1",
        "species": "Maple"
      },
      "geometry": {
        "type": "Point",
        "coordinates": [
          -84.332527094702,
          33.738950691076
        ]
      }
    },
    {
      "type": "Feature",
      "properties": {
        "record": "BA-202604287",
        "address": "2373 CHRISTOPHERS WALK NW, ATLANTA GA 30327",
        "status": "ACA Pending",
        "date": "08/28/2026",
        "description": null,
        "owner": null,
        "tree_dbh": "30",
        "tree_location": "rear right",
        "reason_removal": "Significant cavity/area of decay",
        "tree_description": "Picture of treeReason for Removal:Significant cavity/area of decayComments:- hollow cavity at base \n- cavity in upper limb extending towards home\n\t\t\n\t\n\t\n                                \n                            \n                        \n                    \n                        \n                            \n                                \n                                    \n                                        \n                                         Parcel Information\n                                \n                            \n                            \n                                \n                                    \n\t\tParcel Number:17 01940003012 *Block:--Lot:--Subdivision:--",
        "tree_number": "1",
        "species": "Beech"
      },
      "geometry": {
        "type": "Point",
        "coordinates": [
          -84.43139325382,
          33.819471854632
        ]
      }
    },
    {
      "type": "Feature",
      "properties": {
        "record": "BA-202604285",
        "address": "2490 WOODWARD WAY NW, ATLANTA GA 30305",
        "status": "ACA Pending",
        "date": "08/28/2026",
        "description": null,
        "owner": "SHAFFER CHARLES M JR HARRIET H",
        "tree_dbh": "24",
        "tree_location": "right property line",
        "reason_removal": "Dead tree",
        "tree_description": null,
        "tree_number": "1",
        "species": "Hickory"
      },
      "geometry": {
        "type": "Point",
        "coordinates": [
          -84.396197714553,
          33.823657300508
        ]
      }
    },
    {
      "type": "Feature",
      "properties": {
        "record": "BA-202604290",
        "address": "2609 HOWELL MILL RD NW, ATLANTA GA 30327",
        "status": "ACA Pending",
        "date": "08/28/2026",
        "description": null,
        "owner": null,
        "tree_dbh": null,
        "tree_location": null,
        "reason_removal": null,
        "tree_description": null,
        "tree_number": null,
        "species": null
      },
      "geometry": {
        "type": "Point",
        "coordinates": [
          -84.416692183837,
          33.826156009645
        ]
      }
    },
    {
      "type": "Feature",
      "properties": {
        "record": "BA-202604286",
        "address": "93 PEACHTREE WAY NE, ATLANTA GA 30305",
        "status": "ACA Pending",
        "date": "08/28/2026",
        "description": null,
        "owner": "WALL JOHN C",
        "tree_dbh": "32",
        "tree_location": "back center",
        "reason_removal": "Significant cavity/area of decay",
        "tree_description": "Decay traveling into main trunk from dead branch.Reason for Removal:Significant cavity/area of decay\n\t\t\n\t\t\n\t\t\tTree number:2Species:PineTree Size (DBH):36Tree location:back centerDescription of Tree:Abnormal canopy architecture coupled with decay in main trunk at 35 feet above ground.Reason for Removal:Significant cavity/area of decay\n\t\t\n\t\n\t\n                                \n                            \n                        \n                    \n                        \n                            \n                                \n                                    \n                                        \n                                         Parcel Information\n                                \n                            \n                            \n                                \n                                    \n\t\tParcel Number:17 01010005005 *Block:--Lot:--Subdivision:--",
        "tree_number": "1",
        "species": "Pine"
      },
      "geometry": {
        "type": "Point",
        "coordinates": [
          -84.384577612227,
          33.827442590431
        ]
      }
    },
    {
      "type": "Feature",
      "properties": {
        "record": "BA-202604278",
        "address": "2901 PIEDMONT RD NE, A, ATLANTA GA 30305",
        "status": "ACA Pending",
        "date": "08/28/2026",
        "description": null,
        "owner": "FREISEM JANE H",
        "tree_dbh": "26",
        "tree_location": "Left Side of Property",
        "reason_removal": "Uncorrectable defect",
        "tree_description": null,
        "tree_number": "1",
        "species": "River Birch"
      },
      "geometry": {
        "type": "Point",
        "coordinates": [
          -84.367942382852,
          33.83366047525
        ]
      }
    },
    {
      "type": "Feature",
      "properties": {
        "record": "BA-202604283",
        "address": "3178 MARNE DR NW, ATLANTA GA 30305",
        "status": "ACA Pending",
        "date": "08/28/2026",
        "description": null,
        "owner": null,
        "tree_dbh": "17",
        "tree_location": "In front of house",
        "reason_removal": "Dying tree",
        "tree_description": "exposed roots and bark pealing, tree is leaning towards the house Reason for Removal:OtherComments:exposed roots and bark pealing ,tree is leaning towards the house \n\t\t\n\t\t\n\t\t\tTree number:2Species:MapleTree Size (DBH):15Tree location:In front of houseDescription of Tree:Tree is almost completely gone, and limbs are a danger for pedestrians and transit Reason for Removal:Dying treeComments:Tree is almost completely gone, and limbs are a danger for pedestrians and transit \n\t\t\n\t\n\t\n                                \n                            \n                        \n                    \n                        \n                            \n                                \n                                    \n                                        \n                                         Parcel Information\n                                \n                            \n                            \n                                \n                                    \n\t\tParcel Number:17 01420002054 *Block:--Lot:--Subdivision:--",
        "tree_number": "1",
        "species": "Maple"
      },
      "geometry": {
        "type": "Point",
        "coordinates": [
          -84.403728837259,
          33.84140292746
        ]
      }
    },
    {
      "type": "Feature",
      "properties": {
        "record": "BA-202604288",
        "address": "933 HAWICK DR NW, ATLANTA GA 30327",
        "status": "ACA Pending",
        "date": "08/28/2026",
        "description": null,
        "owner": "MARTIN SUZANNE E",
        "tree_dbh": "10",
        "tree_location": "right of driveway",
        "reason_removal": "Other",
        "tree_description": "Picture of treeReason for Removal:OtherComments:DDH\n\t\t\n\t\n\t\n                                \n                            \n                        \n                    \n                        \n                            \n                                \n                                    \n                                        \n                                         Parcel Information\n                                \n                            \n                            \n                                \n                                    \n\t\tParcel Number:17 01830001024 *Block:--Lot:--Subdivision:--",
        "tree_number": "1",
        "species": "Maple"
      },
      "geometry": {
        "type": "Point",
        "coordinates": [
          -84.417671135402,
          33.830251536185
        ]
      }
    },
    {
      "type": "Feature",
      "properties": {
        "record": "26TMP-056654",
        "address": "1513 MOZLEY PL SW, ATLANTA GA 30314",
        "status": "",
        "date": "08/28/2026",
        "description": null,
        "owner": null,
        "tree_dbh": null,
        "tree_location": null,
        "reason_removal": null,
        "tree_description": null,
        "tree_number": null,
        "species": null
      },
      "geometry": {
        "type": "Point",
        "coordinates": [
          -84.436817999813,
          33.751250319027
        ]
      }
    },
    {
      "type": "Feature",
      "properties": {
        "record": "26TMP-057043",
        "address": "1887 WYCLIFF RD NW, ATLANTA GA 30309",
        "status": "",
        "date": "08/28/2026",
        "description": null,
        "owner": null,
        "tree_dbh": null,
        "tree_location": null,
        "reason_removal": null,
        "tree_description": null,
        "tree_number": null,
        "species": null
      },
      "geometry": {
        "type": "Point",
        "coordinates": [
          -84.395890211366,
          33.806243695487
        ]
      }
    },
    {
      "type": "Feature",
      "properties": {
        "record": "26TMP-056928",
        "address": "1885 AKRON DR SE, ATLANTA GA 30315",
        "status": "",
        "date": "08/28/2026",
        "description": null,
        "owner": null,
        "tree_dbh": null,
        "tree_location": null,
        "reason_removal": null,
        "tree_description": null,
        "tree_number": null,
        "species": null
      },
      "geometry": {
        "type": "Point",
        "coordinates": [
          -84.353759398373,
          33.702206691805
        ]
      }
    },
    {
      "type": "Feature",
      "properties": {
        "record": "26TMP-056899",
        "address": "1422 MILLER AVE NE, ATLANTA GA 30307",
        "status": "",
        "date": "08/28/2026",
        "description": null,
        "owner": null,
        "tree_dbh": null,
        "tree_location": null,
        "reason_removal": null,
        "tree_description": null,
        "tree_number": null,
        "species": null
      },
      "geometry": {
        "type": "Point",
        "coordinates": [
          -84.341016330573,
          33.766060218954
        ]
      }
    },
    {
      "type": "Feature",
      "properties": {
        "record": "BA-202604296",
        "address": "1842 WINDEMERE DR NE, ATLANTA GA 30324",
        "status": "ACA Pending",
        "date": "08/28/2026",
        "description": null,
        "owner": "CONE DAVID W",
        "tree_dbh": "13",
        "tree_location": "Fron left of home",
        "reason_removal": "Dead tree",
        "tree_description": null,
        "tree_number": "1",
        "species": "Hardwood"
      },
      "geometry": {
        "type": "Point",
        "coordinates": [
          -84.365013973474,
          33.805778481478
        ]
      }
    },
    {
      "type": "Feature",
      "properties": {
        "record": "BA-202604295",
        "address": "1237 LENA ST NW, ATLANTA GA 30314",
        "status": "Issued",
        "date": "08/28/2026",
        "description": "DDH",
        "owner": null,
        "tree_dbh": null,
        "tree_location": null,
        "reason_removal": null,
        "tree_description": null,
        "tree_number": null,
        "species": null
      },
      "geometry": {
        "type": "Point",
        "coordinates": [
          -84.427176636652,
          33.756761968637
        ]
      }
    },
    {
      "type": "Feature",
      "properties": {
        "record": "BA-202604294",
        "address": "65 ROGERS ST SE, ATLANTA GA 30317",
        "status": "Accepted",
        "date": "08/28/2026",
        "description": "DDH",
        "owner": null,
        "tree_dbh": null,
        "tree_location": null,
        "reason_removal": null,
        "tree_description": null,
        "tree_number": null,
        "species": null
      },
      "geometry": {
        "type": "Point",
        "coordinates": [
          -84.32921148896,
          33.752450848685
        ]
      }
    }
  ]
}