{
  "type": "FeatureCollection",
  "features": [
    {
      "type": "Feature",
      "properties": {
        "record": "BA-202604263",
        "address": "1860 MONROE DR NE, ATLANTA GA 30324",
        "status": "Accepted",
        "date": "08/27/2026",
        "description": null,
        "owner": "Celine de Verteuil",
        "tree_dbh": "28",
        "tree_location": "Back yard 1860 Monroe Drive",
        "reason_removal": "Uncorrectable defect",
        "tree_description": "Severely bowing and canopy heavy on one side. Leaning over neighbors property.",
        "tree_number": "2",
        "species": "pine"
      },
      "geometry": {
        "type": "Point",
        "coordinates": [
          -84.374683760818,
          33.805456753644
        ]
      }
    },
    {
      "type": "Feature",
      "properties": {
        "record": "BA-202604261",
        "address": "3784 LAND O LAKES DR NE, ATLANTA GA 30342",
        "status": "Accepted",
        "date": "08/27/2026",
        "description": null,
        "owner": null,
        "tree_dbh": "25",
        "tree_location": "fornt right corner of hone",
        "reason_removal": "Dead tree",
        "tree_description": "25” DBH Red Oak on right front corner of home (tree is showing signs of insect damage and potential root rot, root flare seems to be showing signs of “buckling”)Reason for Removal:Dead treeComments: 25” DBH Red Oak on right front corner of home (tree is showing signs of insect damage and potential root rot, root flare seems to be showing signs of “buckling”)\n\t\t\n\t\t\n\t\t\tTree number:2Species:pineTree Size (DBH):18Tree location:back centerDescription of Tree:-Removal of 18” DBH Loblolly Pine in center of backyard (tree has been previously struck in a storm and broken layers of bark at the base along with cavities at the base as well)Reason for Removal:Dead tree\n\t\t\n\t\n\t\n                                \n                            \n                        \n                    \n                        \n                            \n                                \n                                    \n                                        \n                                         Parcel Information\n                                \n                            \n                            \n                                \n                                    \n\t\tParcel Number:17 00630005010 *Block:--Lot:--Subdivision:--",
        "tree_number": "1",
        "species": "red oak"
      },
      "geometry": {
        "type": "Point",
        "coordinates": [
          -84.376882567255,
          33.858204335391
        ]
      }
    },
    {
      "type": "Feature",
      "properties": {
        "record": "BA-202604255",
        "address": "1131 FOUNTAIN DR SW, ATLANTA GA 30314",
        "status": "Accepted",
        "date": "08/27/2026",
        "description": null,
        "owner": null,
        "tree_dbh": null,
        "tree_location": null,
        "reason_removal": null,
        "tree_description": null,
        "tree_number": null,
        "species": null
      },
      "geometry": {
        "type": "Point",
        "coordinates": [
          -84.424660167563,
          33.751580862175
        ]
      }
    },
    {
      "type": "Feature",
      "properties": {
        "record": "26TMP-056441",
        "address": "65 ROGERS ST SE, ATLANTA GA 30317",
        "status": "",
        "date": "08/27/2026",
        "description": null,
        "owner": null,
        "tree_dbh": null,
        "tree_location": null,
        "reason_removal": null,
        "tree_description": null,
        "tree_number": null,
        "species": null
      },
      "geometry": {
        "type": "Point",
        "coordinates": [
          -84.32921148896,
          33.752450848685
        ]
      }
    },
    {
      "type": "Feature",
      "properties": {
        "record": "BA-202604276",
        "address": "796 HALL ST NW, ATLANTA GA 30318",
        "status": "Accepted",
        "date": "08/27/2026",
        "description": null,
        "owner": null,
        "tree_dbh": null,
        "tree_location": null,
        "reason_removal": null,
        "tree_description": null,
        "tree_number": null,
        "species": null
      },
      "geometry": {
        "type": "Point",
        "coordinates": [
          -84.466020510939,
          33.777332799021
        ]
      }
    },
    {
      "type": "Feature",
      "properties": {
        "record": "BA-202604256",
        "address": "2901 ROCKINGHAM DR NW, ATLANTA GA 30327",
        "status": "Accepted",
        "date": "08/27/2026",
        "description": null,
        "owner": null,
        "tree_dbh": null,
        "tree_location": null,
        "reason_removal": null,
        "tree_description": null,
        "tree_number": null,
        "species": null
      },
      "geometry": {
        "type": "Point",
        "coordinates": [
          -84.413248110003,
          33.836228383342
        ]
      }
    },
    {
      "type": "Feature",
      "properties": {
        "record": "BA-202604277",
        "address": "542 ONTARIO AVE SW, ATLANTA GA 30310",
        "status": "Accepted",
        "date": "08/27/2026",
        "description": null,
        "owner": null,
        "tree_dbh": null,
        "tree_location": null,
        "reason_removal": null,
        "tree_description": null,
        "tree_number": null,
        "species": null
      },
      "geometry": {
        "type": "Point",
        "coordinates": [
          -84.439118155645,
          33.740349860023
        ]
      }
    },
    {
      "type": "Feature",
      "properties": {
        "record": "BA-202604262",
        "address": "497 ECHOTA DR NW, ATLANTA GA 30318",
        "status": "Accepted",
        "date": "08/27/2026",
        "description": null,
        "owner": null,
        "tree_dbh": null,
        "tree_location": null,
        "reason_removal": null,
        "tree_description": null,
        "tree_number": null,
        "species": null
      },
      "geometry": {
        "type": "Point",
        "coordinates": [
          -84.404375691403,
          33.804221850162
        ]
      }
    },
    {
      "type": "Feature",
      "properties": {
        "record": "BA-202604265",
        "address": "3156 EAST WOOD VALLEY RD NW, ATLANTA GA 30327",
        "status": "Accepted",
        "date": "08/27/2026",
        "description": null,
        "owner": null,
        "tree_dbh": null,
        "tree_location": null,
        "reason_removal": null,
        "tree_description": null,
        "tree_number": null,
        "species": null
      },
      "geometry": {
        "type": "Point",
        "coordinates": [
          -84.415584176734,
          33.841923288145
        ]
      }
    },
    {
      "type": "Feature",
      "properties": {
        "record": "BA-202604254",
        "address": "1360 POLLARD DR SW, ATLANTA GA 30311",
        "status": "Accepted",
        "date": "08/27/2026",
        "description": null,
        "owner": null,
        "tree_dbh": null,
        "tree_location": null,
        "reason_removal": null,
        "tree_description": null,
        "tree_number": null,
        "species": null
      },
      "geometry": {
        "type": "Point",
        "coordinates": [
          -84.456369803638,
          33.717788310686
        ]
      }
    },
    {
      "type": "Feature",
      "properties": {
        "record": "BA-202604272",
        "address": "280 BLACKLAND RD NW, ATLANTA GA 30342",
        "status": "Accepted",
        "date": "08/27/2026",
        "description": null,
        "owner": null,
        "tree_dbh": null,
        "tree_location": null,
        "reason_removal": null,
        "tree_description": null,
        "tree_number": null,
        "species": null
      },
      "geometry": {
        "type": "Point",
        "coordinates": [
          -84.39613013886,
          33.859376649231
        ]
      }
    },
    {
      "type": "Feature",
      "properties": {
        "record": "BA-202604273",
        "address": "1219 STATE ST NW, ATLANTA GA 30318",
        "status": "Accepted",
        "date": "08/27/2026",
        "description": null,
        "owner": null,
        "tree_dbh": null,
        "tree_location": null,
        "reason_removal": null,
        "tree_description": null,
        "tree_number": null,
        "species": null
      },
      "geometry": {
        "type": "Point",
        "coordinates": [
          -84.398657319543,
          33.787771463169
        ]
      }
    },
    {
      "type": "Feature",
      "properties": {
        "record": "BA-202604253",
        "address": "1334 BERWICK AVE NE, ATLANTA GA 30306",
        "status": "Accepted",
        "date": "08/27/2026",
        "description": null,
        "owner": null,
        "tree_dbh": null,
        "tree_location": null,
        "reason_removal": null,
        "tree_description": null,
        "tree_number": null,
        "species": null
      },
      "geometry": {
        "type": "Point",
        "coordinates": [
          -84.358751924478,
          33.791113850629
        ]
      }
    },
    {
      "type": "Feature",
      "properties": {
        "record": "BA-202604266",
        "address": "2341 MARIETTA BLVD NW, ATLANTA GA 30318",
        "status": "Accepted",
        "date": "08/27/2026",
        "description": null,
        "owner": "Bronson Katz",
        "tree_dbh": "12",
        "tree_location": "Adjacent cemetery property immediately behind restaurant, near rear property line.",
        "reason_removal": "Dead tree",
        "tree_description": "Large mature hardwood heavily covered with vines. Tree has multiple large broken/dead limbs and visible trunk/limb defects. Portions of the upper structure extend toward/over the adjacent occupied restaurant property. The tree is also leaning towards the property.Reason for Removal:Dead treeComments:Tree is located on adjacent historic cemetery property directly behind an occupied restaurant. The cemetery appears to have no readily identifiable active owner/representative or caretaker. The tree has large damaged/dead limbs and visible defects, and portions extend toward the restaurant and outdoor occupied areas. Requesting City Arborist inspection and determination of whether the tree qualifies as dead, dying, or hazardous.\n\t\t\n\t\n\t\n                                \n                            \n                        \n                    \n                        \n                            \n                                \n                                    \n                                        \n                                         Parcel Information\n                                \n                            \n                            \n                                \n                                    \n\t\tParcel Number:17 0230  LL135 *Block:--Lot:--Subdivision:--",
        "tree_number": "1",
        "species": "Unkown Hardwood"
      },
      "geometry": {
        "type": "Point",
        "coordinates": [
          -84.453419390119,
          33.820567187935
        ]
      }
    },
    {
      "type": "Feature",
      "properties": {
        "record": "26TMP-056716",
        "address": "1146 ORMEWOOD AVE SE, ATLANTA GA 30316",
        "status": "",
        "date": "08/27/2026",
        "description": null,
        "owner": null,
        "tree_dbh": null,
        "tree_location": null,
        "reason_removal": null,
        "tree_description": null,
        "tree_number": null,
        "species": null
      },
      "geometry": {
        "type": "Point",
        "coordinates": [
          -84.350332449385,
          33.734141323775
        ]
      }
    },
    {
      "type": "Feature",
      "properties": {
        "record": "BA-202604267",
        "address": "972 ADAIR AVE NE, ATLANTA GA 30306",
        "status": "Accepted",
        "date": "08/27/2026",
        "description": null,
        "owner": "Katherine Dales",
        "tree_dbh": "18",
        "tree_location": "Rear of backyard",
        "reason_removal": "Uncorrectable defect",
        "tree_description": "Transverse crack in trunkReason for Removal:Uncorrectable defect\n\t\t\n\t\n\t\n                                \n                            \n                        \n                    \n                        \n                            \n                                \n                                    \n                                        \n                                         Parcel Information\n                                \n                            \n                            \n                                \n                                    \n\t\tParcel Number:17 00010009008 *Block:--Lot:--Subdivision:--",
        "tree_number": "1",
        "species": "Maple"
      },
      "geometry": {
        "type": "Point",
        "coordinates": [
          -84.355577528735,
          33.780339328232
        ]
      }
    },
    {
      "type": "Feature",
      "properties": {
        "record": "BA-202604252",
        "address": "439 STERLING ST NE, ATLANTA GA 30307",
        "status": "Accepted",
        "date": "08/27/2026",
        "description": null,
        "owner": "STARLING DENISE W OR STARLING EDWARD M",
        "tree_dbh": "28",
        "tree_location": "back right",
        "reason_removal": "Other",
        "tree_description": "leaning back rightReason for Removal:OtherComments:leaning back right\n\t\t\n\t\n\t\n                                \n                            \n                        \n                    \n                        \n                            \n                                \n                                    \n                                        \n                                         Parcel Information\n                                \n                            \n                            \n                                \n                                    \n\t\tParcel Number:15 240 02 068 *Block:--Lot:--Subdivision:--",
        "tree_number": "1",
        "species": "pecan"
      },
      "geometry": {
        "type": "Point",
        "coordinates": [
          -84.344622228901,
          33.76575983156
        ]
      }
    },
    {
      "type": "Feature",
      "properties": {
        "record": "BA-202604251",
        "address": "235 BRIGHTON RD NE, ATLANTA GA 30309",
        "status": "Accepted",
        "date": "08/27/2026",
        "description": null,
        "owner": null,
        "tree_dbh": "20",
        "tree_location": "front yard.",
        "reason_removal": "Significant cavity/area of decay",
        "tree_description": "rotting at baseReason for Removal:Significant cavity/area of decay\n\t\t\n\t\n\t\n                                \n                            \n                        \n                    \n                        \n                            \n                                \n                                    \n                                        \n                                         Parcel Information\n                                \n                            \n                            \n                                \n                                    \n\t\tParcel Number:17 01030001020 *Block:--Lot:--Subdivision:--",
        "tree_number": "1",
        "species": "Hickory"
      },
      "geometry": {
        "type": "Point",
        "coordinates": [
          -84.386128929128,
          33.810914403577
        ]
      }
    },
    {
      "type": "Feature",
      "properties": {
        "record": "BA-202604257",
        "address": "2467 MONTVIEW DR NW, ATLANTA GA 30305",
        "status": "Accepted",
        "date": "08/27/2026",
        "description": null,
        "owner": "HAWES MARY G",
        "tree_dbh": "20",
        "tree_location": "far back right corner of property",
        "reason_removal": "Dying tree",
        "tree_description": null,
        "tree_number": "1",
        "species": "Black cherry"
      },
      "geometry": {
        "type": "Point",
        "coordinates": [
          -84.401299850226,
          33.822094981049
        ]
      }
    },
    {
      "type": "Feature",
      "properties": {
        "record": "BA-202604264",
        "address": "918 GLEN ARDEN WAY NE, ATLANTA GA 30306",
        "status": "Accepted",
        "date": "08/27/2026",
        "description": null,
        "owner": null,
        "tree_dbh": "12",
        "tree_location": "Rear property near back fence",
        "reason_removal": "Uncorrectable defect",
        "tree_description": "The tree leans heavily inwardsReason for Removal:Uncorrectable defect\n\t\t\n\t\n\t\n                                \n                            \n                        \n                    \n                        \n                            \n                                \n                                    \n                                        \n                                         Parcel Information\n                                \n                            \n                            \n                                \n                                    \n\t\tParcel Number:17 00010001074 *Block:--Lot:--Subdivision:--",
        "tree_number": "1",
        "species": "Hickory"
      },
      "geometry": {
        "type": "Point",
        "coordinates": [
          -84.356425878435,
          33.784976520455
        ]
      }
    },
    {
      "type": "Feature",
      "properties": {
        "record": "BA-202604258",
        "address": "1466 METROPOLITAN PKWY SW, ATLANTA GA 30310",
        "status": "Issued",
        "date": "08/27/2026",
        "description": "DDH",
        "owner": "NESBITT DAVID D",
        "tree_dbh": null,
        "tree_location": null,
        "reason_removal": null,
        "tree_description": null,
        "tree_number": null,
        "species": null
      },
      "geometry": {
        "type": "Point",
        "coordinates": [
          -84.407830260182,
          33.71488725191
        ]
      }
    }
  ]
}