{
  "type": "FeatureCollection",
  "features": [
    {
      "type": "Feature",
      "properties": {
        "record": "BA-202604981",
        "address": "1587 ALDER LN SW, ATLANTA GA 30311",
        "status": "ACA Pending",
        "date": "09/26/2026",
        "description": null,
        "owner": "casablanca realty group",
        "tree_dbh": "28",
        "tree_location": "in front of the house",
        "reason_removal": "Dead tree",
        "tree_description": null,
        "tree_number": "1",
        "species": "pine"
      },
      "geometry": {
        "type": "Point",
        "coordinates": [
          -84.448520890176,
          33.712406255915
        ]
      }
    },
    {
      "type": "Feature",
      "properties": {
        "record": "BA-202604979",
        "address": "957 DELMAR AVE SE, ATLANTA GA 30316",
        "status": "ACA Pending",
        "date": "09/26/2026",
        "description": null,
        "owner": "FRANCIS EUGENE ROHLING",
        "tree_dbh": "26",
        "tree_location": "Back Yard.  See pictures.",
        "reason_removal": "Invasive/undesirable tree",
        "tree_description": "This tree continues to be damaged during power line maintenance.  Note severe trunk cuts below power lines in pictures.Reason for Removal:Dying treeComments:Expect to reconfigure this hill with either sidewalk or smaller trees such as dogwood or crepe myrtle within 2 years.\n\t\t\n\t\t\n\t\t\tTree number:2Species:Cherry LaurelTree Size (DBH):21Tree location:Back yard of lotDescription of Tree:Tree started life within a clump of crepe myrtles.  Over the last 10 years, it has transitioned from 15 degree tilt to now on ground.  It has taken down several adjacent trees including trees 3 and 4.Reason for Removal:Dying treeComments:Back yard to be reconfigured with dogwoods interspersed with crepe myrtles.\n\t\t\n\t\t\n\t\t\tTree number:3Species:DogwoodTree Size (DBH):8Tree location:Back yard.  See pictures.Description of Tree:Possibly a dogwood based on memory.  Bark is consistent.  No leaves.Reason for Removal:Dead treeComments:Tree dead.  Likely because of pressure by gradually falling tree T2.  Didn't get this resolved in time.\n\t\t\n\t\t\n\t\t\tTree number:4Species:PrivotTree Size (DBH):7Tree location:Back Yard.  See pictures.Description of Tree:Over zealous privot scrub tree damaged by fall of tree T2.Reason for Removal:Invasive/undesirable treeComments:Leaning badly.  Might be recoverable, but this is an invasive species to the yard.\n\t\t\n\t\n\t\n                                \n                            \n                        \n                    \n                        \n                            \n                                \n                                    \n                                        \n                                         Parcel Information\n                                \n                            \n                            \n                                \n                                    \n\t\tParcel Number:14 00110010008 *Block:--Lot:--Subdivision:--",
        "tree_number": "1",
        "species": "Unknown"
      },
      "geometry": {
        "type": "Point",
        "coordinates": [
          -84.357340952528,
          33.731997448274
        ]
      }
    },
    {
      "type": "Feature",
      "properties": {
        "record": "BA-202604980",
        "address": "290 ELMIRA PL NE, ATLANTA GA 30307",
        "status": "ACA Pending",
        "date": "09/26/2026",
        "description": null,
        "owner": "RYAN BOBLETT",
        "tree_dbh": "19",
        "tree_location": "back yard left",
        "reason_removal": "Uncorrectable defect",
        "tree_description": "Mature water oak exhibiting significant directional lean toward adjacent residential structures, with substantial asymmetric crown loading and large co-dominant stems. Reason for Removal:Uncorrectable defect\n\t\t\n\t\n\t\n                                \n                            \n                        \n                    \n                        \n                            \n                                \n                                    \n                                        \n                                         Parcel Information\n                                \n                            \n                            \n                                \n                                    \n\t\tParcel Number:15 209 04 205 *Block:--Lot:--Subdivision:--",
        "tree_number": "1",
        "species": "water oak"
      },
      "geometry": {
        "type": "Point",
        "coordinates": [
          -84.346950711447,
          33.762709746517
        ]
      }
    },
    {
      "type": "Feature",
      "properties": {
        "record": "26TMP-063768",
        "address": "290 ELMIRA PL NE, ATLANTA GA 30307",
        "status": "",
        "date": "09/26/2026",
        "description": null,
        "owner": null,
        "tree_dbh": null,
        "tree_location": null,
        "reason_removal": null,
        "tree_description": null,
        "tree_number": null,
        "species": null
      },
      "geometry": {
        "type": "Point",
        "coordinates": [
          -84.346950711447,
          33.762709746517
        ]
      }
    },
    {
      "type": "Feature",
      "properties": {
        "record": "BA-202604978",
        "address": "4750 GUILFORD FOREST DR SW, ATLANTA GA 30331",
        "status": "ACA Pending",
        "date": "09/26/2026",
        "description": null,
        "owner": "SINGLETON PETER T",
        "tree_dbh": "1",
        "tree_location": "Front yard",
        "reason_removal": "Significant cavity/area of decay",
        "tree_description": "Measured at 4.5 feet (1.37 meters) above the ground on the uphill side in the United States, and 1.3 meters internationallyReason for Removal:Significant cavity/area of decayComments:Need inspection\n\t\t\n\t\n\t\n                                \n                            \n                        \n                    \n                        \n                            \n                                \n                                    \n                                        \n                                         Parcel Information\n                                \n                            \n                            \n                                \n                                    \n\t\tParcel Number:14F00610003033 *Block:--Lot:--Subdivision:--",
        "tree_number": "1",
        "species": "Bradford Pear"
      },
      "geometry": {
        "type": "Point",
        "coordinates": [
          -84.546232733352,
          33.725812863305
        ]
      }
    }
  ]
}