{
  "type": "FeatureCollection",
  "features": [
    {
      "type": "Feature",
      "properties": {
        "record": "BA-202605291",
        "address": "871 SMITH ST SW, ATLANTA GA 30310",
        "status": "ACA Pending",
        "date": "10/09/2026",
        "description": null,
        "owner": "HILL DELORES",
        "tree_dbh": "5",
        "tree_location": "Backyard, near the rear of the house, along the right side of the property.",
        "reason_removal": "Other",
        "tree_description": "Large mature tree with a broad, spreading canopy extending over the rear of the house. The tree has substantial branches extending over the roof and appears to be in close proximity to the house and nearby outdoor equipment. A site inspection is recommended to evaluate branch clearance, potential roof impacts, and overall tree condition.Reason for Removal:Other\n\t\t\n\t\n\t\n                                \n                            \n                        \n                    \n                        \n                            \n                                \n                                    \n                                        \n                                         Parcel Information\n                                \n                            \n                            \n                                \n                                    \n\t\tParcel Number:14 00860010056 *Block:--Lot:--Subdivision:--",
        "tree_number": "1",
        "species": "broadleaf tree"
      },
      "geometry": {
        "type": "Point",
        "coordinates": [
          -84.400865436622,
          33.731211028109
        ]
      }
    },
    {
      "type": "Feature",
      "properties": {
        "record": "BA-202605280",
        "address": "1035 PEACHTREE BATTLE AVE NW, ATLANTA GA 30327",
        "status": "ACA Pending",
        "date": "10/09/2026",
        "description": null,
        "owner": "WOODROOF ALBERT C III",
        "tree_dbh": "20",
        "tree_location": "Left Rear",
        "reason_removal": "Significant cavity/area of decay",
        "tree_description": "decaying cavity at baseReason for Removal:Significant cavity/area of decay\n\t\t\n\t\n\t\n                                \n                            \n                        \n                    \n                        \n                            \n                                \n                                    \n                                        \n                                         Parcel Information\n                                \n                            \n                            \n                                \n                                    \n\t\tParcel Number:17 01840003025 *Block:--Lot:--Subdivision:--",
        "tree_number": "1",
        "species": "Elm"
      },
      "geometry": {
        "type": "Point",
        "coordinates": [
          -84.421790112612,
          33.825627451881
        ]
      }
    },
    {
      "type": "Feature",
      "properties": {
        "record": "BA-202605300",
        "address": "947 EDGEWOOD AVE NE, ATLANTA GA 30307",
        "status": "ACA Pending",
        "date": "10/09/2026",
        "description": null,
        "owner": null,
        "tree_dbh": "10",
        "tree_location": "Front of property/middle",
        "reason_removal": "Dying tree",
        "tree_description": "90% die-backReason for Removal:Dying treeComments:Ribbon\n\t\t\n\t\n\t\n                                \n                            \n                        \n                    \n                        \n                            \n                                \n                                    \n                                        \n                                         Parcel Information\n                                \n                            \n                            \n                                \n                                    \n\t\tParcel Number:14 00140010070 *Block:--Lot:--Subdivision:--",
        "tree_number": "1",
        "species": "Hawthorne"
      },
      "geometry": {
        "type": "Point",
        "coordinates": [
          -84.356566503992,
          33.756306249787
        ]
      }
    },
    {
      "type": "Feature",
      "properties": {
        "record": "BA-202605303",
        "address": "250 LINKWOOD RD NW, ATLANTA GA 30318",
        "status": "ACA Pending",
        "date": "10/09/2026",
        "description": null,
        "owner": "TWO FIFTY LINKWOOD RD LLC",
        "tree_dbh": "32",
        "tree_location": "front yard by street",
        "reason_removal": "Significant cavity/area of decay",
        "tree_description": "32\" Oak, Rotted, left side of garageReason for Removal:Significant cavity/area of decayComments:32\" Oak, Rotted, left side of garage\n\t\t\n\t\t\n\t\t\tTree number:2Species:MapleTree Size (DBH):35Tree location:front yard by streetDescription of Tree:35\" Maple, Rotted, front yard by streetReason for Removal:Significant cavity/area of decayComments:35\" Maple, Rotted, front yard by street\n\t\t\n\t\n\t\n                                \n                            \n                        \n                    \n                        \n                            \n                                \n                                    \n                                        \n                                         Parcel Information\n                                \n                            \n                            \n                                \n                                    \n\t\tParcel Number:14 02110001037 *Block:--Lot:--Subdivision:--",
        "tree_number": "1",
        "species": "Oak"
      },
      "geometry": {
        "type": "Point",
        "coordinates": [
          -84.483613940719,
          33.762393163789
        ]
      }
    },
    {
      "type": "Feature",
      "properties": {
        "record": "BA-202605287",
        "address": "2515 MACON DR SW, ATLANTA GA 30315",
        "status": "ACA Pending",
        "date": "10/09/2026",
        "description": null,
        "owner": "FTHHC HOLDINGS LLC",
        "tree_dbh": "26",
        "tree_location": "FRONT YEAD NEW STREET",
        "reason_removal": "Other",
        "tree_description": "LARGE MATURE DARDWOOD TREE REPOREDLY STUCK BY L8GHTNING , RESULTING IN A FALLEN BARNCH. THE TREE IS LOCATED NEAR THE RESIDENCE, AND THE STREET. I AM CONCERNED ABOUT ADDITIONAL FALLING LIMBS AND POTENTIAL STURCTURAL DAMGE Reason for Removal:OtherComments:REQUESTING TREE REMOVAL DUE TO THE CONCERNED ABOUT THE RISK OF ADDITIONAL BRANCH FAILURE AND POSSIBLE DAMAGED  TO PROPERTY AND CARS DRIVING BY\n\t\t\n\t\n\t\n                                \n                            \n                        \n                    \n                        \n                            \n                                \n                                    \n                                        \n                                         Parcel Information\n                                \n                            \n                            \n                                \n                                    \n\t\tParcel Number:T14 00690001018 01 *Block:--Lot:--Subdivision:MSD-24-015 2507 MACON DR",
        "tree_number": "1",
        "species": "unknown hardwood"
      },
      "geometry": {
        "type": "Point",
        "coordinates": [
          -84.389278428368,
          33.686211405783
        ]
      }
    },
    {
      "type": "Feature",
      "properties": {
        "record": "BA-202605283",
        "address": "1124 DEKALB AVE NE, ATLANTA GA 00000",
        "status": "ACA Pending",
        "date": "10/09/2026",
        "description": null,
        "owner": "Monica Wagner",
        "tree_dbh": "18",
        "tree_location": "left side of entrance",
        "reason_removal": "Other",
        "tree_description": "One 18'' southern catalpa located left side of entrance. It and the Ginkgo are competing for space would like to prioritize Ginkgo. 5ft within structure.Reason for Removal:OtherComments:One 18'' southern catalpa located left side of entrance. It and the Ginkgo are competing for space would like to prioritize Ginkgo. 5ft within structure.\n\t\t\n\t\n\t\n                                \n                            \n                        \n                    \n                        \n                            \n                                \n                                    \n                                        \n                                         Parcel Information\n                                \n                            \n                            \n                                \n                                    \n\t\tParcel Number:14 00140009108 *Block:--Lot:--Subdivision:--",
        "tree_number": "1",
        "species": "southern catalpa"
      },
      "geometry": {
        "type": "Point",
        "coordinates": [
          -84.348645310331,
          33.760464177954
        ]
      }
    },
    {
      "type": "Feature",
      "properties": {
        "record": "BA-202605284",
        "address": "1592 WALTHALL CT NW, ATLANTA GA 30318",
        "status": "ACA Pending",
        "date": "10/09/2026",
        "description": null,
        "owner": "Larry Hodge",
        "tree_dbh": "20",
        "tree_location": "near neighbor fence",
        "reason_removal": "Dead tree",
        "tree_description": "dead, covered in vinesReason for Removal:Dead treeComments:neighbor is requesting I remove dead tree\n\t\t\n\t\n\t\n                                \n                            \n                        \n                    \n                        \n                            \n                                \n                                    \n                                        \n                                         Parcel Information\n                                \n                            \n                            \n                                \n                                    \n\t\tParcel Number:17 01470004059 *Block:--Lot:--Subdivision:--",
        "tree_number": "1",
        "species": "Oak"
      },
      "geometry": {
        "type": "Point",
        "coordinates": [
          -84.404366590122,
          33.803041155661
        ]
      }
    },
    {
      "type": "Feature",
      "properties": {
        "record": "BA-202605294",
        "address": "755 BRAEMAR AVE SW, ATLANTA GA 30311",
        "status": "ACA Pending",
        "date": "10/09/2026",
        "description": null,
        "owner": "RANKINS RAY",
        "tree_dbh": "16",
        "tree_location": "right side of the property",
        "reason_removal": "Uncorrectable defect",
        "tree_description": "Tree and branches leaning towards neighbors propertyReason for Removal:Uncorrectable defect\n\t\t\n\t\t\n\t\t\tTree number:2Species:cedarTree Size (DBH):18Tree location:right side of the propertyDescription of Tree:Tree and branches leaning towards neighbors propertyReason for Removal:Uncorrectable defect\n\t\t\n\t\n\t\n                                \n                            \n                        \n                    \n                        \n                            \n                                \n                                    \n                                        \n                                         Parcel Information\n                                \n                            \n                            \n                                \n                                    \n\t\tParcel Number:14 02350002034 *Block:--Lot:--Subdivision:--",
        "tree_number": "1",
        "species": "cedar"
      },
      "geometry": {
        "type": "Point",
        "coordinates": [
          -84.495324983345,
          33.734914233977
        ]
      }
    },
    {
      "type": "Feature",
      "properties": {
        "record": "BA-202605290",
        "address": "351 PEACHTREE HILLS AVE NE, ATLANTA GA 30305",
        "status": "ACA Pending",
        "date": "10/09/2026",
        "description": null,
        "owner": "ADAC L P",
        "tree_dbh": "14",
        "tree_location": "far exterior parking lot",
        "reason_removal": "Other",
        "tree_description": "Pine 14\", Declining, in far exterior parking lot, roots causing structural damageReason for Removal:OtherComments:Pine 14\", Declining, in far exterior parking lot, roots causing structural damage\n\t\t\n\t\t\n\t\t\tTree number:2Species:PineTree Size (DBH):16Tree location:far exterior parking lotDescription of Tree:Pine 16\", Declining, in far exterior parking lot, thin canopy, causing structural damageReason for Removal:OtherComments:Pine 16\", Declining, in far exterior parking lot, thin canopy, causing structural damage\n\t\t\n\t\n\t\n                                \n                            \n                        \n                    \n                        \n                            \n                                \n                                    \n                                        \n                                         Parcel Information\n                                \n                            \n                            \n                                \n                                    \n\t\tParcel Number:17 0058  LL051 *Block:--Lot:--Subdivision:--",
        "tree_number": "1",
        "species": "Pine"
      },
      "geometry": {
        "type": "Point",
        "coordinates": [
          -84.375343048081,
          33.817946877484
        ]
      }
    },
    {
      "type": "Feature",
      "properties": {
        "record": "BA-202605278",
        "address": "3888 TUXEDO RD NW, ATLANTA GA 30342",
        "status": "ACA Pending",
        "date": "10/09/2026",
        "description": null,
        "owner": "HARBIN THOMAS S JR",
        "tree_dbh": "20",
        "tree_location": "Left",
        "reason_removal": "Dying tree",
        "tree_description": null,
        "tree_number": "1",
        "species": "Cherry"
      },
      "geometry": {
        "type": "Point",
        "coordinates": [
          -84.394908204895,
          33.861312087525
        ]
      }
    },
    {
      "type": "Feature",
      "properties": {
        "record": "BA-202605285",
        "address": "1655 RICHLAND RD SW, ATLANTA GA 30311",
        "status": "ACA Pending",
        "date": "10/09/2026",
        "description": null,
        "owner": "OSBORNE CHERYL",
        "tree_dbh": "22",
        "tree_location": "right side of home",
        "reason_removal": "Significant cavity/area of decay",
        "tree_description": "22'' asymmetrical Pine located right side of home. Tree has a canker on the back side of tree against the lean. Reason for Removal:Significant cavity/area of decayComments: 22'' asymmetrical Pine located right side of home. Tree has a canker on the back side of tree against the lean. \n\t\t\n\t\n\t\n                                \n                            \n                        \n                    \n                        \n                            \n                                \n                                    \n                                        \n                                         Parcel Information\n                                \n                            \n                            \n                                \n                                    \n\t\tParcel Number:14 01500010056 *Block:--Lot:--Subdivision:--",
        "tree_number": "1",
        "species": "pine"
      },
      "geometry": {
        "type": "Point",
        "coordinates": [
          -84.442057197947,
          33.731519952977
        ]
      }
    },
    {
      "type": "Feature",
      "properties": {
        "record": "BA-202605299",
        "address": "91 LAKEVIEW DR NE, ATLANTA GA 30317",
        "status": "ACA Pending",
        "date": "10/09/2026",
        "description": null,
        "owner": "Sheri Seldes",
        "tree_dbh": "4",
        "tree_location": "front of house",
        "reason_removal": "Invasive/undesirable tree",
        "tree_description": null,
        "tree_number": "1",
        "species": "Maple"
      },
      "geometry": {
        "type": "Point",
        "coordinates": [
          -84.311782096017,
          33.754154493451
        ]
      }
    },
    {
      "type": "Feature",
      "properties": {
        "record": "BA-202605288",
        "address": "4408 EAST CONWAY DR NW, ATLANTA GA 30327",
        "status": "ACA Pending",
        "date": "10/09/2026",
        "description": null,
        "owner": "PIERCE BRIAN AND DENISE",
        "tree_dbh": "36",
        "tree_location": "backyard",
        "reason_removal": "Dying tree",
        "tree_description": "hole at the bottom of trunkReason for Removal:Dying tree\n\t\t\n\t\t\n\t\t\tTree number:2Species:pineTree Size (DBH):36Tree location:backyardDescription of Tree:split treeReason for Removal:Dying tree\n\t\t\n\t\t\n\t\t\tTree number:3Species:pineTree Size (DBH):36Tree location:backyardDescription of Tree:lightning, dying treeReason for Removal:Dying tree\n\t\t\n\t\n\t\n                                \n                            \n                        \n                    \n                        \n                            \n                                \n                                    \n                                        \n                                         Parcel Information\n                                \n                            \n                            \n                                \n                                    \n\t\tParcel Number:17 01380001031 *Block:--Lot:--Subdivision:--",
        "tree_number": "1",
        "species": "Pine"
      },
      "geometry": {
        "type": "Point",
        "coordinates": [
          -84.403460804715,
          33.876106239403
        ]
      }
    },
    {
      "type": "Feature",
      "properties": {
        "record": "BA-202605281",
        "address": "1615 VAN VLECK AVE SE, ATLANTA GA 30316",
        "status": "ACA Pending",
        "date": "10/09/2026",
        "description": null,
        "owner": "HOOD EDWARD LEE HOOD SHYRAN M",
        "tree_dbh": "18",
        "tree_location": "rear right",
        "reason_removal": "Other",
        "tree_description": "Picture of treeReason for Removal:OtherComments:- cankers throughout trunk \n\t\t\n\t\n\t\n                                \n                            \n                        \n                    \n                        \n                            \n                                \n                                    \n                                        \n                                         Parcel Information\n                                \n                            \n                            \n                                \n                                    \n\t\tParcel Number:15 175 02 044 *Block:--Lot:--Subdivision:--",
        "tree_number": "1",
        "species": "pine"
      },
      "geometry": {
        "type": "Point",
        "coordinates": [
          -84.335180694199,
          33.73615320107
        ]
      }
    },
    {
      "type": "Feature",
      "properties": {
        "record": "BA-202605296",
        "address": "1971 JOSEPHINE AVE SE, ATLANTA GA 30316",
        "status": "ACA Pending",
        "date": "10/09/2026",
        "description": null,
        "owner": null,
        "tree_dbh": "18",
        "tree_location": "back right",
        "reason_removal": "Dying tree",
        "tree_description": "Excessive lean, Fungal Fruiting body present in decay on trunkReason for Removal:Dying tree\n\t\t\n\t\n\t\n                                \n                            \n                        \n                    \n                        \n                            \n                                \n                                    \n                                        \n                                         Parcel Information\n                                \n                            \n                            \n                                \n                                    \n\t\tParcel Number:15 174 02 005 *Block:--Lot:--Subdivision:JOSEPHINE ANNEXATION",
        "tree_number": "1",
        "species": "oak"
      },
      "geometry": {
        "type": "Point",
        "coordinates": [
          -84.327510593291,
          33.733978933156
        ]
      }
    },
    {
      "type": "Feature",
      "properties": {
        "record": "BA-202605289",
        "address": "2934 WATERS RD SW, ATLANTA GA 30354",
        "status": "ACA Pending",
        "date": "10/09/2026",
        "description": null,
        "owner": "E POINT ZERO FOUR LLC",
        "tree_dbh": "12",
        "tree_location": "located far back of property on daycare fence.",
        "reason_removal": "Other",
        "tree_description": "One 12'' leaning Mimosa located far back of property on daycare fence.Reason for Removal:OtherComments:One 12'' leaning Mimosa located far back of property on daycare fence.\n\t\t\n\t\n\t\n                                \n                            \n                        \n                    \n                        \n                            \n                                \n                                    \n                                        \n                                         Parcel Information\n                                \n                            \n                            \n                                \n                                    \n\t\tParcel Number:14 00680006004 *Block:--Lot:--Subdivision:--",
        "tree_number": "1",
        "species": "mimosa"
      },
      "geometry": {
        "type": "Point",
        "coordinates": [
          -84.395041174834,
          33.674991739887
        ]
      }
    },
    {
      "type": "Feature",
      "properties": {
        "record": "BA-202605306",
        "address": "1307 LORENZO DR SW, ATLANTA GA 30310",
        "status": "ACA Pending",
        "date": "10/09/2026",
        "description": null,
        "owner": "Wedgefield Properties LLC",
        "tree_dbh": "25",
        "tree_location": "Middle of yard by the left. neighbor",
        "reason_removal": "Dying tree",
        "tree_description": null,
        "tree_number": "1",
        "species": "Hardwood"
      },
      "geometry": {
        "type": "Point",
        "coordinates": [
          -84.432613465755,
          33.719779828792
        ]
      }
    },
    {
      "type": "Feature",
      "properties": {
        "record": "BA-202605286",
        "address": "3571 KINGSBORO RD NE, ATLANTA GA 30319",
        "status": "ACA Pending",
        "date": "10/09/2026",
        "description": null,
        "owner": "Frost Osborne",
        "tree_dbh": "40",
        "tree_location": "Center rear of backyard",
        "reason_removal": "Dead tree",
        "tree_description": "DeadReason for Removal:Dead treeComments:Pink tape\n\t\t\n\t\n\t\n                                \n                            \n                        \n                    \n                        \n                            \n                                \n                                    \n                                        \n                                         Parcel Information\n                                \n                            \n                            \n                                \n                                    \n\t\tParcel Number:17 00090003020 *Block:--Lot:--Subdivision:--",
        "tree_number": "1",
        "species": "Oak"
      },
      "geometry": {
        "type": "Point",
        "coordinates": [
          -84.351840159403,
          33.851873521717
        ]
      }
    },
    {
      "type": "Feature",
      "properties": {
        "record": "BA-202605292",
        "address": "355 HILLSIDE DR NW, ATLANTA GA 30342",
        "status": "ACA Pending",
        "date": "10/09/2026",
        "description": null,
        "owner": "HIPP J CARTER",
        "tree_dbh": "14",
        "tree_location": "front right",
        "reason_removal": "Dead tree",
        "tree_description": "14\" Hemlock, front right, DeadReason for Removal:Dead treeComments:14\" Hemlock, front right, Dead\n\t\t\n\t\n\t\n                                \n                            \n                        \n                    \n                        \n                            \n                                \n                                    \n                                        \n                                         Parcel Information\n                                \n                            \n                            \n                                \n                                    \n\t\tParcel Number:17 01380003033 *Block:--Lot:--Subdivision:--",
        "tree_number": "1",
        "species": "Hemlock"
      },
      "geometry": {
        "type": "Point",
        "coordinates": [
          -84.399239746066,
          33.869987279764
        ]
      }
    },
    {
      "type": "Feature",
      "properties": {
        "record": "BA-202605297",
        "address": "2945 WANDA CIR SW, ATLANTA GA 30315",
        "status": "ACA Pending",
        "date": "10/09/2026",
        "description": null,
        "owner": "DODSON EDDIE JAMES",
        "tree_dbh": "39",
        "tree_location": "back",
        "reason_removal": "Dead tree",
        "tree_description": "Large pocket of decay at base",
        "tree_number": "1",
        "species": "silver maple"
      },
      "geometry": {
        "type": "Point",
        "coordinates": [
          -84.410646251996,
          33.673892840828
        ]
      }
    },
    {
      "type": "Feature",
      "properties": {
        "record": "BA-202605298",
        "address": "924 ADAIR AVE NE, ATLANTA GA 30306",
        "status": "ACA Pending",
        "date": "10/09/2026",
        "description": null,
        "owner": null,
        "tree_dbh": "12",
        "tree_location": "back right of shed",
        "reason_removal": "Dying tree",
        "tree_description": "12\" Mimosa, Dying, back right of shedReason for Removal:Dying treeComments:12\" Mimosa, Dying, back right of shed\n\t\t\n\t\n\t\n                                \n                            \n                        \n                    \n                        \n                            \n                                \n                                    \n                                        \n                                         Parcel Information\n                                \n                            \n                            \n                                \n                                    \n\t\tParcel Number:17 00010007059 *Block:--Lot:--Subdivision:--",
        "tree_number": "1",
        "species": "Mimosa"
      },
      "geometry": {
        "type": "Point",
        "coordinates": [
          -84.357147581532,
          33.780162735482
        ]
      }
    },
    {
      "type": "Feature",
      "properties": {
        "record": "BA-202605307",
        "address": "85 MONTGOMERY FERRY DR NE, ATLANTA GA 30309",
        "status": "ACA Pending",
        "date": "10/09/2026",
        "description": null,
        "owner": "BRANCH TRUDI S",
        "tree_dbh": "15",
        "tree_location": "backyard",
        "reason_removal": "Invasive/undesirable tree",
        "tree_description": "Leyland 15\", backyard, Declining, Undesirable species",
        "tree_number": "1",
        "species": "Leyland cypress"
      },
      "geometry": {
        "type": "Point",
        "coordinates": [
          -84.37751815805,
          33.798075136445
        ]
      }
    },
    {
      "type": "Feature",
      "properties": {
        "record": "BA-202605309",
        "address": "3549 CREIGHTON RD SW, ATLANTA GA 30331",
        "status": "ACA Pending",
        "date": "10/09/2026",
        "description": null,
        "owner": "STRICKLAND ALENE W",
        "tree_dbh": "26",
        "tree_location": "Back yard right, behind car park.",
        "reason_removal": "Dying tree",
        "tree_description": "Hypoxylon canker, peeling bark, internal decay indicated by carpenter ants and fused roots, 20% lean towards house with an uneven taper. Reason for Removal:Dying treeComments:TRAP \n\t\t\n\t\n\t\n                                \n                            \n                        \n                    \n                        \n                            \n                                \n                                    \n                                        \n                                         Parcel Information\n                                \n                            \n                            \n                                \n                                    \n\t\tParcel Number:14 02500002010 *Block:--Lot:--Subdivision:--",
        "tree_number": "1",
        "species": "White oak"
      },
      "geometry": {
        "type": "Point",
        "coordinates": [
          -84.505029172028,
          33.700037495133
        ]
      }
    },
    {
      "type": "Feature",
      "properties": {
        "record": "BA-202605279",
        "address": "2575 WOODWARD WAY NW, ATLANTA GA 30305",
        "status": "ACA Pending",
        "date": "10/09/2026",
        "description": null,
        "owner": "HILLIARD HEATHER P",
        "tree_dbh": "30",
        "tree_location": "Left Rear",
        "reason_removal": "Dying tree",
        "tree_description": "50% crown lossReason for Removal:Dying tree\n\t\t\n\t\n\t\n                                \n                            \n                        \n                    \n                        \n                            \n                                \n                                    \n                                        \n                                         Parcel Information\n                                \n                            \n                            \n                                \n                                    \n\t\tParcel Number:17 01120001014 *Block:--Lot:--Subdivision:--",
        "tree_number": "1",
        "species": "White Oak"
      },
      "geometry": {
        "type": "Point",
        "coordinates": [
          -84.395829688575,
          33.82574180721
        ]
      }
    },
    {
      "type": "Feature",
      "properties": {
        "record": "BA-202605293",
        "address": "1105 VIRGINIA AVE NE, ATLANTA GA 30306",
        "status": "ACA Pending",
        "date": "10/09/2026",
        "description": null,
        "owner": "Emily Price",
        "tree_dbh": "30",
        "tree_location": "Left side of front yard",
        "reason_removal": "Uncorrectable defect",
        "tree_description": "Poor Spacing/Imbalanced Canopy Growing Over Retaining WallReason for Removal:Uncorrectable defect\n\t\t\n\t\t\n\t\t\tTree number:87Species:Water OakTree Size (DBH):16Tree location:Left side of front yardDescription of Tree:Poor Spacing/Imbalanced Canopy Growing Over Retaining WallReason for Removal:Uncorrectable defect\n\t\t\n\t\t\n\t\t\tTree number:88Species:Water OakTree Size (DBH):16Tree location:Left side of front yardDescription of Tree:Poor spacingReason for Removal:Uncorrectable defect\n\t\t\n\t\t\n\t\t\tTree number:89Species:Water OakTree Size (DBH):20Tree location:Left side of front yardDescription of Tree:Poor Spacing/Imbalanced CanopyReason for Removal:Uncorrectable defect\n\t\t\n\t\t\n\t\t\tTree number:90Species:Black CherryTree Size (DBH):8Tree location:Left side of front yardDescription of Tree:Poor Spacing/Imbalanced CanopyReason for Removal:Uncorrectable defect\n\t\t\n\t\t\n\t\t\tTree number:91Species:Water OakTree Size (DBH):9Tree location:Left side of front yardDescription of Tree:Poor Spacing/Imbalanced CanopyReason for Removal:Uncorrectable defect\n\t\t\n\t\n\t\n                                \n                            \n                        \n                    \n                        \n                            \n                                \n                                    \n                                        \n                                         Parcel Information\n                                \n                            \n                            \n                                \n                                    \n\t\tParcel Number:17 00010010008 *Block:--Lot:--Subdivision:--",
        "tree_number": "86",
        "species": "Black Cherry"
      },
      "geometry": {
        "type": "Point",
        "coordinates": [
          -84.351007389059,
          33.781863434928
        ]
      }
    },
    {
      "type": "Feature",
      "properties": {
        "record": "BA-202605310",
        "address": "25 MOBLEY DR SE, ATLANTA GA 30315",
        "status": "ACA Pending",
        "date": "10/09/2026",
        "description": null,
        "owner": "ROBERTSON OLIVIA",
        "tree_dbh": "30",
        "tree_location": "Back yard, right corner by fence. Poison ivy.",
        "reason_removal": "Significant cavity/area of decay",
        "tree_description": "Bifurcated leader, with a canker at the 20\" branch union. Another canker present, measuring 24\" tall, located at 4' above grade. Torsion crack present on the leader, approximately 50' above grade.",
        "tree_number": "1",
        "species": "Loblolly pine"
      },
      "geometry": {
        "type": "Point",
        "coordinates": [
          -84.38795630288,
          33.686352661699
        ]
      }
    },
    {
      "type": "Feature",
      "properties": {
        "record": "BA-202605308",
        "address": "2744 TUPELO ST SE, ATLANTA GA 30317",
        "status": "ACA Pending",
        "date": "10/09/2026",
        "description": null,
        "owner": "RAWLE KAREN REBECCA",
        "tree_dbh": "1",
        "tree_location": "east property line",
        "reason_removal": "Dying tree",
        "tree_description": "Approximately 1ft 2in DBH. Minimal new leaf growth in only small patches. Strange bark pattern. Largest branch appears visibly dead.Reason for Removal:Dying tree\n\t\t\n\t\n\t\n                                \n                            \n                        \n                    \n                        \n                            \n                                \n                                    \n                                        \n                                         Parcel Information\n                                \n                            \n                            \n                                \n                                    \n\t\tParcel Number:15 203 04 045 *Block:--Lot:--Subdivision:--",
        "tree_number": "1",
        "species": "oak"
      },
      "geometry": {
        "type": "Point",
        "coordinates": [
          -84.29696914809,
          33.748996112604
        ]
      }
    },
    {
      "type": "Feature",
      "properties": {
        "record": "BA-202605301",
        "address": "3808 KING HENRY RD SW, ATLANTA GA 30331",
        "status": "ACA Pending",
        "date": "10/09/2026",
        "description": null,
        "owner": "Joseph Harrison",
        "tree_dbh": "20",
        "tree_location": "Backyard",
        "reason_removal": "Dying tree",
        "tree_description": "Tree is deadReason for Removal:Dying treeComments:Please\n\t\t\n\t\n\t\n                                \n                            \n                        \n                    \n                        \n                            \n                                \n                                    \n                                        \n                                         Parcel Information\n                                \n                            \n                            \n                                \n                                    \n\t\tParcel Number:14F00070004013 *Block:--Lot:--Subdivision:--",
        "tree_number": "1",
        "species": "Remove"
      },
      "geometry": {
        "type": "Point",
        "coordinates": [
          -84.512945626435,
          33.701977766846
        ]
      }
    },
    {
      "type": "Feature",
      "properties": {
        "record": "BA-202605305",
        "address": "381 SPRINGSIDE DR SE, ATLANTA GA 30354",
        "status": "ACA Pending",
        "date": "10/09/2026",
        "description": "DDH",
        "owner": null,
        "tree_dbh": null,
        "tree_location": null,
        "reason_removal": null,
        "tree_description": null,
        "tree_number": null,
        "species": null
      },
      "geometry": {
        "type": "Point",
        "coordinates": [
          -84.377220880338,
          33.676586968282
        ]
      }
    }
  ]
}