{
  "type": "FeatureCollection",
  "features": [
    {
      "type": "Feature",
      "properties": {
        "record": "26TMP-066455",
        "address": "155 LAKEVIEW AVE NE, ATLANTA GA 30305",
        "status": "",
        "date": "10/08/2026",
        "description": null,
        "owner": null,
        "tree_dbh": null,
        "tree_location": null,
        "reason_removal": null,
        "tree_description": null,
        "tree_number": null,
        "species": null
      },
      "geometry": {
        "type": "Point",
        "coordinates": [
          -84.382163131548,
          33.824479112456
        ]
      }
    },
    {
      "type": "Feature",
      "properties": {
        "record": "BA-202605259",
        "address": "1812 DEFOOR AVE NW, ATLANTA GA 30318",
        "status": "ACA Pending",
        "date": "10/08/2026",
        "description": null,
        "owner": "KELLY JAMES T",
        "tree_dbh": "12",
        "tree_location": "right side of drive",
        "reason_removal": "Other",
        "tree_description": "12\" Pecan, right side of drive, decliningReason for Removal:OtherComments:12\" Pecan, right side of drive, declining\n\t\t\n\t\n\t\n                                \n                            \n                        \n                    \n                        \n                            \n                                \n                                    \n                                        \n                                         Parcel Information\n                                \n                            \n                            \n                                \n                                    \n\t\tParcel Number:17 01870002002 *Block:--Lot:--Subdivision:--",
        "tree_number": "1",
        "species": "Pecan"
      },
      "geometry": {
        "type": "Point",
        "coordinates": [
          -84.42292409883,
          33.804714767818
        ]
      }
    },
    {
      "type": "Feature",
      "properties": {
        "record": "BA-202605274",
        "address": "1410 WILLIS MILL RD SW, ATLANTA GA 30311",
        "status": "ACA Pending",
        "date": "10/08/2026",
        "description": null,
        "owner": "BAILEY MICHAELA",
        "tree_dbh": "0",
        "tree_location": "Front Yard",
        "reason_removal": "Dying tree",
        "tree_description": null,
        "tree_number": "4",
        "species": "PINE"
      },
      "geometry": {
        "type": "Point",
        "coordinates": [
          -84.469165892446,
          33.71735590568
        ]
      }
    },
    {
      "type": "Feature",
      "properties": {
        "record": "BA-202605269",
        "address": "145 VALLEY RD NW, ATLANTA GA 30305",
        "status": "ACA Pending",
        "date": "10/08/2026",
        "description": null,
        "owner": null,
        "tree_dbh": null,
        "tree_location": null,
        "reason_removal": null,
        "tree_description": null,
        "tree_number": null,
        "species": null
      },
      "geometry": {
        "type": "Point",
        "coordinates": [
          -84.39202642646,
          33.853396174967
        ]
      }
    },
    {
      "type": "Feature",
      "properties": {
        "record": "BA-202605267",
        "address": "457 LYNN VALLEY RD SW, ATLANTA GA 30311",
        "status": "ACA Pending",
        "date": "10/08/2026",
        "description": null,
        "owner": null,
        "tree_dbh": null,
        "tree_location": null,
        "reason_removal": null,
        "tree_description": null,
        "tree_number": null,
        "species": null
      },
      "geometry": {
        "type": "Point",
        "coordinates": [
          -84.484641706951,
          33.738292545937
        ]
      }
    },
    {
      "type": "Feature",
      "properties": {
        "record": "BA-202605264",
        "address": "640 TIMM VALLEY RD NE, ATLANTA GA 30305",
        "status": "ACA Pending",
        "date": "10/08/2026",
        "description": null,
        "owner": null,
        "tree_dbh": null,
        "tree_location": null,
        "reason_removal": null,
        "tree_description": null,
        "tree_number": null,
        "species": null
      },
      "geometry": {
        "type": "Point",
        "coordinates": [
          -84.365233972696,
          33.836621669862
        ]
      }
    },
    {
      "type": "Feature",
      "properties": {
        "record": "26TMP-066451",
        "address": "172 CAMPBELL ST SE, ATLANTA GA 30317",
        "status": "",
        "date": "10/08/2026",
        "description": null,
        "owner": null,
        "tree_dbh": null,
        "tree_location": null,
        "reason_removal": null,
        "tree_description": null,
        "tree_number": null,
        "species": null
      },
      "geometry": {
        "type": "Point",
        "coordinates": [
          -84.325159605754,
          33.748669755964
        ]
      }
    },
    {
      "type": "Feature",
      "properties": {
        "record": "BA-202605276",
        "address": "444 MCWILLIAMS AVE SE, ATLANTA GA 30316",
        "status": "Accepted",
        "date": "10/08/2026",
        "description": null,
        "owner": null,
        "tree_dbh": null,
        "tree_location": null,
        "reason_removal": null,
        "tree_description": null,
        "tree_number": null,
        "species": null
      },
      "geometry": {
        "type": "Point",
        "coordinates": [
          -84.33601513028,
          33.741731497535
        ]
      }
    },
    {
      "type": "Feature",
      "properties": {
        "record": "BA-202605252",
        "address": "1848 WESTWOOD AVE SW, ATLANTA GA 30310",
        "status": "ACA Pending",
        "date": "10/08/2026",
        "description": null,
        "owner": null,
        "tree_dbh": null,
        "tree_location": null,
        "reason_removal": null,
        "tree_description": null,
        "tree_number": null,
        "species": null
      },
      "geometry": {
        "type": "Point",
        "coordinates": [
          -84.448339855923,
          33.738728329048
        ]
      }
    },
    {
      "type": "Feature",
      "properties": {
        "record": "26TMP-066673",
        "address": "380 SPRINGSIDE DR SE, ATLANTA GA 30354",
        "status": "",
        "date": "10/08/2026",
        "description": null,
        "owner": null,
        "tree_dbh": null,
        "tree_location": null,
        "reason_removal": null,
        "tree_description": null,
        "tree_number": null,
        "species": null
      },
      "geometry": {
        "type": "Point",
        "coordinates": [
          -84.377859215634,
          33.676681217672
        ]
      }
    },
    {
      "type": "Feature",
      "properties": {
        "record": "BA-202605254",
        "address": "742 GREENVIEW AVE NE, ATLANTA GA 30305",
        "status": "ACA Pending",
        "date": "10/08/2026",
        "description": null,
        "owner": null,
        "tree_dbh": null,
        "tree_location": null,
        "reason_removal": null,
        "tree_description": null,
        "tree_number": null,
        "species": null
      },
      "geometry": {
        "type": "Point",
        "coordinates": [
          -84.363400021876,
          33.837732751148
        ]
      }
    },
    {
      "type": "Feature",
      "properties": {
        "record": "BA-202605275",
        "address": "3840 CLUB DR NE, ATLANTA GA 30319",
        "status": "Accepted",
        "date": "10/08/2026",
        "description": null,
        "owner": null,
        "tree_dbh": null,
        "tree_location": null,
        "reason_removal": null,
        "tree_description": null,
        "tree_number": null,
        "species": null
      },
      "geometry": {
        "type": "Point",
        "coordinates": [
          -84.350782798981,
          33.859247836406
        ]
      }
    },
    {
      "type": "Feature",
      "properties": {
        "record": "BA-202605270",
        "address": "1728 HOMESTEAD AVE NE, ATLANTA GA 30306",
        "status": "ACA Pending",
        "date": "10/08/2026",
        "description": null,
        "owner": null,
        "tree_dbh": null,
        "tree_location": null,
        "reason_removal": null,
        "tree_description": null,
        "tree_number": null,
        "species": null
      },
      "geometry": {
        "type": "Point",
        "coordinates": [
          -84.347998829982,
          33.801661816855
        ]
      }
    },
    {
      "type": "Feature",
      "properties": {
        "record": "BA-202605256",
        "address": "839 CARDOVA DR NE, ATLANTA GA 30324",
        "status": "ACA Pending",
        "date": "10/08/2026",
        "description": null,
        "owner": null,
        "tree_dbh": null,
        "tree_location": null,
        "reason_removal": null,
        "tree_description": null,
        "tree_number": null,
        "species": null
      },
      "geometry": {
        "type": "Point",
        "coordinates": [
          -84.360328074153,
          33.816674234368
        ]
      }
    },
    {
      "type": "Feature",
      "properties": {
        "record": "BA-202605268",
        "address": "139 WEST LAKE AVE NW, ATLANTA GA 30314",
        "status": "ACA Pending",
        "date": "10/08/2026",
        "description": null,
        "owner": null,
        "tree_dbh": null,
        "tree_location": null,
        "reason_removal": null,
        "tree_description": null,
        "tree_number": null,
        "species": null
      },
      "geometry": {
        "type": "Point",
        "coordinates": [
          -84.444198804116,
          33.757858800508
        ]
      }
    },
    {
      "type": "Feature",
      "properties": {
        "record": "BA-202605272",
        "address": "1344 LA FRANCE ST NE, ATLANTA GA 30307",
        "status": "ACA Pending",
        "date": "10/08/2026",
        "description": null,
        "owner": null,
        "tree_dbh": null,
        "tree_location": null,
        "reason_removal": null,
        "tree_description": null,
        "tree_number": null,
        "species": null
      },
      "geometry": {
        "type": "Point",
        "coordinates": [
          -84.343603367075,
          33.760451923801
        ]
      }
    },
    {
      "type": "Feature",
      "properties": {
        "record": "BA-202605273",
        "address": "575 JONES AVE NW, ATLANTA GA 30314",
        "status": "ACA Pending",
        "date": "10/08/2026",
        "description": null,
        "owner": null,
        "tree_dbh": null,
        "tree_location": null,
        "reason_removal": null,
        "tree_description": null,
        "tree_number": null,
        "species": null
      },
      "geometry": {
        "type": "Point",
        "coordinates": [
          -84.40626487066,
          33.764315858767
        ]
      }
    },
    {
      "type": "Feature",
      "properties": {
        "record": "BA-202605262",
        "address": "393 DEERING RD NW, ATLANTA GA 30309",
        "status": "ACA Pending",
        "date": "10/08/2026",
        "description": null,
        "owner": null,
        "tree_dbh": "26",
        "tree_location": "Back left corner of house.",
        "reason_removal": "Dying tree",
        "tree_description": "Dead Magnolia in the back center of the backyard. Reason for Removal:Dead tree\n\t\t\n\t\t\n\t\t\tTree number:2Species:Water OakTree Size (DBH):24Tree location:Back left corner of house. Description of Tree:Hazardous Water Oak growing extremely close to house with a lean on fence and towards house. Reason for Removal:Other\n\t\t\n\t\t\n\t\t\tTree number:3Species:Water OakTree Size (DBH):24Tree location:backyard along fence line. Description of Tree:1 of 2 Water Oaks growing on fence line, between properties, damaging fence and property. Reason for Removal:Other\n\t\t\n\t\t\n\t\t\tTree number:4Species:Water OakTree Size (DBH):24Tree location:backyard along fence line. Description of Tree:2 of 2 Water Oaks growing on fence line, between properties, damaging fence and property. Reason for Removal:Other\n\t\t\n\t\t\n\t\t\tTree number:5Species:Black WalnutTree Size (DBH):12Tree location:BackyardDescription of Tree:1 of 2 Black Walnut trees growing along fence line in backyard. Reason for Removal:Dying treeComments:Damaging neighbor's garage. \n\t\t\n\t\t\n\t\t\tTree number:6Species:Black WalnutTree Size (DBH):6Tree location:Backyard. Description of Tree:2 of 2 Black Walnut trees growing along fence line in backyard. Reason for Removal:Dying treeComments:Damaging neighbor's garage. \n\t\t\n\t\n\t\n                                \n                            \n                        \n                    \n                        \n                            \n                                \n                                    \n                                        \n                                         Parcel Information\n                                \n                            \n                            \n                                \n                                    \n\t\tParcel Number:17 01470001003 *Block:--Lot:--Subdivision:--",
        "tree_number": "1",
        "species": "Magnolia"
      },
      "geometry": {
        "type": "Point",
        "coordinates": [
          -84.400876673237,
          33.796242307023
        ]
      }
    },
    {
      "type": "Feature",
      "properties": {
        "record": "BA-202605261",
        "address": "2488 DELLWOOD DR NW, ATLANTA GA 30305",
        "status": "ACA Pending",
        "date": "10/08/2026",
        "description": null,
        "owner": "Matthew Bean",
        "tree_dbh": "30",
        "tree_location": "Left side of front yard",
        "reason_removal": "Uncorrectable defect",
        "tree_description": "Tree has extensive tip die back throughout the entire upper canopy. The decline is beyond what pruning and/or soil care could reasonably be expected to cure.Reason for Removal:Uncorrectable defectComments:Pink tape\n\t\t\n\t\n\t\n                                \n                            \n                        \n                    \n                        \n                            \n                                \n                                    \n                                        \n                                         Parcel Information\n                                \n                            \n                            \n                                \n                                    \n\t\tParcel Number:17 01440005034 *Block:--Lot:--Subdivision:--",
        "tree_number": "1",
        "species": "Maple"
      },
      "geometry": {
        "type": "Point",
        "coordinates": [
          -84.398306780434,
          33.823167605534
        ]
      }
    },
    {
      "type": "Feature",
      "properties": {
        "record": "BA-202605260",
        "address": "3455 PACES FOREST RD NW, ATLANTA GA 30327",
        "status": "Accepted",
        "date": "10/08/2026",
        "description": null,
        "owner": "HUNDLEY RACHEL",
        "tree_dbh": "28",
        "tree_location": "right side of drive closer to street",
        "reason_removal": "Other",
        "tree_description": "28\" Pine, right side drive, in holly hedge, in declineReason for Removal:OtherComments:28\" Pine, right side drive, in holly hedge, in decline\n\t\t\n\t\t\n\t\t\tTree number:2Species:PineTree Size (DBH):24Tree location:right side of drive closer to streetDescription of Tree:24\" Pine, right side drive, closer to street, in declineReason for Removal:OtherComments:24\" Pine, right side drive, closer to street, in decline\n\t\t\n\t\n\t\n                                \n                            \n                        \n                    \n                        \n                            \n                                \n                                    \n                                        \n                                         Parcel Information\n                                \n                            \n                            \n                                \n                                    \n\t\tParcel Number:17 01810001021 *Block:--Lot:--Subdivision:--",
        "tree_number": "1",
        "species": "Pine"
      },
      "geometry": {
        "type": "Point",
        "coordinates": [
          -84.424967918339,
          33.849561378483
        ]
      }
    },
    {
      "type": "Feature",
      "properties": {
        "record": "BA-202605253",
        "address": "1999 BAKER RD NW, ATLANTA GA 30318",
        "status": "ACA Pending",
        "date": "10/08/2026",
        "description": null,
        "owner": "Joseph Redding",
        "tree_dbh": "10",
        "tree_location": "end of the driveway",
        "reason_removal": "Uncorrectable defect",
        "tree_description": "Dangerous Leaning tree towards the drivewayReason for Removal:Uncorrectable defect\n\t\t\n\t\n\t\n                                \n                            \n                        \n                    \n                        \n                            \n                                \n                                    \n                                        \n                                         Parcel Information\n                                \n                            \n                            \n                                \n                                    \n\t\tParcel Number:14 01750013011 *Block:--Lot:--Subdivision:--",
        "tree_number": "1",
        "species": "Oak"
      },
      "geometry": {
        "type": "Point",
        "coordinates": [
          -84.452342340278,
          33.770166047331
        ]
      }
    },
    {
      "type": "Feature",
      "properties": {
        "record": "BA-202605266",
        "address": "190 BOLLING RD NE, ATLANTA GA 30305",
        "status": "ACA Pending",
        "date": "10/08/2026",
        "description": null,
        "owner": null,
        "tree_dbh": "8",
        "tree_location": "Front of home",
        "reason_removal": "Significant cavity/area of decay",
        "tree_description": "Picture of treeReason for Removal:Significant cavity/area of decayComments:- decay at base\n- proximity to home\n\t\t\n\t\n\t\n                                \n                            \n                        \n                    \n                        \n                            \n                                \n                                    \n                                        \n                                         Parcel Information\n                                \n                            \n                            \n                                \n                                    \n\t\tParcel Number:17 01000003073 *Block:--Lot:--Subdivision:--",
        "tree_number": "1",
        "species": "Dogwood"
      },
      "geometry": {
        "type": "Point",
        "coordinates": [
          -84.380144077368,
          33.829696964456
        ]
      }
    },
    {
      "type": "Feature",
      "properties": {
        "record": "BA-202605277",
        "address": "166 HILLTOP DR SW, ATLANTA GA 0",
        "status": "ACA Pending",
        "date": "10/08/2026",
        "description": null,
        "owner": null,
        "tree_dbh": "25",
        "tree_location": "Front right of house",
        "reason_removal": "Dead tree",
        "tree_description": "Tree is danger of falling Reason for Removal:Other\n\t\t\n\t\t\n\t\t\tTree number:3Species:PineTree Size (DBH):24Tree location:Front right of the driveway Description of Tree:PineReason for Removal:OtherComments:Danger of falling \n\t\t\n\t\t\n\t\t\tTree number:4Species:PineTree Size (DBH):20Tree location:Front right of house Description of Tree:Pine Reason for Removal:OtherComments:Branches falling on the house \n\t\t\n\t\t\n\t\t\tTree number:5Species:PineTree Size (DBH):20Tree location:Right side of the house Description of Tree:Pine Reason for Removal:Dead treeComments:Risk of falling \n\t\t\n\t\t\n\t\t\tTree number:6Species:Water OakTree Size (DBH):31Tree location:Right corner of the house Description of Tree:OakReason for Removal:OtherComments:Damage to the house foundation \n\t\t\n\t\t\n\t\t\tTree number:7Species:Sweet GumTree Size (DBH):39Tree location:Front left side of the house Description of Tree:Sweet GumReason for Removal:Dead treeComments:Risk of falling \n\t\t\n\t\t\n\t\t\tTree number:8Species:Red TipTree Size (DBH):9Tree location:Left front of the house Description of Tree:Red TipReason for Removal:OtherComments:Tree is in the power line \n\t\t\n\t\t\n\t\t\tTree number:1Species:Pine Tree Size (DBH):17Tree location:Front of the house Description of Tree:Pine Reason for Removal:Dead treeComments:Risk of falling \n\t\t\n\t\n\t\n                                \n                            \n                        \n                    \n                        \n                            \n                                \n                                    \n                                        \n                                         Parcel Information\n                                \n                            \n                            \n                                \n                                    \n\t\tParcel Number:14 00710002097 *Block:--Lot:--Subdivision:--",
        "tree_number": "2",
        "species": "Pine"
      },
      "geometry": {
        "type": "Point",
        "coordinates": [
          -84.395086046312,
          33.698972890755
        ]
      }
    },
    {
      "type": "Feature",
      "properties": {
        "record": "BA-202605265",
        "address": "778 EDGEWOOD AVE NE, ATLANTA GA 30307",
        "status": "ACA Pending",
        "date": "10/08/2026",
        "description": null,
        "owner": "BARROW IAN E",
        "tree_dbh": "58",
        "tree_location": "left fenceline",
        "reason_removal": "Other",
        "tree_description": "lost a very large limb in late summer stormReason for Removal:Other\n\t\t\n\t\t\n\t\t\tTree number:2Species:oak?Tree Size (DBH):40Tree location:left fencelineDescription of Tree:straddles fenceReason for Removal:OtherComments:lots of overhang\n\t\t\n\t\n\t\n                                \n                            \n                        \n                    \n                        \n                            \n                                \n                                    \n                                        \n                                         Parcel Information\n                                \n                            \n                            \n                                \n                                    \n\t\tParcel Number:14 00190012103 *Block:--Lot:--Subdivision:--",
        "tree_number": "1",
        "species": "oak"
      },
      "geometry": {
        "type": "Point",
        "coordinates": [
          -84.362084306938,
          33.755139755767
        ]
      }
    },
    {
      "type": "Feature",
      "properties": {
        "record": "BA-202605263",
        "address": "1110 WEDGEWOOD DR NW, ATLANTA GA 30318",
        "status": "ACA Pending",
        "date": "10/08/2026",
        "description": null,
        "owner": "Dashia Caudill",
        "tree_dbh": "24",
        "tree_location": "Backyard",
        "reason_removal": "Uncorrectable defect",
        "tree_description": "Lightening strike from 2' up to 50' on trunkReason for Removal:Uncorrectable defect\n\t\t\n\t\n\t\n                                \n                            \n                        \n                    \n                        \n                            \n                                \n                                    \n                                        \n                                         Parcel Information\n                                \n                            \n                            \n                                \n                                    \n\t\tParcel Number:17 02490005079 *Block:--Lot:--Subdivision:--",
        "tree_number": "1",
        "species": "Water Oak"
      },
      "geometry": {
        "type": "Point",
        "coordinates": [
          -84.475866178244,
          33.785664760088
        ]
      }
    },
    {
      "type": "Feature",
      "properties": {
        "record": "BA-202605249",
        "address": "2355 HOWELL MILL RD NW, ATLANTA GA 30318",
        "status": "ACA Pending",
        "date": "10/08/2026",
        "description": null,
        "owner": "PETERS SUZANNE F",
        "tree_dbh": "32",
        "tree_location": "Front left of property",
        "reason_removal": "Other",
        "tree_description": "Large Pine losing large branchesReason for Removal:OtherComments:Tree is losing large branches and is close to house and neighbors driveway. Homeowner is worried about house damage or someone getting hurt from a falling branch\n\t\t\n\t\n\t\n                                \n                            \n                        \n                    \n                        \n                            \n                                \n                                    \n                                        \n                                         Parcel Information\n                                \n                            \n                            \n                                \n                                    \n\t\tParcel Number:17 01540008056 *Block:--Lot:--Subdivision:--",
        "tree_number": "1",
        "species": "Pine"
      },
      "geometry": {
        "type": "Point",
        "coordinates": [
          -84.416520021795,
          33.82012458829
        ]
      }
    },
    {
      "type": "Feature",
      "properties": {
        "record": "BA-202605250",
        "address": "1051 DELAWARE AVE SE, ATLANTA GA 30316",
        "status": "ACA Pending",
        "date": "10/08/2026",
        "description": null,
        "owner": "VANDIVER JEFFREY",
        "tree_dbh": "23",
        "tree_location": "Right side of backyard",
        "reason_removal": "Other",
        "tree_description": "Tree has been dropping branches and damaging neighbors property and a branch has fallen and hit their dogReason for Removal:OtherComments:Tree has been dropping branches and damaging neighbors property and a branch has fallen and hit their dog. Neighbor is very concerned about the tree continuing to damage their property.\n\t\t\n\t\n\t\n                                \n                            \n                        \n                    \n                        \n                            \n                                \n                                    \n                                        \n                                         Parcel Information\n                                \n                            \n                            \n                                \n                                    \n\t\tParcel Number:14 00110012029 *Block:--Lot:--Subdivision:--",
        "tree_number": "1",
        "species": "Pecan"
      },
      "geometry": {
        "type": "Point",
        "coordinates": [
          -84.35302397772,
          33.731218819888
        ]
      }
    },
    {
      "type": "Feature",
      "properties": {
        "record": "BA-202605251",
        "address": "2735 NORTH HILLS DR NE, ATLANTA GA 30305",
        "status": "ACA Pending",
        "date": "10/08/2026",
        "description": null,
        "owner": null,
        "tree_dbh": "12",
        "tree_location": "back left corner.",
        "reason_removal": "Significant cavity/area of decay",
        "tree_description": "Picture of treeReason for Removal:OtherComments:Cracked- Received Authorization via email to remove tree from Paul Hester \n\t\t\n\t\t\n\t\t\tTree number:2Species:MapleTree Size (DBH):12Tree location:Back left cornerDescription of Tree:Picture of treeReason for Removal:Significant cavity/area of decayComments:Received Authorization via email to remove tree from Paul Hester \n\t\t\n\t\n\t\n                                \n                            \n                        \n                    \n                        \n                            \n                                \n                                    \n                                        \n                                         Parcel Information\n                                \n                            \n                            \n                                \n                                    \n\t\tParcel Number:17 00600006056 *Block:--Lot:--Subdivision:--",
        "tree_number": "1",
        "species": "Maple"
      },
      "geometry": {
        "type": "Point",
        "coordinates": [
          -84.372941185313,
          33.829733867349
        ]
      }
    },
    {
      "type": "Feature",
      "properties": {
        "record": "26TMP-066720",
        "address": "91 LAKEVIEW DR NE, ATLANTA GA 30317",
        "status": "",
        "date": "10/08/2026",
        "description": null,
        "owner": null,
        "tree_dbh": null,
        "tree_location": null,
        "reason_removal": null,
        "tree_description": null,
        "tree_number": null,
        "species": null
      },
      "geometry": {
        "type": "Point",
        "coordinates": [
          -84.311782096017,
          33.754154493451
        ]
      }
    },
    {
      "type": "Feature",
      "properties": {
        "record": "BA-202605271",
        "address": "2791 VALLEY HEART DR NW, ATLANTA GA 30318",
        "status": "ACA Pending",
        "date": "10/08/2026",
        "description": null,
        "owner": "SIMS VERA J",
        "tree_dbh": "29",
        "tree_location": "back rs of home",
        "reason_removal": "Other",
        "tree_description": "colonized by ants/termitesReason for Removal:Other\n\t\t\n\t\t\n\t\t\tTree number:2Species:sweet gumTree Size (DBH):13Tree location:back right s of home Description of Tree:deadReason for Removal:Dead tree\n\t\t\n\t\t\n\t\t\tTree number:3Species:sweet gum Tree Size (DBH):24.5Tree location:front corner Description of Tree:dead and hanging over house and service linres to property and neighboring properties Reason for Removal:Other\n\t\t\n\t\n\t\n                                \n                            \n                        \n                    \n                        \n                            \n                                \n                                    \n                                        \n                                         Parcel Information\n                                \n                            \n                            \n                                \n                                    \n\t\tParcel Number:14 02110005030 *Block:--Lot:--Subdivision:--",
        "tree_number": "1",
        "species": "oak"
      },
      "geometry": {
        "type": "Point",
        "coordinates": [
          -84.479581346045,
          33.762880302534
        ]
      }
    },
    {
      "type": "Feature",
      "properties": {
        "record": "BA-202605257",
        "address": "4346 HARRIS TRL NW, ATLANTA GA 30327",
        "status": "Accepted",
        "date": "10/08/2026",
        "description": null,
        "owner": null,
        "tree_dbh": "32",
        "tree_location": "As facing the house, the tree is on the right toward the front of the house",
        "reason_removal": "Dying tree",
        "tree_description": "Large tree next to the house. It is leaning and has a decaying area about 20 feet up. It recently lost several branchesReason for Removal:Dying tree\n\t\t\n\t\n\t\n                                \n                            \n                        \n                    \n                        \n                            \n                                \n                                    \n                                        \n                                         Parcel Information\n                                \n                            \n                            \n                                \n                                    \n\t\tParcel Number:17 0201  LL117 *Block:--Lot:--Subdivision:--",
        "tree_number": "1",
        "species": "White Beech?"
      },
      "geometry": {
        "type": "Point",
        "coordinates": [
          -84.43465960288,
          33.874417319195
        ]
      }
    },
    {
      "type": "Feature",
      "properties": {
        "record": "BA-202605258",
        "address": "820 FAIRBURN RD SW, ATLANTA GA 30331",
        "status": "Issued",
        "date": "10/08/2026",
        "description": "DDH",
        "owner": "PVP STORAGE LLP",
        "tree_dbh": null,
        "tree_location": null,
        "reason_removal": null,
        "tree_description": null,
        "tree_number": null,
        "species": null
      },
      "geometry": {
        "type": "Point",
        "coordinates": [
          -84.510086105234,
          33.732430639128
        ]
      }
    }
  ]
}