{
  "type": "FeatureCollection",
  "features": [
    {
      "type": "Feature",
      "properties": {
        "record": "BA-202603905",
        "address": "405 WOODSTOCK DR SW, ATLANTA GA 30331",
        "status": "Accepted",
        "date": "08/12/2026",
        "description": null,
        "owner": null,
        "tree_dbh": "28",
        "tree_location": "front center",
        "reason_removal": "Dying tree",
        "tree_description": "Large Fusiform canker present at 35' roughly 25% of circumference with slight lean toward home. Tree is also damaging driveway that can not be repaired without impacting SRP. Reason for Removal:Dying tree\n\t\t\n\t\n\t\n                                \n                            \n                        \n                    \n                        \n                            \n                                \n                                    \n                                        \n                                         Parcel Information\n                                \n                            \n                            \n                                \n                                    \n\t\tParcel Number:14F00240001044 *Block:--Lot:--Subdivision:--",
        "tree_number": "1",
        "species": "loblolly"
      },
      "geometry": {
        "type": "Point",
        "coordinates": [
          -84.515012014567,
          33.760669861038
        ]
      }
    },
    {
      "type": "Feature",
      "properties": {
        "record": "26TMP-052213",
        "address": "2001 TIGER FLOWERS DR NW, ATLANTA GA 30314",
        "status": "",
        "date": "08/12/2026",
        "description": null,
        "owner": null,
        "tree_dbh": null,
        "tree_location": null,
        "reason_removal": null,
        "tree_description": null,
        "tree_number": null,
        "species": null
      },
      "geometry": {
        "type": "Point",
        "coordinates": [
          -84.452882752856,
          33.760212667397
        ]
      }
    },
    {
      "type": "Feature",
      "properties": {
        "record": "BA-202603930",
        "address": "2300 BOULEVARD GRANADA SW, ATLANTA GA 30311",
        "status": "ACA Pending",
        "date": "08/12/2026",
        "description": null,
        "owner": "Joseph Riner",
        "tree_dbh": "30",
        "tree_location": "2300 Boulevard Granada, Atlanta, GA 30311",
        "reason_removal": "Dying tree",
        "tree_description": null,
        "tree_number": "1",
        "species": "Oak"
      },
      "geometry": {
        "type": "Point",
        "coordinates": [
          -84.46391088493,
          33.720634723657
        ]
      }
    },
    {
      "type": "Feature",
      "properties": {
        "record": "BA-202603931",
        "address": "858 VEDADO WAY NE, ATLANTA GA 30308",
        "status": "ACA Pending",
        "date": "08/12/2026",
        "description": null,
        "owner": null,
        "tree_dbh": null,
        "tree_location": null,
        "reason_removal": null,
        "tree_description": null,
        "tree_number": null,
        "species": null
      },
      "geometry": {
        "type": "Point",
        "coordinates": [
          -84.371402917564,
          33.77795306776
        ]
      }
    },
    {
      "type": "Feature",
      "properties": {
        "record": "BA-202603927",
        "address": "868 DURANT PL NE, ATLANTA GA 30308",
        "status": "ACA Pending",
        "date": "08/12/2026",
        "description": null,
        "owner": null,
        "tree_dbh": null,
        "tree_location": null,
        "reason_removal": null,
        "tree_description": null,
        "tree_number": null,
        "species": null
      },
      "geometry": {
        "type": "Point",
        "coordinates": [
          -84.375312850557,
          33.778187783224
        ]
      }
    },
    {
      "type": "Feature",
      "properties": {
        "record": "BA-202603915",
        "address": "335 BRENTWOOD TER NE, ATLANTA GA 30305",
        "status": "Accepted",
        "date": "08/12/2026",
        "description": null,
        "owner": null,
        "tree_dbh": "30",
        "tree_location": "Property line to 345 Brentwood Terrace",
        "reason_removal": "Dying tree",
        "tree_description": "Tree is located on the property line between 335 and 345 Brentwood Terrace.Reason for Removal:Dying treeComments:Tree is dying and losing limbs falling on my neighbor's property, driveway and car. Tree has been sick for quite a while and neighbors asks to take it down since the tree is on the property line.\n\t\t\n\t\n\t\n                                \n                            \n                        \n                    \n                        \n                            \n                                \n                                    \n                                        \n                                         Parcel Information\n                                \n                            \n                            \n                                \n                                    \n\t\tParcel Number:17 00600005042 *Block:--Lot:--Subdivision:--",
        "tree_number": "1",
        "species": "Oak"
      },
      "geometry": {
        "type": "Point",
        "coordinates": [
          -84.376470357938,
          33.830460051412
        ]
      }
    },
    {
      "type": "Feature",
      "properties": {
        "record": "BA-202603929",
        "address": "1425 PIEDMONT AVE NE, ATLANTA GA 30309",
        "status": "ACA Pending",
        "date": "08/12/2026",
        "description": null,
        "owner": null,
        "tree_dbh": null,
        "tree_location": null,
        "reason_removal": null,
        "tree_description": null,
        "tree_number": null,
        "species": null
      },
      "geometry": {
        "type": "Point",
        "coordinates": [
          -84.371707916904,
          33.794224594909
        ]
      }
    },
    {
      "type": "Feature",
      "properties": {
        "record": "BA-202603913",
        "address": "3470 TUXEDO RD NW, ATLANTA GA 30305",
        "status": "Accepted",
        "date": "08/12/2026",
        "description": null,
        "owner": null,
        "tree_dbh": null,
        "tree_location": null,
        "reason_removal": null,
        "tree_description": null,
        "tree_number": null,
        "species": null
      },
      "geometry": {
        "type": "Point",
        "coordinates": [
          -84.405718775417,
          33.849578070385
        ]
      }
    },
    {
      "type": "Feature",
      "properties": {
        "record": "BA-202603924",
        "address": "55 ROGERS ST SE, ATLANTA GA 30317",
        "status": "Accepted",
        "date": "08/12/2026",
        "description": null,
        "owner": "Lisa Kim",
        "tree_dbh": "39",
        "tree_location": "front yard - right when facing house",
        "reason_removal": "Other",
        "tree_description": "Tree is dangerously dropping tree limbs repeatedly on neighbors' houses and cut through electrical lines as well as branches are towering over twin babies' room and causing trip hazards for elderly grandmother at houseReason for Removal:Other\n\t\t\n\t\n\t\n                                \n                            \n                        \n                    \n                        \n                            \n                                \n                                    \n                                        \n                                         Parcel Information\n                                \n                            \n                            \n                                \n                                    \n\t\tParcel Number:15 206 04 052 *Block:--Lot:--Subdivision:--",
        "tree_number": "1",
        "species": "sweet gum"
      },
      "geometry": {
        "type": "Point",
        "coordinates": [
          -84.329211229822,
          33.752592333917
        ]
      }
    },
    {
      "type": "Feature",
      "properties": {
        "record": "BA-202603921",
        "address": "1321 ORMEWOOD AVE SE, ATLANTA GA 30316",
        "status": "Accepted",
        "date": "08/12/2026",
        "description": null,
        "owner": null,
        "tree_dbh": null,
        "tree_location": null,
        "reason_removal": null,
        "tree_description": null,
        "tree_number": null,
        "species": null
      },
      "geometry": {
        "type": "Point",
        "coordinates": [
          -84.34414766845,
          33.733974774048
        ]
      }
    },
    {
      "type": "Feature",
      "properties": {
        "record": "BA-202603926",
        "address": "277 MURRAY HILL AVE NE, ATLANTA GA 30317",
        "status": "ACA Pending",
        "date": "08/12/2026",
        "description": null,
        "owner": null,
        "tree_dbh": "6",
        "tree_location": "Right side of House",
        "reason_removal": "Dying tree",
        "tree_description": "close to the fence on the Right side of the houseReason for Removal:Dying treeComments:\nplease come around from the left side of the property it is open\n\t\t\n\t\t\n\t\t\tTree number:2Species:HardwoodTree Size (DBH):7Tree location:Right side of HouseDescription of Tree:close to the fence on the right side of the house,Reason for Removal:Dying treeComments:please come around from the left side of the property it is open\n\t\t\n\t\n\t\n                                \n                            \n                        \n                    \n                        \n                            \n                                \n                                    \n                                        \n                                         Parcel Information\n                                \n                            \n                            \n                                \n                                    \n\t\tParcel Number:15 212 02 166 *Block:--Lot:--Subdivision:--",
        "tree_number": "1",
        "species": "Hardwood"
      },
      "geometry": {
        "type": "Point",
        "coordinates": [
          -84.316152476748,
          33.760969132898
        ]
      }
    },
    {
      "type": "Feature",
      "properties": {
        "record": "BA-202603932",
        "address": "3229 ARDEN RD NW, ATLANTA GA 30305",
        "status": "ACA Pending",
        "date": "08/12/2026",
        "description": null,
        "owner": "Jeffrey Mitchell",
        "tree_dbh": "34",
        "tree_location": "Back of left of property",
        "reason_removal": "Significant cavity/area of decay",
        "tree_description": "Appears to be a 34 inch wateroak.  It is big and in bad shapeReason for Removal:Significant cavity/area of decayComments:I emailed Patrick Rodgers and he gave approval for immediate removal based for imminent danger based on condition after a huge limb fell onto my neighbors property.  \n\t\t\n\t\n\t\n                                \n                            \n                        \n                    \n                        \n                            \n                                \n                                    \n                                        \n                                         Parcel Information\n                                \n                            \n                            \n                                \n                                    \n\t\tParcel Number:17 01140002045 *Block:--Lot:--Subdivision:--",
        "tree_number": "0",
        "species": "Hardwood Wateroak"
      },
      "geometry": {
        "type": "Point",
        "coordinates": [
          -84.397736798577,
          33.842160219769
        ]
      }
    },
    {
      "type": "Feature",
      "properties": {
        "record": "BA-202603910",
        "address": "170 BOULEVARD SE, ATLANTA GA 30312",
        "status": "Accepted",
        "date": "08/12/2026",
        "description": null,
        "owner": "F C M II ASSOCIATES",
        "tree_dbh": "20",
        "tree_location": "parking lot near Building A",
        "reason_removal": "Dying tree",
        "tree_description": "20\" Riverbirch, multi trunk, located parking lot near Building A, Dying, DecliningReason for Removal:Dying treeComments:20\" Riverbirch, multi trunk, located parking lot near Building A, Dying, Declining\n\t\t\n\t\n\t\n                                \n                            \n                        \n                    \n                        \n                            \n                                \n                                    \n                                        \n                                         Parcel Information\n                                \n                            \n                            \n                                \n                                    \n\t\tParcel Number:14 0045  LL006 *Block:--Lot:--Subdivision:--",
        "tree_number": "1",
        "species": "Riverbirch"
      },
      "geometry": {
        "type": "Point",
        "coordinates": [
          -84.368992452025,
          33.748712521683
        ]
      }
    },
    {
      "type": "Feature",
      "properties": {
        "record": "BA-202603923",
        "address": "958 EAST ROCK SPRINGS RD NE, ATLANTA GA 30306",
        "status": "Accepted",
        "date": "08/12/2026",
        "description": null,
        "owner": "Kristen Sherwin",
        "tree_dbh": "34",
        "tree_location": "Backyard close to porch",
        "reason_removal": "Significant cavity/area of decay",
        "tree_description": "causing foundation damage",
        "tree_number": "1",
        "species": "Lily Magnolia"
      },
      "geometry": {
        "type": "Point",
        "coordinates": [
          -84.355844198537,
          33.797412104308
        ]
      }
    },
    {
      "type": "Feature",
      "properties": {
        "record": "BA-202603916",
        "address": "4580 EAST CONWAY DR NW, ATLANTA GA 30327",
        "status": "Accepted",
        "date": "08/12/2026",
        "description": null,
        "owner": null,
        "tree_dbh": "48",
        "tree_location": "rear yard",
        "reason_removal": "Dying tree",
        "tree_description": "Tree 9 is a 48-inch Southern Red Oak exhibiting severe decline. The upper canopy displays severe thinning, tip dieback, and excessive epicormic sprout growth along scaffold limbs. This type of sprout growth is commonly associated with decline of the root system where the tree attempts to regenerate foliage in response to canopy stress and loss of vascular function. Wounding was observed along the west buttress root crown area. Sounding tests produced highly resonant hollow tones indicating probable internal decay and hollow areas within the trunk base. These conditions are commonly observed in declining Southern Red Oaks exhibiting root loss, trunk decay, and advanced structural deterioration. The tree is considered to be in poor health and poor structural condition and is recommended to be classified as Dead, Dying, and Hazardous (DDH). Removal is strongly recommended.Reason for Removal:Significant cavity/area of decay\n\t\t\n\t\t\n\t\t\tTree number:11Species:Southern red OakTree Size (DBH):28Tree location:rear yardDescription of Tree:Tree 11 is in poor condition with severe canopy dieback and multiple declining scaffold limbs. Significant ivy growth was present throughout the trunk and canopy. The canopy decline indicates probable root loss and chronic decline progression. Due to the advanced decline and poor condition, removal is recommended.Reason for Removal:Dying tree\n\t\t\n\t\t\n\t\t\tTree number:12Species:Loblolly PineTree Size (DBH):15Tree location:Rear YardDescription of Tree:Tree 12 exhibits a 10-degree lean toward the southwest with minor soil heaving. Overall canopy and structural condition are considered fair. Due to the existing lean, removal recommended. Reason for Removal:Uncorrectable defect\n\t\t\n\t\t\n\t\t\tTree number:17Species:Southern Red OakTree Size (DBH):18Tree location:Rear YardDescription of Tree:Tree 17 exhibits severe decay and cavity formation at the base of the trunk on the east side. A vertical crack exists adjacent to the cavity area. Decay extends upward along the trunk to approximately 10 feet with additional decay pockets and wound response areas observed near 25 feet in height. This tree is considered high risk for structural failure and should be removedReason for Removal:Significant cavity/area of decay\n\t\t\n\t\t\n\t\t\tTree number:18Species:Southern Red OakTree Size (DBH):22Tree location:rear yardDescription of Tree:Tree 18 exhibits a significant canker on the southwest side of the trunk. Sounding tests indicate severe internal decay extending into the buttress root crown and trunk tissues surrounding the wound area. The canopy contains several declining scaffold limbs with dieback and decay. This tree is considered high risk for failure and removal is recommendedReason for Removal:Dying tree\n\t\t\n\t\n\t\n                                \n                            \n                        \n                    \n                        \n                            \n                                \n                                    \n                                        \n                                         Parcel Information\n                                \n                            \n                            \n                                \n                                    \n\t\tParcel Number:17 01370002010 *Block:--Lot:--Subdivision:--",
        "tree_number": "9",
        "species": "Loblolly Pine"
      },
      "geometry": {
        "type": "Point",
        "coordinates": [
          -84.402172799401,
          33.880413273699
        ]
      }
    },
    {
      "type": "Feature",
      "properties": {
        "record": "BA-202603907",
        "address": "141 THE PRADO NE, ATLANTA GA 30309",
        "status": "Accepted",
        "date": "08/12/2026",
        "description": null,
        "owner": "Susan Dimmick",
        "tree_dbh": "14",
        "tree_location": "Backyard, left side, at end of driveway",
        "reason_removal": "Dying tree",
        "tree_description": "Tree has lost 25% of its canopy in the last two years. It has been under a soil care plan, but the condition continues to worsen. Tree is in too small an area to succeed, as it has a driveway on one side and a walkway on the other.Reason for Removal:Uncorrectable defect\n\t\t\n\t\t\n\t\t\tTree number:2Species:MapleTree Size (DBH):18Tree location:Backyard, left side, at end of drivewayDescription of Tree:50% dead canopy, decay throughout.Reason for Removal:Dying tree\n\t\t\n\t\n\t\n                                \n                            \n                        \n                    \n                        \n                            \n                                \n                                    \n                                        \n                                         Parcel Information\n                                \n                            \n                            \n                                \n                                    \n\t\tParcel Number:17 01050005043 *Block:--Lot:--Subdivision:--",
        "tree_number": "1",
        "species": "Paperbark Maple"
      },
      "geometry": {
        "type": "Point",
        "coordinates": [
          -84.378533083954,
          33.793838558139
        ]
      }
    },
    {
      "type": "Feature",
      "properties": {
        "record": "BA-202603914",
        "address": "3117 PEACHTREE DR NE, ATLANTA GA 30305",
        "status": "Accepted",
        "date": "08/12/2026",
        "description": null,
        "owner": null,
        "tree_dbh": "43",
        "tree_location": "rear right",
        "reason_removal": "Significant cavity/area of decay",
        "tree_description": "* Remove 43” DBH Water Oak – Rear right of Property",
        "tree_number": "1",
        "species": "oak"
      },
      "geometry": {
        "type": "Point",
        "coordinates": [
          -84.364412847359,
          33.839988138697
        ]
      }
    },
    {
      "type": "Feature",
      "properties": {
        "record": "26TMP-051914",
        "address": "712 GASKILL ST SE, ATLANTA GA 30316",
        "status": "",
        "date": "08/12/2026",
        "description": null,
        "owner": null,
        "tree_dbh": null,
        "tree_location": null,
        "reason_removal": null,
        "tree_description": null,
        "tree_number": null,
        "species": null
      },
      "geometry": {
        "type": "Point",
        "coordinates": [
          -84.364420214314,
          33.748283859583
        ]
      }
    },
    {
      "type": "Feature",
      "properties": {
        "record": "BA-202603918",
        "address": "674 TIMM VALLEY RD NE, ATLANTA GA 30305",
        "status": "Accepted",
        "date": "08/12/2026",
        "description": null,
        "owner": null,
        "tree_dbh": null,
        "tree_location": null,
        "reason_removal": null,
        "tree_description": null,
        "tree_number": null,
        "species": null
      },
      "geometry": {
        "type": "Point",
        "coordinates": [
          -84.363519121126,
          33.83651928432
        ]
      }
    },
    {
      "type": "Feature",
      "properties": {
        "record": "BA-202603906",
        "address": "2249 BEECHER RD SW, ATLANTA GA 30311",
        "status": "Accepted",
        "date": "08/12/2026",
        "description": null,
        "owner": "Sarah and Joran Demeunynck",
        "tree_dbh": "40",
        "tree_location": "Rear right of property",
        "reason_removal": "Dead tree",
        "tree_description": "undesirable species, visible decay/mushrooms near baseReason for Removal:Significant cavity/area of decayComments:Ribbon\n\t\t\n\t\t\n\t\t\tTree number:2Species:Tulip PoplarTree Size (DBH):12Tree location:Left side of homeDescription of Tree:significant decay/vascular disease near base from old mechanical injuryReason for Removal:Significant cavity/area of decayComments:Ribbon\n\t\t\n\t\t\n\t\t\tTree number:3Species:Bradford PearTree Size (DBH):7Tree location:Rear right of propertyDescription of Tree:undesirable speciesReason for Removal:Invasive/undesirable treeComments:Ribbon\n\t\t\n\t\t\n\t\t\tTree number:4Species:BoxelderTree Size (DBH):10Tree location:Rear right of propertyDescription of Tree:significant Ambrosia beetle borer damage near baseReason for Removal:DiseasedComments:Ribbon\n\t\t\n\t\t\n\t\t\tTree number:5Species:BoxelderTree Size (DBH):12Tree location:Rear right corner of propertyDescription of Tree:DeadReason for Removal:Dead treeComments:Ribbon\n\t\t\n\t\n\t\n                                \n                            \n                        \n                    \n                        \n                            \n                                \n                                    \n                                        \n                                         Parcel Information\n                                \n                            \n                            \n                                \n                                    \n\t\tParcel Number:14 01830001026 *Block:--Lot:--Subdivision:--",
        "tree_number": "1",
        "species": "Bradford Pear"
      },
      "geometry": {
        "type": "Point",
        "coordinates": [
          -84.462607627829,
          33.72799949481
        ]
      }
    },
    {
      "type": "Feature",
      "properties": {
        "record": "BA-202603903",
        "address": "3110 HABERSHAM RD NW, ATLANTA GA 30305",
        "status": "Accepted",
        "date": "08/12/2026",
        "description": null,
        "owner": "Craig Lucie",
        "tree_dbh": "18",
        "tree_location": "right side",
        "reason_removal": "Dying tree",
        "tree_description": "Dying Southern Magnolia with beetle infestation.Reason for Removal:Dying tree\n\t\t\n\t\n\t\n                                \n                            \n                        \n                    \n                        \n                            \n                                \n                                    \n                                        \n                                         Parcel Information\n                                \n                            \n                            \n                                \n                                    \n\t\tParcel Number:17 01420001076 *Block:--Lot:--Subdivision:--",
        "tree_number": "1",
        "species": "Southern Magnolia"
      },
      "geometry": {
        "type": "Point",
        "coordinates": [
          -84.397056780293,
          33.839725088045
        ]
      }
    },
    {
      "type": "Feature",
      "properties": {
        "record": "BA-202603925",
        "address": "4107 NORTH BROADLAND RD NW, ATLANTA GA 30342",
        "status": "Accepted",
        "date": "08/12/2026",
        "description": null,
        "owner": "SHEATS FREDERICK B III",
        "tree_dbh": "27",
        "tree_location": "Front Yard",
        "reason_removal": "Other",
        "tree_description": "Leaning towards house, Erosion & failing retaining wall near roots",
        "tree_number": "1",
        "species": "Poplar"
      },
      "geometry": {
        "type": "Point",
        "coordinates": [
          -84.402010536988,
          33.868333535574
        ]
      }
    },
    {
      "type": "Feature",
      "properties": {
        "record": "BA-202603912",
        "address": "804 SHADOWRIDGE DR SE, ATLANTA GA 30316",
        "status": "Accepted",
        "date": "08/12/2026",
        "description": null,
        "owner": "SCOTT WILLIE C",
        "tree_dbh": "25",
        "tree_location": "left side of garage",
        "reason_removal": "Other",
        "tree_description": "25\" Maple, right side front yard, Declining, Canopy diebackReason for Removal:Dying treeComments:25\" Maple, right side front yard, Declining, Canopy dieback\n\t\t\n\t\t\n\t\t\tTree number:2Species:SweetgumTree Size (DBH):12Tree location:right side of garageDescription of Tree:12\" Sweetgum, right side of garage, leaning",
        "tree_number": "1",
        "species": "Maple"
      },
      "geometry": {
        "type": "Point",
        "coordinates": [
          -84.343515361268,
          33.732549259531
        ]
      }
    },
    {
      "type": "Feature",
      "properties": {
        "record": "BA-202603911",
        "address": "10 INMAN CIR NE, ATLANTA GA 30309",
        "status": "Accepted",
        "date": "08/12/2026",
        "description": null,
        "owner": null,
        "tree_dbh": "14",
        "tree_location": "Rear of property",
        "reason_removal": "Dead tree",
        "tree_description": "Dead, ambrosia beetlesReason for Removal:Dead tree\n\t\t\n\t\n\t\n                                \n                            \n                        \n                    \n                        \n                            \n                                \n                                    \n                                        \n                                         Parcel Information\n                                \n                            \n                            \n                                \n                                    \n\t\tParcel Number:17 01050007024 *Block:--Lot:--Subdivision:--",
        "tree_number": "1",
        "species": "Elm"
      },
      "geometry": {
        "type": "Point",
        "coordinates": [
          -84.382976670621,
          33.791884854764
        ]
      }
    },
    {
      "type": "Feature",
      "properties": {
        "record": "BA-202603928",
        "address": "303 PAVILLION ST SE, ATLANTA GA 30315",
        "status": "ACA Pending",
        "date": "08/12/2026",
        "description": null,
        "owner": "KELEIGH MAHN J",
        "tree_dbh": "15",
        "tree_location": "Adjacent to porch in backyard",
        "reason_removal": "Dying tree",
        "tree_description": "Red leaf Maple has started to shed bark on the tree roots, base, and trunk.  2 Large limbs have split and are being supported by the lower branches.Reason for Removal:Dying tree\n\t\t\n\t\n\t\n                                \n                            \n                        \n                    \n                        \n                            \n                                \n                                    \n                                        \n                                         Parcel Information\n                                \n                            \n                            \n                                \n                                    \n\t\tParcel Number:14 00430003002 *Block:--Lot:--Subdivision:--",
        "tree_number": "1",
        "species": "Maple"
      },
      "geometry": {
        "type": "Point",
        "coordinates": [
          -84.374972828466,
          33.735984102182
        ]
      }
    },
    {
      "type": "Feature",
      "properties": {
        "record": "BA-202603908",
        "address": "2204 POLAR ROCK AVE SW, ATLANTA GA 30315",
        "status": "Accepted",
        "date": "08/12/2026",
        "description": null,
        "owner": null,
        "tree_dbh": "30",
        "tree_location": "Backyard",
        "reason_removal": "Diseased",
        "tree_description": null,
        "tree_number": "1",
        "species": "Water Oak Tree"
      },
      "geometry": {
        "type": "Point",
        "coordinates": [
          -84.395910608057,
          33.693624466976
        ]
      }
    },
    {
      "type": "Feature",
      "properties": {
        "record": "BA-202603917",
        "address": "3381 BANKHEAD HWY NW, ATLANTA GA 30331",
        "status": "Accepted",
        "date": "08/12/2026",
        "description": "DDH",
        "owner": null,
        "tree_dbh": null,
        "tree_location": null,
        "reason_removal": null,
        "tree_description": null,
        "tree_number": null,
        "species": null
      },
      "geometry": {
        "type": "Point",
        "coordinates": [
          -84.4979330213,
          33.792200461815
        ]
      }
    },
    {
      "type": "Feature",
      "properties": {
        "record": "BA-202603904",
        "address": "442 CHEROKEE AVE SE, ATLANTA GA 30312",
        "status": "Issued",
        "date": "08/12/2026",
        "description": "39\" Oak actively failing.",
        "owner": null,
        "tree_dbh": null,
        "tree_location": null,
        "reason_removal": null,
        "tree_description": null,
        "tree_number": null,
        "species": null
      },
      "geometry": {
        "type": "Point",
        "coordinates": [
          -84.373297898399,
          33.742502143934
        ]
      }
    }
  ]
}