{
  "type": "FeatureCollection",
  "features": [
    {
      "type": "Feature",
      "properties": {
        "record": "BA-202605135",
        "address": "672 TIMM VALLEY RD NE, ATLANTA GA 30305",
        "status": "ACA Pending",
        "date": "10/03/2026",
        "description": null,
        "owner": "LORENC BARBARA A",
        "tree_dbh": "18",
        "tree_location": "rear center",
        "reason_removal": "Uncorrectable defect",
        "tree_description": "*** Remove the 18-inch DBH pine tree located at the bottom center of the driveway. The tree has a pronounced lean toward the neighboring home, creating a risk of failure onto the residence. Removal is recommended to reduce the potential for property damage.\n(Rear center)Reason for Removal:Uncorrectable defect\n\t\t\n\t\t\n\t\t\tTree number:2Species:poplarTree Size (DBH):30Tree location:rear centerDescription of Tree:Remove the 30-inch DBH poplar. The tree has a pronounced lean toward the neighboring home and extensive crown dieback, with an estimated 40% of the crown already lost. Large limbs have fallen onto the neighboring fence. Given the tree’s condition and proximity to the home and fence, removal is strongly recommended to reduce the risk of further limb or tree failure and property damage.\n(Rear center)Reason for Removal:Uncorrectable defect\n\t\t\n\t\n\t\n                                \n                            \n                        \n                    \n                        \n                            \n                                \n                                    \n                                        \n                                         Parcel Information\n                                \n                            \n                            \n                                \n                                    \n\t\tParcel Number:17 00470005003 *Block:--Lot:--Subdivision:--",
        "tree_number": "1",
        "species": "pine"
      },
      "geometry": {
        "type": "Point",
        "coordinates": [
          -84.363622595627,
          33.836508455596
        ]
      }
    },
    {
      "type": "Feature",
      "properties": {
        "record": "BA-202605137",
        "address": "1116 ROXBORO DR NE, ATLANTA GA 30324",
        "status": "ACA Pending",
        "date": "10/03/2026",
        "description": null,
        "owner": null,
        "tree_dbh": null,
        "tree_location": null,
        "reason_removal": null,
        "tree_description": null,
        "tree_number": null,
        "species": null
      },
      "geometry": {
        "type": "Point",
        "coordinates": [
          -84.35089474115,
          33.838795518233
        ]
      }
    },
    {
      "type": "Feature",
      "properties": {
        "record": "26TMP-063477",
        "address": "3725 ADKINS RD NW, ATLANTA GA 30331",
        "status": "",
        "date": "10/03/2026",
        "description": null,
        "owner": null,
        "tree_dbh": null,
        "tree_location": null,
        "reason_removal": null,
        "tree_description": null,
        "tree_number": null,
        "species": null
      },
      "geometry": {
        "type": "Point",
        "coordinates": [
          -84.509372372252,
          33.773509418848
        ]
      }
    },
    {
      "type": "Feature",
      "properties": {
        "record": "BA-202605134",
        "address": "4521 CLUB VALLEY DR NE, ATLANTA GA 30319",
        "status": "ACA Pending",
        "date": "10/03/2026",
        "description": null,
        "owner": null,
        "tree_dbh": null,
        "tree_location": null,
        "reason_removal": null,
        "tree_description": null,
        "tree_number": null,
        "species": null
      },
      "geometry": {
        "type": "Point",
        "coordinates": [
          -84.352480816325,
          33.878184144796
        ]
      }
    },
    {
      "type": "Feature",
      "properties": {
        "record": "BA-202605136",
        "address": "1842 MARLBROOK DR NE, ATLANTA GA 30307",
        "status": "ACA Pending",
        "date": "10/03/2026",
        "description": null,
        "owner": null,
        "tree_dbh": null,
        "tree_location": null,
        "reason_removal": null,
        "tree_description": null,
        "tree_number": null,
        "species": null
      },
      "geometry": {
        "type": "Point",
        "coordinates": [
          -84.327502576502,
          33.767438503743
        ]
      }
    }
  ]
}