{
  "type": "FeatureCollection",
  "features": [
    {
      "type": "Feature",
      "properties": {
        "record": "BA-202604961",
        "address": "1337 FAIRVIEW RD NE, ATLANTA GA 30306",
        "status": "Accepted",
        "date": "09/25/2026",
        "description": null,
        "owner": "Rich and Carrie Lassiter",
        "tree_dbh": "6",
        "tree_location": "Front yard",
        "reason_removal": "Dead tree",
        "tree_description": "Multi-stem dogwood in front yard, approx 15 ft tall.  Tree is completely dead: no leaves this growing season, bark peeling and splitting at the base, branches are brittle and lichen-coveredReason for Removal:Dead treeComments:Tree died this year and poses a risk of falling toward the sidewalk and street.  \n\t\t\n\t\n\t\n                                \n                            \n                        \n                    \n                        \n                            \n                                \n                                    \n                                        \n                                         Parcel Information\n                                \n                            \n                            \n                                \n                                    \n\t\tParcel Number:15 241 01 137 *Block:--Lot:--Subdivision:--",
        "tree_number": "1",
        "species": "Dogwood"
      },
      "geometry": {
        "type": "Point",
        "coordinates": [
          -84.343454438296,
          33.772695641583
        ]
      }
    },
    {
      "type": "Feature",
      "properties": {
        "record": "BA-202604968",
        "address": "2820 ANDREWS DR NW, ATLANTA GA 30305",
        "status": "Accepted",
        "date": "09/25/2026",
        "description": null,
        "owner": "BAZZLE KENNETH L",
        "tree_dbh": "23",
        "tree_location": "front left",
        "reason_removal": "Uncorrectable defect",
        "tree_description": "Tree #1 - 23\" DBH post oak tree at the front of the property. The tree has an exaggerated lean in excess of 20 degrees in the direction of the street. Targets include passing cars, pedestrians, and utility lines.Reason for Removal:Uncorrectable defect\n\t\t\n\t\t\n\t\t\tTree number:2Species:loblolly pineTree Size (DBH):32Tree location:front yardDescription of Tree:Tree #2 - 32\" DBH pine in front yard. Canker visible ~60 feet up main stem on the side facing the house. Additionally, ~6 foot long canker visible on the left stem above bifurcation.Reason for Removal:Significant cavity/area of decay\n\t\t\n\t\t\n\t\t\tTree number:3Species:American HollyTree Size (DBH):16Tree location:front leftDescription of Tree:16\" dbh American holly tree at front left with co-dominant stems and poor form.Reason for Removal:Uncorrectable defect\n\t\t\n\t\t\n\t\t\tTree number:4Species:hornbeamTree Size (DBH):16Tree location:front rightDescription of Tree:16\" DBH hornbeam at front right with significant area of included bark and bifurcation.Reason for Removal:Uncorrectable defect\n\t\t\n\t\n\t\n                                \n                            \n                        \n                    \n                        \n                            \n                                \n                                    \n                                        \n                                         Parcel Information\n                                \n                            \n                            \n                                \n                                    \n\t\tParcel Number:17 01130007006 *Block:--Lot:--Subdivision:--",
        "tree_number": "1",
        "species": "loblolly pine"
      },
      "geometry": {
        "type": "Point",
        "coordinates": [
          -84.388661109511,
          33.83194673223
        ]
      }
    },
    {
      "type": "Feature",
      "properties": {
        "record": "BA-202604960",
        "address": "1235 GRANT ST SE, ATLANTA GA 30315",
        "status": "Accepted",
        "date": "09/25/2026",
        "description": null,
        "owner": null,
        "tree_dbh": "15",
        "tree_location": "BACK YARD",
        "reason_removal": "Dying tree",
        "tree_description": "XLARGE TREE WITH WHOLE IN THE CENTERReason for Removal:Dying tree\n\t\t\n\t\n\t\n                                \n                            \n                        \n                    \n                        \n                            \n                                \n                                    \n                                        \n                                         Parcel Information\n                                \n                            \n                            \n                                \n                                    \n\t\tParcel Number:14 00410001027 *Block:--Lot:--Subdivision:--",
        "tree_number": "1",
        "species": "MAGNIFICENT OAK MAYBE"
      },
      "geometry": {
        "type": "Point",
        "coordinates": [
          -84.37670910625,
          33.720939917154
        ]
      }
    },
    {
      "type": "Feature",
      "properties": {
        "record": "BA-202604966",
        "address": "2832 LENOX RD NE, ATLANTA GA 30324",
        "status": "Accepted",
        "date": "09/25/2026",
        "description": null,
        "owner": null,
        "tree_dbh": "6",
        "tree_location": "onsite",
        "reason_removal": "Other",
        "tree_description": "DDH",
        "tree_number": "35",
        "species": "mimosa"
      },
      "geometry": {
        "type": "Point",
        "coordinates": [
          -84.357146229623,
          33.833197944661
        ]
      }
    },
    {
      "type": "Feature",
      "properties": {
        "record": "BA-202604962",
        "address": "2185 VIRGINIA PL NE, ATLANTA GA 30305",
        "status": "Accepted",
        "date": "09/25/2026",
        "description": null,
        "owner": "Brent Cuddy",
        "tree_dbh": "10",
        "tree_location": "back fence",
        "reason_removal": "Other",
        "tree_description": "Tree is by fence in back cornder and it's top has fallen off in the past aReason for Removal:Uncorrectable defect\n\t\t\n\t\t\n\t\t\tTree number:2Species:box elderTree Size (DBH):14Tree location:by fenceDescription of Tree:trees are back towards fence and on either side of a very tall tree variety I am not sure the type.  These trees are crowding the water oakReason for Removal:Other\n\t\t\n\t\t\n\t\t\tTree number:1Species:unknownTree Size (DBH):16Tree location:back fenceDescription of Tree:This tree is near the water oak and is large and tall.  Want opinion if it is too close to water oakReason for Removal:Other\n\t\t\n\t\n\t\n                                \n                            \n                        \n                    \n                        \n                            \n                                \n                                    \n                                        \n                                         Parcel Information\n                                \n                            \n                            \n                                \n                                    \n\t\tParcel Number:17 01020013032 *Block:--Lot:--Subdivision:--",
        "tree_number": "1",
        "species": "cherry laurel"
      },
      "geometry": {
        "type": "Point",
        "coordinates": [
          -84.381624177756,
          33.814545677139
        ]
      }
    },
    {
      "type": "Feature",
      "properties": {
        "record": "BA-202604958",
        "address": "1282 WESLEY PL NW, ATLANTA GA 30327",
        "status": "Accepted",
        "date": "09/25/2026",
        "description": null,
        "owner": null,
        "tree_dbh": "32",
        "tree_location": "back right",
        "reason_removal": "Dying tree",
        "tree_description": "This tree has approximately 40% live canopy. Signs of root rot. Reason for Removal:Dying tree\n\t\t\n\t\n\t\n                                \n                            \n                        \n                    \n                        \n                            \n                                \n                                    \n                                        \n                                         Parcel Information\n                                \n                            \n                            \n                                \n                                    \n\t\tParcel Number:17 0196  LL191 *Block:--Lot:--Subdivision:--",
        "tree_number": "1",
        "species": "WATER oak"
      },
      "geometry": {
        "type": "Point",
        "coordinates": [
          -84.430568892491,
          33.835589253036
        ]
      }
    },
    {
      "type": "Feature",
      "properties": {
        "record": "BA-202604945",
        "address": "3082 ARGONNE DR NW, ATLANTA GA 30305",
        "status": "Accepted",
        "date": "09/25/2026",
        "description": null,
        "owner": "BIRD JEAN RODDEY",
        "tree_dbh": "27",
        "tree_location": "Rear left",
        "reason_removal": "Diseased",
        "tree_description": "Kretzschmaria Deusta on the root flareReason for Removal:Diseased\n\t\t\n\t\n\t\n                                \n                            \n                        \n                    \n                        \n                            \n                                \n                                    \n                                        \n                                         Parcel Information\n                                \n                            \n                            \n                                \n                                    \n\t\tParcel Number:17 01420003012 *Block:--Lot:--Subdivision:--",
        "tree_number": "1",
        "species": "Maple"
      },
      "geometry": {
        "type": "Point",
        "coordinates": [
          -84.407297659767,
          33.839511736529
        ]
      }
    },
    {
      "type": "Feature",
      "properties": {
        "record": "BA-202604943",
        "address": "341 RHINEHILL RD SE, ATLANTA GA 30315",
        "status": "Accepted",
        "date": "09/25/2026",
        "description": null,
        "owner": "HAMPTON PATRICIA ANN",
        "tree_dbh": "30",
        "tree_location": "front of the house",
        "reason_removal": "Dying tree",
        "tree_description": "dying sweet gum tree with a lot of dead branches on topReason for Removal:Dying tree\n\t\t\n\t\n\t\n                                \n                            \n                        \n                    \n                        \n                            \n                                \n                                    \n                                        \n                                         Parcel Information\n                                \n                            \n                            \n                                \n                                    \n\t\tParcel Number:14 00380009078 *Block:--Lot:--Subdivision:--",
        "tree_number": "1",
        "species": "sweetgum"
      },
      "geometry": {
        "type": "Point",
        "coordinates": [
          -84.377974801766,
          33.69151648829
        ]
      }
    },
    {
      "type": "Feature",
      "properties": {
        "record": "BA-202604974",
        "address": "1936 SYLVAN RIDGE DR SW, ATLANTA GA 30310",
        "status": "ACA Pending",
        "date": "09/25/2026",
        "description": null,
        "owner": "Taylor April",
        "tree_dbh": "30",
        "tree_location": "backyard near carport",
        "reason_removal": "Diseased",
        "tree_description": "Old pecan tree that I have tried to keep well but noticed it wasn't well and had 4 people look at it to determine best course.  I the meanwhile, I have planted 4 saplings on my property Reason for Removal:DiseasedComments:Tree is leaning now and 3 large limbs have fallen in the last 3 months.\n\t\t\n\t\n\t\n                                \n                            \n                        \n                    \n                        \n                            \n                                \n                                    \n                                        \n                                         Parcel Information\n                                \n                            \n                            \n                                \n                                    \n\t\tParcel Number:14 01220010063 *Block:--Lot:--Subdivision:--",
        "tree_number": "1",
        "species": "pecan"
      },
      "geometry": {
        "type": "Point",
        "coordinates": [
          -84.419998197499,
          33.702775907517
        ]
      }
    },
    {
      "type": "Feature",
      "properties": {
        "record": "BA-202604963",
        "address": "491 HARDENDORF AVE NE, ATLANTA GA 30307",
        "status": "Accepted",
        "date": "09/25/2026",
        "description": null,
        "owner": "PRESSMAN ADAM OR PRESSMAN MELISSA",
        "tree_dbh": "18",
        "tree_location": "right side",
        "reason_removal": "Uncorrectable defect",
        "tree_description": "18in Water oak with an extreme lopsided canopy over roof of an occupied structure.Reason for Removal:Uncorrectable defect\n\t\t\n\t\n\t\n                                \n                            \n                        \n                    \n                        \n                            \n                                \n                                    \n                                        \n                                         Parcel Information\n                                \n                            \n                            \n                                \n                                    \n\t\tParcel Number:15 239 01 129 *Block:--Lot:--Subdivision:--",
        "tree_number": "1",
        "species": "Water oak"
      },
      "geometry": {
        "type": "Point",
        "coordinates": [
          -84.331768198585,
          33.767755750405
        ]
      }
    },
    {
      "type": "Feature",
      "properties": {
        "record": "BA-202604944",
        "address": "1070 KATHERWOOD DR SW, ATLANTA GA 30310",
        "status": "Accepted",
        "date": "09/25/2026",
        "description": null,
        "owner": "LaShonda Jones",
        "tree_dbh": "8",
        "tree_location": "front yard",
        "reason_removal": "Dead tree",
        "tree_description": null,
        "tree_number": "1",
        "species": "oak"
      },
      "geometry": {
        "type": "Point",
        "coordinates": [
          -84.423342906988,
          33.70997387844
        ]
      }
    },
    {
      "type": "Feature",
      "properties": {
        "record": "BA-202604947",
        "address": "250 RICHARDSON ST SW, ATLANTA GA 30312",
        "status": "Accepted",
        "date": "09/25/2026",
        "description": null,
        "owner": null,
        "tree_dbh": null,
        "tree_location": null,
        "reason_removal": null,
        "tree_description": null,
        "tree_number": null,
        "species": null
      },
      "geometry": {
        "type": "Point",
        "coordinates": [
          -84.395975741647,
          33.740685169982
        ]
      }
    },
    {
      "type": "Feature",
      "properties": {
        "record": "BA-202604977",
        "address": "1870 AVON AVE SW, ATLANTA GA 30311",
        "status": "ACA Pending",
        "date": "09/25/2026",
        "description": null,
        "owner": null,
        "tree_dbh": null,
        "tree_location": null,
        "reason_removal": null,
        "tree_description": null,
        "tree_number": null,
        "species": null
      },
      "geometry": {
        "type": "Point",
        "coordinates": [
          -84.448830394106,
          33.722486277901
        ]
      }
    },
    {
      "type": "Feature",
      "properties": {
        "record": "BA-202604965",
        "address": "547 SPRING VALLEY RD NW, ATLANTA GA 30318",
        "status": "Accepted",
        "date": "09/25/2026",
        "description": null,
        "owner": null,
        "tree_dbh": null,
        "tree_location": null,
        "reason_removal": null,
        "tree_description": null,
        "tree_number": null,
        "species": null
      },
      "geometry": {
        "type": "Point",
        "coordinates": [
          -84.406305180579,
          33.809199694309
        ]
      }
    },
    {
      "type": "Feature",
      "properties": {
        "record": "26TMP-063720",
        "address": "1838 LAKEWOOD TER SE, ATLANTA GA 30315",
        "status": "",
        "date": "09/25/2026",
        "description": null,
        "owner": null,
        "tree_dbh": null,
        "tree_location": null,
        "reason_removal": null,
        "tree_description": null,
        "tree_number": null,
        "species": null
      },
      "geometry": {
        "type": "Point",
        "coordinates": [
          -84.379605515951,
          33.703714127447
        ]
      }
    },
    {
      "type": "Feature",
      "properties": {
        "record": "BA-202604975",
        "address": "1278 CAMPBELLTON RD SW, ATLANTA GA 30310",
        "status": "ACA Pending",
        "date": "09/25/2026",
        "description": null,
        "owner": "ACM INVESTMENT GROUP",
        "tree_dbh": "35",
        "tree_location": "BACK RIGHT",
        "reason_removal": "Dying tree",
        "tree_description": "COVERED IN IVY Reason for Removal:Dying tree\n\t\t\n\t\n\t\n                                \n                            \n                        \n                    \n                        \n                            \n                                \n                                    \n                                        \n                                         Parcel Information\n                                \n                            \n                            \n                                \n                                    \n\t\tParcel Number:14 01370007034 *Block:--Lot:--Subdivision:--",
        "tree_number": "1",
        "species": "OAK"
      },
      "geometry": {
        "type": "Point",
        "coordinates": [
          -84.42988096449,
          33.716456275071
        ]
      }
    },
    {
      "type": "Feature",
      "properties": {
        "record": "BA-202604954",
        "address": "1890 WILDWOOD PL NE, ATLANTA GA 30324",
        "status": "Accepted",
        "date": "09/25/2026",
        "description": null,
        "owner": null,
        "tree_dbh": "18",
        "tree_location": "backyard, center",
        "reason_removal": "Dying tree",
        "tree_description": "pine, dying. Reason for Removal:Dying treeComments:we had logan from atlantatreeinspection LLC out to confirm this.\n\t\t\n\t\n\t\n                                \n                            \n                        \n                    \n                        \n                            \n                                \n                                    \n                                        \n                                         Parcel Information\n                                \n                            \n                            \n                                \n                                    \n\t\tParcel Number:17 00500010058 *Block:--Lot:--Subdivision:--",
        "tree_number": "1",
        "species": "pine"
      },
      "geometry": {
        "type": "Point",
        "coordinates": [
          -84.362805224298,
          33.805400563632
        ]
      }
    },
    {
      "type": "Feature",
      "properties": {
        "record": "BA-202604973",
        "address": "1051 SOMERSET DR NW, ATLANTA GA 30327",
        "status": "ACA Pending",
        "date": "09/25/2026",
        "description": null,
        "owner": null,
        "tree_dbh": "32",
        "tree_location": "front left",
        "reason_removal": "Uncorrectable defect",
        "tree_description": "One (1) 32\" diameter loblolly pine tree in the front yard. The tree has an exaggerated lean in the direction of the street. The tree begins to lean ~20 degrees 25 feet up the main stem and degree of lean progresses higher up the main stem. It appears as though the root plate is beginning to lift on the back (tension) side of the tree and there is delineation in the soil around the lifting root plate. Additionally, there are numerous visible cankers on the main stem of the trunk on the side facing the street, as captured in photos. Reason for Removal:Uncorrectable defect\n\t\t\n\t\n\t\n                                \n                            \n                        \n                    \n                        \n                            \n                                \n                                    \n                                        \n                                         Parcel Information\n                                \n                            \n                            \n                                \n                                    \n\t\tParcel Number:17 0178  LL057 *Block:--Lot:--Subdivision:--",
        "tree_number": "1",
        "species": "pine"
      },
      "geometry": {
        "type": "Point",
        "coordinates": [
          -84.420709774357,
          33.877465401713
        ]
      }
    },
    {
      "type": "Feature",
      "properties": {
        "record": "BA-202604964",
        "address": "1899 PENELOPE RD NW, ATLANTA GA 30314",
        "status": "Accepted",
        "date": "09/25/2026",
        "description": null,
        "owner": "OSBY ELON B",
        "tree_dbh": "100",
        "tree_location": "Back yard",
        "reason_removal": "Diseased",
        "tree_description": "Tree is twisted and leaning.Reason for Removal:Dying treeComments:I don't know the size of the tree.\n\t\t\n\t\t\n\t\t\tTree number:5Species:OakTree Size (DBH):100Tree location:Back yardReason for Removal:Dying treeComments:I don't know the size of the tree.\n\t\t\n\t\t\n\t\t\tTree number:6Species:OakTree Size (DBH):100Tree location:Back yardReason for Removal:Diseased\n\t\t\n\t\n\t\n                                \n                            \n                        \n                    \n                        \n                            \n                                \n                                    \n                                        \n                                         Parcel Information\n                                \n                            \n                            \n                                \n                                    \n\t\tParcel Number:14 01730010091 *Block:--Lot:--Subdivision:--",
        "tree_number": "1",
        "species": "Oak"
      },
      "geometry": {
        "type": "Point",
        "coordinates": [
          -84.449728203938,
          33.75391657844
        ]
      }
    },
    {
      "type": "Feature",
      "properties": {
        "record": "BA-202604949",
        "address": "1138 BOOKER AVE SW, ATLANTA GA 30310",
        "status": "Accepted",
        "date": "09/25/2026",
        "description": null,
        "owner": "SIMS EDDIE L",
        "tree_dbh": "41",
        "tree_location": "left side of the property",
        "reason_removal": "Dying tree",
        "tree_description": "oak tree covered with ivy and cavities on the trunk on the left side of the propertyReason for Removal:Dying tree\n\t\t\n\t\n\t\n                                \n                            \n                        \n                    \n                        \n                            \n                                \n                                    \n                                        \n                                         Parcel Information\n                                \n                            \n                            \n                                \n                                    \n\t\tParcel Number:14 00740008071 *Block:--Lot:--Subdivision:--",
        "tree_number": "1",
        "species": "Oak"
      },
      "geometry": {
        "type": "Point",
        "coordinates": [
          -84.397532180527,
          33.723365952575
        ]
      }
    },
    {
      "type": "Feature",
      "properties": {
        "record": "BA-202604972",
        "address": "895 SOMERSET DR NW, ATLANTA GA 0",
        "status": "ACA Pending",
        "date": "09/25/2026",
        "description": null,
        "owner": null,
        "tree_dbh": "17",
        "tree_location": "front right side",
        "reason_removal": "Significant cavity/area of decay",
        "tree_description": "17\" hickory tree in the front yard. Tree appears dead.Reason for Removal:Dead tree\n\t\t\n\t\t\n\t\t\tTree number:2Species:tulip poplarTree Size (DBH):12Tree location:front left of drivewayDescription of Tree:Tulip poplar in the front yard, ~12\" in diameter, has a ~3 foot area of decay on the main stem.Reason for Removal:Significant cavity/area of decay\n\t\t\n\t\t\n\t\t\tTree number:3Species:BeechTree Size (DBH):27Tree location:front right sideDescription of Tree:27\" diameter beech tree at the front right side of the driveway. Tree has a significant cavity at the base of the tree.Reason for Removal:Significant cavity/area of decay\n\t\t\n\t\n\t\n                                \n                            \n                        \n                    \n                        \n                            \n                                \n                                    \n                                        \n                                         Parcel Information\n                                \n                            \n                            \n                                \n                                    \n\t\tParcel Number:17 01610002035 *Block:--Lot:--Subdivision:--",
        "tree_number": "1",
        "species": "hickory"
      },
      "geometry": {
        "type": "Point",
        "coordinates": [
          -84.417291428316,
          33.877532085703
        ]
      }
    },
    {
      "type": "Feature",
      "properties": {
        "record": "BA-202604976",
        "address": "857 EUCLID AVE NE, ATLANTA GA 30307",
        "status": "ACA Pending",
        "date": "09/25/2026",
        "description": null,
        "owner": "ALFONSO JOSEPH M",
        "tree_dbh": "22",
        "tree_location": "located at the front left of the home.",
        "reason_removal": "Uncorrectable defect",
        "tree_description": "This tree is severely impacting the foundation and pathwalk/driveway. \nwithin 5 feet of foundationReason for Removal:Uncorrectable defect\n\t\t\n\t\n\t\n                                \n                            \n                        \n                    \n                        \n                            \n                                \n                                    \n                                        \n                                         Parcel Information\n                                \n                            \n                            \n                                \n                                    \n\t\tParcel Number:14 00140010002 *Block:--Lot:--Subdivision:--",
        "tree_number": "1",
        "species": "sugar maple"
      },
      "geometry": {
        "type": "Point",
        "coordinates": [
          -84.358827278964,
          33.756388139752
        ]
      }
    },
    {
      "type": "Feature",
      "properties": {
        "record": "BA-202604970",
        "address": "312 HOME PARK AVE NW, ATLANTA GA 30318",
        "status": "Accepted",
        "date": "09/25/2026",
        "description": null,
        "owner": "GRIFFIN LINDA L",
        "tree_dbh": "8",
        "tree_location": "front yard",
        "reason_removal": "Significant cavity/area of decay",
        "tree_description": "tree appears dead.Reason for Removal:Dead tree\n\t\t\n\t\t\n\t\t\tTree number:2Species:dogwoodTree Size (DBH):10Tree location:front yardDescription of Tree:10\" DBH dogwood tree in the front yard. The tree has a significant cavity/area of decay on the main stem.Reason for Removal:Significant cavity/area of decay\n\t\t\n\t\n\t\n                                \n                            \n                        \n                    \n                        \n                            \n                                \n                                    \n                                        \n                                         Parcel Information\n                                \n                            \n                            \n                                \n                                    \n\t\tParcel Number:17 01070002024 *Block:--Lot:--Subdivision:--",
        "tree_number": "1",
        "species": "dogwood"
      },
      "geometry": {
        "type": "Point",
        "coordinates": [
          -84.39749361405,
          33.782386914323
        ]
      }
    },
    {
      "type": "Feature",
      "properties": {
        "record": "BA-202604971",
        "address": "689 EAST PACES FERRY RD NE, ATLANTA GA 30305",
        "status": "ACA Pending",
        "date": "09/25/2026",
        "description": null,
        "owner": null,
        "tree_dbh": "36",
        "tree_location": "right side of driveway",
        "reason_removal": "Other",
        "tree_description": "36\" Water Oak, right side of driveway, encroaching on driveway with substantial root damageReason for Removal:OtherComments:36\" Water Oak, right side of driveway, encroaching on driveway with substantial root damage\n\t\t\n\t\n\t\n                                \n                            \n                        \n                    \n                        \n                            \n                                \n                                    \n                                        \n                                         Parcel Information\n                                \n                            \n                            \n                                \n                                    \n\t\tParcel Number:17 00460007011 *Block:--Lot:--Subdivision:--",
        "tree_number": "1",
        "species": "Water Oak"
      },
      "geometry": {
        "type": "Point",
        "coordinates": [
          -84.365920792956,
          33.840529467295
        ]
      }
    },
    {
      "type": "Feature",
      "properties": {
        "record": "BA-202604946",
        "address": "196 MONTGOMERY FERRY DR NE, ATLANTA GA 30309",
        "status": "Accepted",
        "date": "09/25/2026",
        "description": null,
        "owner": "ANSLEY GOLF CLUB",
        "tree_dbh": "30",
        "tree_location": "near 2 fairway",
        "reason_removal": "Dead tree",
        "tree_description": "dead treeReason for Removal:Dead tree\n\t\t\n\t\n\t\n                                \n                            \n                        \n                    \n                        \n                            \n                                \n                                    \n                                        \n                                         Parcel Information\n                                \n                            \n                            \n                                \n                                    \n\t\tParcel Number:17 0056  LL001 *Block:--Lot:--Subdivision:--",
        "tree_number": "1",
        "species": "oak"
      },
      "geometry": {
        "type": "Point",
        "coordinates": [
          -84.375375249922,
          33.800294415488
        ]
      }
    },
    {
      "type": "Feature",
      "properties": {
        "record": "BA-202604969",
        "address": "1645 ADAMS DR SW, ATLANTA GA 30311",
        "status": "Accepted",
        "date": "09/25/2026",
        "description": "DDH",
        "owner": null,
        "tree_dbh": null,
        "tree_location": null,
        "reason_removal": null,
        "tree_description": null,
        "tree_number": null,
        "species": null
      },
      "geometry": {
        "type": "Point",
        "coordinates": [
          -84.486607612584,
          33.710966406224
        ]
      }
    },
    {
      "type": "Feature",
      "properties": {
        "record": "BA-202604967",
        "address": "1880 BAYBERRY DR SW, ATLANTA GA 30311",
        "status": "Accepted",
        "date": "09/25/2026",
        "description": "DDH",
        "owner": null,
        "tree_dbh": null,
        "tree_location": null,
        "reason_removal": null,
        "tree_description": null,
        "tree_number": null,
        "species": null
      },
      "geometry": {
        "type": "Point",
        "coordinates": [
          -84.449036719998,
          33.715907605513
        ]
      }
    },
    {
      "type": "Feature",
      "properties": {
        "record": "BA-202604957",
        "address": "690 UTOY CIR SW, ATLANTA GA 30331",
        "status": "Accepted",
        "date": "09/25/2026",
        "description": "DDH",
        "owner": null,
        "tree_dbh": null,
        "tree_location": null,
        "reason_removal": null,
        "tree_description": null,
        "tree_number": null,
        "species": null
      },
      "geometry": {
        "type": "Point",
        "coordinates": [
          -84.524368814095,
          33.74317484795
        ]
      }
    },
    {
      "type": "Feature",
      "properties": {
        "record": "BA-202604953",
        "address": "2738 ARBOR AVE SE, ATLANTA GA 30317",
        "status": "Accepted",
        "date": "09/25/2026",
        "description": "DDH",
        "owner": null,
        "tree_dbh": null,
        "tree_location": null,
        "reason_removal": null,
        "tree_description": null,
        "tree_number": null,
        "species": null
      },
      "geometry": {
        "type": "Point",
        "coordinates": [
          -84.297564429262,
          33.750299546851
        ]
      }
    },
    {
      "type": "Feature",
      "properties": {
        "record": "BA-202604952",
        "address": "3288 KINGSDALE DR SW, ATLANTA GA 00000",
        "status": "Accepted",
        "date": "09/25/2026",
        "description": "DDH",
        "owner": null,
        "tree_dbh": null,
        "tree_location": null,
        "reason_removal": null,
        "tree_description": null,
        "tree_number": null,
        "species": null
      },
      "geometry": {
        "type": "Point",
        "coordinates": [
          -84.494525318435,
          33.722255557918
        ]
      }
    }
  ]
}