{
  "type": "FeatureCollection",
  "features": [
    {
      "type": "Feature",
      "properties": {
        "record": "BA-202605199",
        "address": "1092 HAWTHORNE ST NE, ATLANTA GA 30307",
        "status": "ACA Pending",
        "date": "10/06/2026",
        "description": null,
        "owner": "RILEY RAY N",
        "tree_dbh": "49",
        "tree_location": "Back left along Walthall driveway",
        "reason_removal": "Uncorrectable defect",
        "tree_description": "Some damage at base/trunk, unbalanced canopy from prior large limb failure and electrical clearance pruningReason for Removal:Uncorrectable defectComments:Orange paint\n\t\t\n\t\n\t\n                                \n                            \n                        \n                    \n                        \n                            \n                                \n                                    \n                                        \n                                         Parcel Information\n                                \n                            \n                            \n                                \n                                    \n\t\tParcel Number:14 00140014057 *Block:--Lot:--Subdivision:--",
        "tree_number": "1",
        "species": "Red Oak"
      },
      "geometry": {
        "type": "Point",
        "coordinates": [
          -84.351291257529,
          33.754667858792
        ]
      }
    },
    {
      "type": "Feature",
      "properties": {
        "record": "BA-202605210",
        "address": "105 DRUID CIR NE, ATLANTA GA 30307",
        "status": "ACA Pending",
        "date": "10/06/2026",
        "description": null,
        "owner": null,
        "tree_dbh": "20",
        "tree_location": "behind carport",
        "reason_removal": "Other",
        "tree_description": "20\" Sweetgum, left side, owner feels tree is hazardousReason for Removal:OtherComments:20\" Sweetgum, left side, owner feels tree is hazardous\n\t\t\n\t\t\n\t\t\tTree number:2Species:PoplarTree Size (DBH):25Tree location:behind carportDescription of Tree:25\" Poplar, behind carport, owner feels tree is hazardousReason for Removal:OtherComments:25\" Poplar, behind carport, owner feels tree is hazardous\n\t\t\n\t\n\t\n                                \n                            \n                        \n                    \n                        \n                            \n                                \n                                    \n                                        \n                                         Parcel Information\n                                \n                            \n                            \n                                \n                                    \n\t\tParcel Number:14 00140004054 *Block:--Lot:--Subdivision:--",
        "tree_number": "1",
        "species": "Poplar"
      },
      "geometry": {
        "type": "Point",
        "coordinates": [
          -84.359783659973,
          33.757133966546
        ]
      }
    },
    {
      "type": "Feature",
      "properties": {
        "record": "BA-202605176",
        "address": "217 THE PRADO NE, ATLANTA GA 30309",
        "status": "ACA Pending",
        "date": "10/06/2026",
        "description": null,
        "owner": null,
        "tree_dbh": null,
        "tree_location": null,
        "reason_removal": null,
        "tree_description": null,
        "tree_number": null,
        "species": null
      },
      "geometry": {
        "type": "Point",
        "coordinates": [
          -84.380858139029,
          33.795216578812
        ]
      }
    },
    {
      "type": "Feature",
      "properties": {
        "record": "BA-202605201",
        "address": "1054 CRANE RD NE, ATLANTA GA 30324",
        "status": "ACA Pending",
        "date": "10/06/2026",
        "description": null,
        "owner": null,
        "tree_dbh": null,
        "tree_location": null,
        "reason_removal": null,
        "tree_description": null,
        "tree_number": null,
        "species": null
      },
      "geometry": {
        "type": "Point",
        "coordinates": [
          -84.354365867727,
          33.839748637275
        ]
      }
    },
    {
      "type": "Feature",
      "properties": {
        "record": "BA-202605204",
        "address": "254 SPRINGDALE DR NE, ATLANTA GA 30305",
        "status": "ACA Pending",
        "date": "10/06/2026",
        "description": null,
        "owner": null,
        "tree_dbh": null,
        "tree_location": null,
        "reason_removal": null,
        "tree_description": null,
        "tree_number": null,
        "species": null
      },
      "geometry": {
        "type": "Point",
        "coordinates": [
          -84.378902068785,
          33.821822439782
        ]
      }
    },
    {
      "type": "Feature",
      "properties": {
        "record": "26TMP-066057",
        "address": "2791 VALLEY HEART DR NW, ATLANTA GA 30318",
        "status": "",
        "date": "10/06/2026",
        "description": null,
        "owner": null,
        "tree_dbh": null,
        "tree_location": null,
        "reason_removal": null,
        "tree_description": null,
        "tree_number": null,
        "species": null
      },
      "geometry": {
        "type": "Point",
        "coordinates": [
          -84.479581346045,
          33.762880302534
        ]
      }
    },
    {
      "type": "Feature",
      "properties": {
        "record": "BA-202605206",
        "address": "2875 ELLIOTT CIR NE, ATLANTA GA 30305",
        "status": "ACA Pending",
        "date": "10/06/2026",
        "description": null,
        "owner": "VETTER PAUL",
        "tree_dbh": "39",
        "tree_location": "2875 Elliott",
        "reason_removal": "Other",
        "tree_description": "Water Oak (has Orange ribbon)  Reason for Removal:OtherComments:Massive Growth Crease,",
        "tree_number": "1",
        "species": "water oak"
      },
      "geometry": {
        "type": "Point",
        "coordinates": [
          -84.366591728386,
          33.833973465522
        ]
      }
    },
    {
      "type": "Feature",
      "properties": {
        "record": "BA-202605213",
        "address": "556 BOULEVARD SE, ATLANTA GA 30312",
        "status": "ACA Pending",
        "date": "10/06/2026",
        "description": null,
        "owner": "ROSENBERG CRAIG",
        "tree_dbh": "36",
        "tree_location": "Backyard",
        "reason_removal": "Dying tree",
        "tree_description": null,
        "tree_number": "1",
        "species": "Post Oak"
      },
      "geometry": {
        "type": "Point",
        "coordinates": [
          -84.368093537579,
          33.739374196113
        ]
      }
    },
    {
      "type": "Feature",
      "properties": {
        "record": "BA-202605174",
        "address": "1295 ELIZABETH AVE SW, ATLANTA GA 30310",
        "status": "ACA Pending",
        "date": "10/06/2026",
        "description": null,
        "owner": "DIX GWENDOLYN L",
        "tree_dbh": "30",
        "tree_location": "left side of home",
        "reason_removal": "Other",
        "tree_description": "30\" Beech, half of canopy split off and crashed down on deck and home, tree is damaged and hazardous, located in backyardReason for Removal:OtherComments:30\" Beech, half of canopy split off and crashed down on deck and home, tree is damaged and hazardous, located in backyard\n\t\t\n\t\t\n\t\t\tTree number:2Species:OakTree Size (DBH):35Tree location:left side of homeDescription of Tree:35\" Oak, left side of home, located less than 5 ft from foundation, canopy diebackReason for Removal:OtherComments:35\" Oak, left side of home, located less than 5 ft from foundation, canopy dieback\n\t\t\n\t\n\t\n                                \n                            \n                        \n                    \n                        \n                            \n                                \n                                    \n                                        \n                                         Parcel Information\n                                \n                            \n                            \n                                \n                                    \n\t\tParcel Number:14 01370001078 *Block:--Lot:--Subdivision:--",
        "tree_number": "1",
        "species": "Beech"
      },
      "geometry": {
        "type": "Point",
        "coordinates": [
          -84.43563158499,
          33.718837733911
        ]
      }
    },
    {
      "type": "Feature",
      "properties": {
        "record": "BA-202605180",
        "address": "77 WAKEFIELD DR NE, ATLANTA GA 30309",
        "status": "ACA Pending",
        "date": "10/06/2026",
        "description": null,
        "owner": null,
        "tree_dbh": null,
        "tree_location": null,
        "reason_removal": null,
        "tree_description": null,
        "tree_number": null,
        "species": null
      },
      "geometry": {
        "type": "Point",
        "coordinates": [
          -84.388506856826,
          33.80774921884
        ]
      }
    },
    {
      "type": "Feature",
      "properties": {
        "record": "BA-202605189",
        "address": "2908 SEQUOYAH DR NW, ATLANTA GA 30327",
        "status": "ACA Pending",
        "date": "10/06/2026",
        "description": null,
        "owner": null,
        "tree_dbh": null,
        "tree_location": null,
        "reason_removal": null,
        "tree_description": null,
        "tree_number": null,
        "species": null
      },
      "geometry": {
        "type": "Point",
        "coordinates": [
          -84.43735436596,
          33.834980391144
        ]
      }
    },
    {
      "type": "Feature",
      "properties": {
        "record": "BA-202605205",
        "address": "953 HARWELL ST NW, ATLANTA GA 30314",
        "status": "ACA Pending",
        "date": "10/06/2026",
        "description": null,
        "owner": null,
        "tree_dbh": "6",
        "tree_location": "Backyard",
        "reason_removal": "Significant cavity/area of decay",
        "tree_description": "Termites have eaten a chunk out of the tree, it is leaning and dangerous.Reason for Removal:Significant cavity/area of decay\n\t\t\n\t\n\t\n                                \n                            \n                        \n                    \n                        \n                            \n                                \n                                    \n                                        \n                                         Parcel Information\n                                \n                            \n                            \n                                \n                                    \n\t\tParcel Number:14 01150011062 *Block:--Lot:--Subdivision:--",
        "tree_number": "1",
        "species": "Oak"
      },
      "geometry": {
        "type": "Point",
        "coordinates": [
          -84.418583114159,
          33.755625795106
        ]
      }
    },
    {
      "type": "Feature",
      "properties": {
        "record": "BA-202605172",
        "address": "239 MURRAY HILL AVE NE, ATLANTA GA 30317",
        "status": "ACA Pending",
        "date": "10/06/2026",
        "description": null,
        "owner": "TAYLOR BRIAN",
        "tree_dbh": "47",
        "tree_location": "front yard",
        "reason_removal": "Dying tree",
        "tree_description": "Dying with Hypoxylon canker,\nlarge limb failure, overhanging power line and streetReason for Removal:Dying tree\n\t\t\n\t\n\t\n                                \n                            \n                        \n                    \n                        \n                            \n                                \n                                    \n                                        \n                                         Parcel Information\n                                \n                            \n                            \n                                \n                                    \n\t\tParcel Number:15 212 03 087 *Block:--Lot:--Subdivision:--",
        "tree_number": "1",
        "species": "water oak"
      },
      "geometry": {
        "type": "Point",
        "coordinates": [
          -84.316041191336,
          33.759659302705
        ]
      }
    },
    {
      "type": "Feature",
      "properties": {
        "record": "BA-202605182",
        "address": "1421 WILLOW TRL SW, ATLANTA GA 30311",
        "status": "ACA Pending",
        "date": "10/06/2026",
        "description": null,
        "owner": "RIVERS GERALDINE P",
        "tree_dbh": "37",
        "tree_location": "front yard",
        "reason_removal": "Dying tree",
        "tree_description": "tree was hit by lightning bathing it on fire & now has a crack on trunk Reason for Removal:Dying tree\n\t\t\n\t\n\t\n                                \n                            \n                        \n                    \n                        \n                            \n                                \n                                    \n                                        \n                                         Parcel Information\n                                \n                            \n                            \n                                \n                                    \n\t\tParcel Number:14 01520011071 *Block:--Lot:--Subdivision:--",
        "tree_number": "1",
        "species": "oak"
      },
      "geometry": {
        "type": "Point",
        "coordinates": [
          -84.439892065575,
          33.716282027966
        ]
      }
    },
    {
      "type": "Feature",
      "properties": {
        "record": "BA-202605208",
        "address": "2525 RIVERS RD NW, ATLANTA GA 30305",
        "status": "ACA Pending",
        "date": "10/06/2026",
        "description": null,
        "owner": "DE DEYN CAREY P",
        "tree_dbh": "16",
        "tree_location": "Right Side of Driveway",
        "reason_removal": "Dying tree",
        "tree_description": null,
        "tree_number": "1",
        "species": "Fir"
      },
      "geometry": {
        "type": "Point",
        "coordinates": [
          -84.390452277384,
          33.82348693952
        ]
      }
    },
    {
      "type": "Feature",
      "properties": {
        "record": "BA-202605214",
        "address": "1585 PEACHTREE BATTLE AVE NW, ATLANTA GA 30327",
        "status": "ACA Pending",
        "date": "10/06/2026",
        "description": null,
        "owner": "Adriana Maria Lopez",
        "tree_dbh": "18",
        "tree_location": "Front of house and street",
        "reason_removal": "Invasive/undesirable tree",
        "tree_description": "They are bending and in front of the home and street. Branches are falling in the home and street when it rains. I am afraid that they will fall soon and damage the home or injure bystandersReason for Removal:Invasive/undesirable treeComments:They are bending and in front of the home and street. Branches are falling in the home and street when it rains. I am afraid that they will fall soon and damage the home or injure bystanders\n\t\t\n\t\n\t\n                                \n                            \n                        \n                    \n                        \n                            \n                                \n                                    \n                                        \n                                         Parcel Information\n                                \n                            \n                            \n                                \n                                    \n\t\tParcel Number:17 02200003003 *Block:--Lot:--Subdivision:--",
        "tree_number": "5",
        "species": "Pines"
      },
      "geometry": {
        "type": "Point",
        "coordinates": [
          -84.439462269712,
          33.827673043928
        ]
      }
    },
    {
      "type": "Feature",
      "properties": {
        "record": "BA-202605198",
        "address": "101 ARDMORE PL NW, 1, ATLANTA GA 30309",
        "status": "ACA Pending",
        "date": "10/06/2026",
        "description": null,
        "owner": "PAUGH STEVEN W",
        "tree_dbh": "20",
        "tree_location": "Front of Bldg. 101",
        "reason_removal": "Other",
        "tree_description": "Front of building, impacting foundation. Wall and walkway to be rebuilt.Reason for Removal:Other\n\t\t\n\t\t\n\t\t\tTree number:1Species:Cherry LaurelTree Size (DBH):15Tree location:Front of Bldg. 101Description of Tree:Tree is impacting building; within inches of foundation.Reason for Removal:Other\n\t\t\n\t\n\t\n                                \n                            \n                        \n                    \n                        \n                            \n                                \n                                    \n                                        \n                                         Parcel Information\n                                \n                            \n                            \n                                \n                                    \n\t\tParcel Number:17 01090016025 *Block:--Lot:--Subdivision:--",
        "tree_number": "1",
        "species": "Magnolia"
      },
      "geometry": {
        "type": "Point",
        "coordinates": [
          -84.395706538764,
          33.804020773731
        ]
      }
    },
    {
      "type": "Feature",
      "properties": {
        "record": "BA-202605192",
        "address": "960 BURNS DR SW, ATLANTA GA 30310",
        "status": "ACA Pending",
        "date": "10/06/2026",
        "description": null,
        "owner": "CLAYTON DONNA K",
        "tree_dbh": "15",
        "tree_location": "Backyard",
        "reason_removal": "Dead tree",
        "tree_description": null,
        "tree_number": "1",
        "species": "Black Cherry"
      },
      "geometry": {
        "type": "Point",
        "coordinates": [
          -84.419352915916,
          33.711902023107
        ]
      }
    },
    {
      "type": "Feature",
      "properties": {
        "record": "BA-202605191",
        "address": "2550 BROOKDALE DR NW, ATLANTA GA 30305",
        "status": "ACA Pending",
        "date": "10/06/2026",
        "description": null,
        "owner": null,
        "tree_dbh": "20",
        "tree_location": "Lower rear yard on left side in pinestraw garden, flanked by 2 other trees",
        "reason_removal": "Dying tree",
        "tree_description": "Leaking sap/some material at base; dead branches at top.Reason for Removal:Dying tree\n\t\t\n\t\n\t\n                                \n                            \n                        \n                    \n                        \n                            \n                                \n                                    \n                                        \n                                         Parcel Information\n                                \n                            \n                            \n                                \n                                    \n\t\tParcel Number:17 01440001043 *Block:--Lot:--Subdivision:--",
        "tree_number": "1",
        "species": "Poplar"
      },
      "geometry": {
        "type": "Point",
        "coordinates": [
          -84.404580541673,
          33.824943094053
        ]
      }
    },
    {
      "type": "Feature",
      "properties": {
        "record": "BA-202605175",
        "address": "2029 TUXEDO AVE NE, ATLANTA GA 30307",
        "status": "ACA Pending",
        "date": "10/06/2026",
        "description": null,
        "owner": "Macey Howard",
        "tree_dbh": "14",
        "tree_location": "Left side of backyard",
        "reason_removal": "Invasive/undesirable tree",
        "tree_description": "Undesirable speciesReason for Removal:Invasive/undesirable tree\n\t\t\n\t\n\t\n                                \n                            \n                        \n                    \n                        \n                            \n                                \n                                    \n                                        \n                                         Parcel Information\n                                \n                            \n                            \n                                \n                                    \n\t\tParcel Number:15 238 04 043 *Block:--Lot:--Subdivision:--",
        "tree_number": "1",
        "species": "Leyland Cypress"
      },
      "geometry": {
        "type": "Point",
        "coordinates": [
          -84.321090281698,
          33.766008400823
        ]
      }
    },
    {
      "type": "Feature",
      "properties": {
        "record": "BA-202605212",
        "address": "2645 HOWELL MILL RD NW, ATLANTA GA 30327",
        "status": "ACA Pending",
        "date": "10/06/2026",
        "description": null,
        "owner": null,
        "tree_dbh": null,
        "tree_location": null,
        "reason_removal": null,
        "tree_description": null,
        "tree_number": null,
        "species": null
      },
      "geometry": {
        "type": "Point",
        "coordinates": [
          -84.416452528261,
          33.827174470101
        ]
      }
    },
    {
      "type": "Feature",
      "properties": {
        "record": "BA-202605207",
        "address": "1575 NORTHSIDE DR NW, A, ATLANTA GA 30318",
        "status": "ACA Pending",
        "date": "10/06/2026",
        "description": null,
        "owner": "ATC NORTHSIDE IVESTORS L L C",
        "tree_dbh": "29",
        "tree_location": "Left Side of Parking Lot",
        "reason_removal": "Dying tree",
        "tree_description": null,
        "tree_number": "1",
        "species": "Pin Oak"
      },
      "geometry": {
        "type": "Point",
        "coordinates": [
          -84.407772340192,
          33.799525207772
        ]
      }
    },
    {
      "type": "Feature",
      "properties": {
        "record": "26TMP-066060",
        "address": "1344 LA FRANCE ST NE, ATLANTA GA 30307",
        "status": "",
        "date": "10/06/2026",
        "description": null,
        "owner": null,
        "tree_dbh": null,
        "tree_location": null,
        "reason_removal": null,
        "tree_description": null,
        "tree_number": null,
        "species": null
      },
      "geometry": {
        "type": "Point",
        "coordinates": [
          -84.343603367075,
          33.760451923801
        ]
      }
    },
    {
      "type": "Feature",
      "properties": {
        "record": "BA-202605209",
        "address": "1038 SWATHMORE DR NW, ATLANTA GA 30327",
        "status": "ACA Pending",
        "date": "10/06/2026",
        "description": null,
        "owner": "MONTGOMERY JOHN R",
        "tree_dbh": "33",
        "tree_location": "Left Side of Driveway",
        "reason_removal": "Other",
        "tree_description": null,
        "tree_number": "1",
        "species": "Oak"
      },
      "geometry": {
        "type": "Point",
        "coordinates": [
          -84.421143550183,
          33.875624507132
        ]
      }
    },
    {
      "type": "Feature",
      "properties": {
        "record": "BA-202605196",
        "address": "88 EAST LAKE DR NE, ATLANTA GA 30317",
        "status": "ACA Pending",
        "date": "10/06/2026",
        "description": null,
        "owner": "Evan Hurst",
        "tree_dbh": "13",
        "tree_location": "See Tree report",
        "reason_removal": "Invasive/undesirable tree",
        "tree_description": "See Arborist Tree report- listed in poor conditionReason for Removal:Significant cavity/area of decay\n\t\t\n\t\t\n\t\t\tTree number:7Species:Royal PaulowniaTree Size (DBH):16Tree location:See Tree reportDescription of Tree:See Arborist Tree report- listed in poor conditionReason for Removal:Invasive/undesirable tree\n\t\t\n\t\t\n\t\t\tTree number:10Species:Black CherryTree Size (DBH):12Tree location:See Arborist Tree reportDescription of Tree:See Arborist Tree report- listed in poor conditionReason for Removal:Dying treeComments:Growing out of another tree\n\t\t\n\t\t\n\t\t\tTree number:15Species:Carolina LaurelcherryTree Size (DBH):7Tree location:See Arborist Tree reportDescription of Tree:See Arborist Tree report- listed in poor conditionReason for Removal:Dying tree\n\t\t\n\t\t\n\t\t\tTree number:16Species:Black CherryTree Size (DBH):8Tree location:See Arborist Tree reportDescription of Tree:See Arborist Tree report- listed in poor conditionReason for Removal:Dying treeComments:Tree is Cracking\n\t\t\n\t\t\n\t\t\tTree number:21Species:Water OakTree Size (DBH):25Tree location:See Arborist Tree reportDescription of Tree:See Arborist Tree report- listed in poor conditionReason for Removal:Invasive/undesirable treeComments:Arborist recommends removal\n\t\t\n\t\n\t\n                                \n                            \n                        \n                    \n                        \n                            \n                                \n                                    \n                                        \n                                         Parcel Information\n                                \n                            \n                            \n                                \n                                    \n\t\tParcel Number:15 204 03 074 *Block:--Lot:--Subdivision:--",
        "tree_number": "6",
        "species": "Royal Paulownia"
      },
      "geometry": {
        "type": "Point",
        "coordinates": [
          -84.30144460457,
          33.753208190318
        ]
      }
    },
    {
      "type": "Feature",
      "properties": {
        "record": "BA-202605177",
        "address": "742 CHANNING DR NW, ATLANTA GA 30318",
        "status": "ACA Pending",
        "date": "10/06/2026",
        "description": null,
        "owner": "Jonathan and Kimberly Forsythe",
        "tree_dbh": "30",
        "tree_location": "Rear left",
        "reason_removal": "Dead tree",
        "tree_description": null,
        "tree_number": "6",
        "species": "White Oak"
      },
      "geometry": {
        "type": "Point",
        "coordinates": [
          -84.410257707849,
          33.80759312671
        ]
      }
    },
    {
      "type": "Feature",
      "properties": {
        "record": "BA-202605216",
        "address": "188 WHITEFOORD AVE SE, ATLANTA GA 30317",
        "status": "ACA Pending",
        "date": "10/06/2026",
        "description": null,
        "owner": null,
        "tree_dbh": "12",
        "tree_location": "In front of the house, near the mailbox",
        "reason_removal": "Dying tree",
        "tree_description": "This tree is 12 feet 2 inches with a red X and white circle painted on itReason for Removal:Dying tree\n\t\t\n\t\t\n\t\t\tTree number:2Species:Unknown Tree Size (DBH):55Tree location:In front of the house near the porchDescription of Tree:This tree 55 inches. It has a red x and a white circle painted on itReason for Removal:Dying tree\n\t\t\n\t\n\t\n                                \n                            \n                        \n                    \n                        \n                            \n                                \n                                    \n                                        \n                                         Parcel Information\n                                \n                            \n                            \n                                \n                                    \n\t\tParcel Number:15 208 02 156 *Block:--Lot:--Subdivision:--",
        "tree_number": "1",
        "species": "Unknown"
      },
      "geometry": {
        "type": "Point",
        "coordinates": [
          -84.342206685897,
          33.748365721528
        ]
      }
    },
    {
      "type": "Feature",
      "properties": {
        "record": "BA-202605173",
        "address": "739 TRABERT AVE NW, ATLANTA GA 30318",
        "status": "ACA Pending",
        "date": "10/06/2026",
        "description": null,
        "owner": null,
        "tree_dbh": null,
        "tree_location": null,
        "reason_removal": null,
        "tree_description": null,
        "tree_number": null,
        "species": null
      },
      "geometry": {
        "type": "Point",
        "coordinates": [
          -84.41368409186,
          33.794138944635
        ]
      }
    },
    {
      "type": "Feature",
      "properties": {
        "record": "BA-202605195",
        "address": "232 WESTMINSTER DR NE, ATLANTA GA 30309",
        "status": "ACA Pending",
        "date": "10/06/2026",
        "description": null,
        "owner": "Louise Faurot",
        "tree_dbh": "8",
        "tree_location": "left side",
        "reason_removal": "Dying tree",
        "tree_description": "8in dying dogwood with substantial basal decay.Reason for Removal:Dying tree\n\t\t\n\t\n\t\n                                \n                            \n                        \n                    \n                        \n                            \n                                \n                                    \n                                        \n                                         Parcel Information\n                                \n                            \n                            \n                                \n                                    \n\t\tParcel Number:17 00550002019 *Block:--Lot:--Subdivision:--",
        "tree_number": "1",
        "species": "Dogwood"
      },
      "geometry": {
        "type": "Point",
        "coordinates": [
          -84.373125195627,
          33.793429560924
        ]
      }
    },
    {
      "type": "Feature",
      "properties": {
        "record": "BA-202605200",
        "address": "1053 CRANE RD NE, ATLANTA GA 30324",
        "status": "ACA Pending",
        "date": "10/06/2026",
        "description": null,
        "owner": null,
        "tree_dbh": "8",
        "tree_location": "side yard",
        "reason_removal": "Dying tree",
        "tree_description": null,
        "tree_number": "1",
        "species": "unsure"
      },
      "geometry": {
        "type": "Point",
        "coordinates": [
          -84.355359256579,
          33.839617963279
        ]
      }
    },
    {
      "type": "Feature",
      "properties": {
        "record": "BA-202605193",
        "address": "871 LAURELMONT DR SW, ATLANTA GA 30311",
        "status": "ACA Pending",
        "date": "10/06/2026",
        "description": null,
        "owner": "MC DANIEL SHARON",
        "tree_dbh": "42",
        "tree_location": "front middle",
        "reason_removal": "Dying tree",
        "tree_description": "Large mature oak tree with significant trunk damage, dead limbs, and canopy dieback. Tree appears to be declining and presents a potential safety hazard.Reason for Removal:Dying treeComments:Dropped a large limb through the front center of the residence.\n\t\t\n\t\n\t\n                                \n                            \n                        \n                    \n                        \n                            \n                                \n                                    \n                                        \n                                         Parcel Information\n                                \n                            \n                            \n                                \n                                    \n\t\tParcel Number:14 02350001023 *Block:--Lot:--Subdivision:--",
        "tree_number": "1",
        "species": "oak tree"
      },
      "geometry": {
        "type": "Point",
        "coordinates": [
          -84.493294876615,
          33.731665917187
        ]
      }
    },
    {
      "type": "Feature",
      "properties": {
        "record": "BA-202605186",
        "address": "2672 FAIRLANE DR SE, ATLANTA GA 30354",
        "status": "ACA Pending",
        "date": "10/06/2026",
        "description": null,
        "owner": null,
        "tree_dbh": "25",
        "tree_location": "fornt",
        "reason_removal": "Dying tree",
        "tree_description": "Dead, struck by lightning",
        "tree_number": "1",
        "species": "pine"
      },
      "geometry": {
        "type": "Point",
        "coordinates": [
          -84.38028608256,
          33.681786095425
        ]
      }
    },
    {
      "type": "Feature",
      "properties": {
        "record": "BA-202605187",
        "address": "1971 JOSEPHINE AVE SE, ATLANTA GA 30316",
        "status": "ACA Pending",
        "date": "10/06/2026",
        "description": null,
        "owner": null,
        "tree_dbh": "18",
        "tree_location": "back right",
        "reason_removal": "Dying tree",
        "tree_description": "Excessive lean, Fungal Fruiting body present in decay on trunkReason for Removal:Dying tree\n\t\t\n\t\n\t\n                                \n                            \n                        \n                    \n                        \n                            \n                                \n                                    \n                                        \n                                         Parcel Information\n                                \n                            \n                            \n                                \n                                    \n\t\tParcel Number:15 174 02 005 *Block:--Lot:--Subdivision:JOSEPHINE ANNEXATION",
        "tree_number": "1",
        "species": "oak"
      },
      "geometry": {
        "type": "Point",
        "coordinates": [
          -84.327510593291,
          33.733978933156
        ]
      }
    },
    {
      "type": "Feature",
      "properties": {
        "record": "BA-202605211",
        "address": "544 ETHEL ST NW, ATLANTA GA 30318",
        "status": "ACA Pending",
        "date": "10/06/2026",
        "description": null,
        "owner": null,
        "tree_dbh": "24",
        "tree_location": "front",
        "reason_removal": "Dead tree",
        "tree_description": "by the streetReason for Removal:Dead treeComments:dead long time\n\t\t\n\t\n\t\n                                \n                            \n                        \n                    \n                        \n                            \n                                \n                                    \n                                        \n                                         Parcel Information\n                                \n                            \n                            \n                                \n                                    \n\t\tParcel Number:17 01490005175 *Block:--Lot:--Subdivision:--",
        "tree_number": "1",
        "species": "hardwood"
      },
      "geometry": {
        "type": "Point",
        "coordinates": [
          -84.405138343871,
          33.784469263017
        ]
      }
    },
    {
      "type": "Feature",
      "properties": {
        "record": "BA-202605185",
        "address": "366 PEACHTREE AVE NE, ATLANTA GA 30305",
        "status": "ACA Pending",
        "date": "10/06/2026",
        "description": null,
        "owner": "KILBY VIRGINIA LEE",
        "tree_dbh": "10",
        "tree_location": "Front yard, right side",
        "reason_removal": "Dying tree",
        "tree_description": "Dead/declining DogwoodReason for Removal:Dying tree\n\t\t\n\t\n\t\n                                \n                            \n                        \n                    \n                        \n                            \n                                \n                                    \n                                        \n                                         Parcel Information\n                                \n                            \n                            \n                                \n                                    \n\t\tParcel Number:17 00600001044 *Block:--Lot:--Subdivision:--",
        "tree_number": "1",
        "species": "Dogwood"
      },
      "geometry": {
        "type": "Point",
        "coordinates": [
          -84.375617956455,
          33.835029415301
        ]
      }
    },
    {
      "type": "Feature",
      "properties": {
        "record": "BA-202605184",
        "address": "480 HASCALL RD NW, ATLANTA GA 30309",
        "status": "ACA Pending",
        "date": "10/06/2026",
        "description": null,
        "owner": null,
        "tree_dbh": "7",
        "tree_location": "front of home",
        "reason_removal": "Dying tree",
        "tree_description": "7\" Dogwood, front of home, Declining, 45% canopy lossReason for Removal:Dying treeComments:7\" Dogwood, front of home, Declining, 45% canopy loss\n\t\t\n\t\n\t\n                                \n                            \n                        \n                    \n                        \n                            \n                                \n                                    \n                                        \n                                         Parcel Information\n                                \n                            \n                            \n                                \n                                    \n\t\tParcel Number:17 01470002031 *Block:--Lot:--Subdivision:--",
        "tree_number": "1",
        "species": "Dogwood"
      },
      "geometry": {
        "type": "Point",
        "coordinates": [
          -84.403413320388,
          33.797040410155
        ]
      }
    },
    {
      "type": "Feature",
      "properties": {
        "record": "BA-202605188",
        "address": "2961 MOCKINGBIRD LN SW, ATLANTA GA 30311",
        "status": "ACA Pending",
        "date": "10/06/2026",
        "description": null,
        "owner": "WILLIAMS MERCHURIA CHASE",
        "tree_dbh": "26",
        "tree_location": "front left",
        "reason_removal": "Significant cavity/area of decay",
        "tree_description": "severely declining/ dyingReason for Removal:Dead tree\n\t\t\n\t\t\n\t\t\tTree number:2Species:pineTree Size (DBH):29Tree location:Front centerDescription of Tree:severely declining/dying.Reason for Removal:Dead tree\n\t\t\n\t\t\n\t\t\tTree number:3Species:pineTree Size (DBH):22Tree location:front rightDescription of Tree:Pine with partial foliage but visible declineReason for Removal:Significant cavity/area of decay\n\t\t\n\t\n\t\n                                \n                            \n                        \n                    \n                        \n                            \n                                \n                                    \n                                        \n                                         Parcel Information\n                                \n                            \n                            \n                                \n                                    \n\t\tParcel Number:14 02150002050 *Block:--Lot:--Subdivision:--",
        "tree_number": "1",
        "species": "pine"
      },
      "geometry": {
        "type": "Point",
        "coordinates": [
          -84.484286325861,
          33.72769773048
        ]
      }
    },
    {
      "type": "Feature",
      "properties": {
        "record": "BA-202605203",
        "address": "36 LAKELAND DR NW, ATLANTA GA 30305",
        "status": "ACA Pending",
        "date": "10/06/2026",
        "description": null,
        "owner": "MC KIBBEN SYBIL RICHARDS",
        "tree_dbh": "12",
        "tree_location": "back left",
        "reason_removal": "Dying tree",
        "tree_description": "damaged trunkReason for Removal:Significant cavity/area of decayComments:tree is marked with paint\n\t\t\n\t\t\n\t\t\tTree number:2Species:pearTree Size (DBH):21Tree location:back centerDescription of Tree:damaged trunkReason for Removal:Significant cavity/area of decayComments:tree is marked with paint\n\t\t\n\t\t\n\t\t\tTree number:3Species:sweet gumTree Size (DBH):29Tree location:back rightDescription of Tree:large amount of die back at top of treeReason for Removal:Dying treeComments:tree is marked with paint\n\t\t\n\t\n\t\n                                \n                            \n                        \n                    \n                        \n                            \n                                \n                                    \n                                        \n                                         Parcel Information\n                                \n                            \n                            \n                                \n                                    \n\t\tParcel Number:17 00980003078 *Block:--Lot:--Subdivision:--",
        "tree_number": "1",
        "species": "mimosa"
      },
      "geometry": {
        "type": "Point",
        "coordinates": [
          -84.383577566194,
          33.848880282995
        ]
      }
    },
    {
      "type": "Feature",
      "properties": {
        "record": "BA-202605181",
        "address": "1150 ANGELO CT NE, ATLANTA GA 30319",
        "status": "ACA Pending",
        "date": "10/06/2026",
        "description": null,
        "owner": "Bradley T Chitty",
        "tree_dbh": "12",
        "tree_location": "rear of our property",
        "reason_removal": "Dead tree",
        "tree_description": "Horizontal tree that snapped in stormReason for Removal:Dead treeComments:This tree is clearly dead after being snapped in the storm.  I'm requesting a permit to remove this did tree so its not a danger to kids playing in the woods given that it is suspended \n\t\t\n\t\n\t\n                                \n                            \n                        \n                    \n                        \n                            \n                                \n                                    \n                                        \n                                         Parcel Information\n                                \n                            \n                            \n                                \n                                    \n\t\tParcel Number:17 00130004013 *Block:--Lot:--Subdivision:--",
        "tree_number": "1",
        "species": "pine"
      },
      "geometry": {
        "type": "Point",
        "coordinates": [
          -84.349706472638,
          33.881129551332
        ]
      }
    },
    {
      "type": "Feature",
      "properties": {
        "record": "BA-202605178",
        "address": "1593 SANDTOWN RD SW, ATLANTA GA 30311",
        "status": "ACA Pending",
        "date": "10/06/2026",
        "description": null,
        "owner": null,
        "tree_dbh": null,
        "tree_location": null,
        "reason_removal": null,
        "tree_description": null,
        "tree_number": null,
        "species": null
      },
      "geometry": {
        "type": "Point",
        "coordinates": [
          -84.441131001051,
          33.715148532479
        ]
      }
    },
    {
      "type": "Feature",
      "properties": {
        "record": "26TMP-064561",
        "address": "393 DEERING RD NW, ATLANTA GA 30309",
        "status": "",
        "date": "10/06/2026",
        "description": null,
        "owner": null,
        "tree_dbh": null,
        "tree_location": null,
        "reason_removal": null,
        "tree_description": null,
        "tree_number": null,
        "species": null
      },
      "geometry": {
        "type": "Point",
        "coordinates": [
          -84.400876673237,
          33.796242307023
        ]
      }
    },
    {
      "type": "Feature",
      "properties": {
        "record": "BA-202605194",
        "address": "1053 CRANE RD NE, ATLANTA GA 30324",
        "status": "ACA Pending",
        "date": "10/06/2026",
        "description": null,
        "owner": null,
        "tree_dbh": "14",
        "tree_location": "side yard",
        "reason_removal": "Dying tree",
        "tree_description": null,
        "tree_number": "1",
        "species": "unsure"
      },
      "geometry": {
        "type": "Point",
        "coordinates": [
          -84.355359256579,
          33.839617963279
        ]
      }
    },
    {
      "type": "Feature",
      "properties": {
        "record": "BA-202605190",
        "address": "98 ANDERSON AVE NW, ATLANTA GA 30314",
        "status": "ACA Pending",
        "date": "10/06/2026",
        "description": null,
        "owner": "ATLANTA BOARD OF EDUCATION CITY OF ATLANTA THE",
        "tree_dbh": "8",
        "tree_location": "Back of school",
        "reason_removal": "Dead tree",
        "tree_description": "dead pineReason for Removal:Dead treeComments:marked with caution tape\n\t\t\n\t\t\n\t\t\tTree number:2Species:PineTree Size (DBH):8Tree location:Back of schoolDescription of Tree:marked with caution tape, dead pineReason for Removal:Dead tree\n\t\t\n\t\n\t\n                                \n                            \n                        \n                    \n                        \n                            \n                                \n                                    \n                                        \n                                         Parcel Information\n                                \n                            \n                            \n                                \n                                    \n\t\tParcel Number:14 0174  LL046 *Block:--Lot:--Subdivision:--",
        "tree_number": "1",
        "species": "Pine"
      },
      "geometry": {
        "type": "Point",
        "coordinates": [
          -84.450227655319,
          33.758015307376
        ]
      }
    },
    {
      "type": "Feature",
      "properties": {
        "record": "BA-202605215",
        "address": "475 GRANT ST SE, ATLANTA GA 30312",
        "status": "ACA Pending",
        "date": "10/06/2026",
        "description": null,
        "owner": "FAUBLI AARON PATRICK",
        "tree_dbh": "7",
        "tree_location": "on the right side of the home.",
        "reason_removal": "Uncorrectable defect",
        "tree_description": "These trees are leaning over the right neighbors yard and the structural roots are impacting the utilities.",
        "tree_number": "1",
        "species": "Ailanthus"
      },
      "geometry": {
        "type": "Point",
        "coordinates": [
          -84.376478604775,
          33.741747609575
        ]
      }
    },
    {
      "type": "Feature",
      "properties": {
        "record": "BA-202605183",
        "address": "105 PUTNAM CIR NE, ATLANTA GA 30342",
        "status": "ACA Pending",
        "date": "10/06/2026",
        "description": null,
        "owner": "HARRIS ARTHUR AND SYDELL",
        "tree_dbh": "25",
        "tree_location": "front of home",
        "reason_removal": "Dead tree",
        "tree_description": "leaning towards home with longitudinal cavity with visible wood decay a multiple fungal fruiting bodiesReason for Removal:Diseased\n\t\t\n\t\t\n\t\t\tTree number:2Species:Red OakTree Size (DBH):24.5Tree location:Side yard left side facing homeDescription of Tree:DeadReason for Removal:Dead tree\n\t\t\n\t\t\n\t\t\tTree number:3Species:OakTree Size (DBH):19.4Tree location:Side yard next left of driveway close to homeDescription of Tree:Dead OakReason for Removal:Dead tree\n\t\t\n\t\n\t\n                                \n                            \n                        \n                    \n                        \n                            \n                                \n                                    \n                                        \n                                         Parcel Information\n                                \n                            \n                            \n                                \n                                    \n\t\tParcel Number:17 00970002048 *Block:--Lot:--Subdivision:--",
        "tree_number": "1",
        "species": "Red Oak"
      },
      "geometry": {
        "type": "Point",
        "coordinates": [
          -84.383897177356,
          33.859815834756
        ]
      }
    }
  ]
}