{
  "type": "FeatureCollection",
  "features": [
    {
      "type": "Feature",
      "properties": {
        "record": "26TMP-048816",
        "address": "491 STERLING ST NE, ATLANTA GA 30307",
        "status": "",
        "date": "07/27/2026",
        "description": null,
        "owner": null,
        "tree_dbh": null,
        "tree_location": null,
        "reason_removal": null,
        "tree_description": null,
        "tree_number": null,
        "species": null
      },
      "geometry": {
        "type": "Point",
        "coordinates": [
          -84.344584115833,
          33.766624452739
        ]
      }
    },
    {
      "type": "Feature",
      "properties": {
        "record": "BA-202603520",
        "address": "223 JAMES P BRAWLEY DR, ATLANTA GA 30314",
        "status": "ACA Pending",
        "date": "07/27/2026",
        "description": null,
        "owner": "ATLANTA UNIVERSITY",
        "tree_dbh": "25",
        "tree_location": "Clement Hall",
        "reason_removal": "Significant cavity/area of decay",
        "tree_description": "The basswood tree is hazardous and is a danger.  The tree has extensive rot and decay in one of the codominant stems.  The remaining of the tree has dieback exceeding 25%.Reason for Removal:Significant cavity/area of decayComments:This tree is located on the Clark Atlanta University promenade where all the faculty and students walk daily.\n\t\t\n\t\n\t\n                                \n                            \n                        \n                    \n                        \n                            \n                                \n                                    \n                                        \n                                         Parcel Information\n                                \n                            \n                            \n                                \n                                    \n\t\tParcel Number:14 0109  LL017 *Block:--Lot:--Subdivision:--",
        "tree_number": "1",
        "species": "Basswood"
      },
      "geometry": {
        "type": "Point",
        "coordinates": [
          -84.412575693352,
          33.760653102239
        ]
      }
    },
    {
      "type": "Feature",
      "properties": {
        "record": "BA-202603527",
        "address": "500 MCDANIEL ST SW, ATLANTA GA 30312",
        "status": "ACA Pending",
        "date": "07/27/2026",
        "description": null,
        "owner": "ATLANTA HOUSING AUTHORITY MC DANIEL GLENN HOMES",
        "tree_dbh": "52",
        "tree_location": "Southern end of property",
        "reason_removal": "Dead tree",
        "tree_description": "52\" Oak with some dying branches shown in before picture and totally split after lightning strikeReason for Removal:Dead treeComments:Tree struck by lightning and removed by Manager due to safety conditions caused by damage.\n\t\t\n\t\n\t\n                                \n                            \n                        \n                    \n                        \n                            \n                                \n                                    \n                                        \n                                         Parcel Information\n                                \n                            \n                            \n                                \n                                    \n\t\tParcel Number:14 0085  LL006 *Block:--Lot:--Subdivision:--",
        "tree_number": "1",
        "species": "Oak"
      },
      "geometry": {
        "type": "Point",
        "coordinates": [
          -84.402824689906,
          33.7414715068
        ]
      }
    },
    {
      "type": "Feature",
      "properties": {
        "record": "BA-202603533",
        "address": "1170 AMSTERDAM AVE NE, ATLANTA GA 30306",
        "status": "ACA Pending",
        "date": "07/27/2026",
        "description": null,
        "owner": null,
        "tree_dbh": "28",
        "tree_location": "backyard/parking area",
        "reason_removal": "Dying tree",
        "tree_description": "paper oak losing foliage and beginning to drop significant limbsReason for Removal:Dying treeComments:tree overhangs back yard, pool and parking area\n\t\t\n\t\n\t\n                                \n                            \n                        \n                    \n                        \n                            \n                                \n                                    \n                                        \n                                         Parcel Information\n                                \n                            \n                            \n                                \n                                    \n\t\tParcel Number:18 055 03 001 *Block:--Lot:--Subdivision:ANNEXATION (18-O-1374) 10-24-2018",
        "tree_number": "1",
        "species": "oak"
      },
      "geometry": {
        "type": "Point",
        "coordinates": [
          -84.349504746544,
          33.787625851672
        ]
      }
    },
    {
      "type": "Feature",
      "properties": {
        "record": "BA-202603524",
        "address": "485 WESTOVER DR NW, ATLANTA GA 30305",
        "status": "ACA Pending",
        "date": "07/27/2026",
        "description": null,
        "owner": null,
        "tree_dbh": null,
        "tree_location": null,
        "reason_removal": null,
        "tree_description": null,
        "tree_number": null,
        "species": null
      },
      "geometry": {
        "type": "Point",
        "coordinates": [
          -84.403835831918,
          33.827374090239
        ]
      }
    },
    {
      "type": "Feature",
      "properties": {
        "record": "BA-202603539",
        "address": "3039 CLARENDALE DR NW, ATLANTA GA 30327",
        "status": "ACA Pending",
        "date": "07/27/2026",
        "description": null,
        "owner": null,
        "tree_dbh": null,
        "tree_location": null,
        "reason_removal": null,
        "tree_description": null,
        "tree_number": null,
        "species": null
      },
      "geometry": {
        "type": "Point",
        "coordinates": [
          -84.432214341394,
          33.838191600412
        ]
      }
    },
    {
      "type": "Feature",
      "properties": {
        "record": "BA-202603521",
        "address": "2094 FAIRHAVEN CIR NE, ATLANTA GA 30305",
        "status": "ACA Pending",
        "date": "07/27/2026",
        "description": null,
        "owner": null,
        "tree_dbh": null,
        "tree_location": null,
        "reason_removal": null,
        "tree_description": null,
        "tree_number": null,
        "species": null
      },
      "geometry": {
        "type": "Point",
        "coordinates": [
          -84.387430540537,
          33.81420182424
        ]
      }
    },
    {
      "type": "Feature",
      "properties": {
        "record": "BA-202603528",
        "address": "962 BOULEVARD SE, ATLANTA GA 30312",
        "status": "ACA Pending",
        "date": "07/27/2026",
        "description": null,
        "owner": null,
        "tree_dbh": null,
        "tree_location": null,
        "reason_removal": null,
        "tree_description": null,
        "tree_number": null,
        "species": null
      },
      "geometry": {
        "type": "Point",
        "coordinates": [
          -84.368324068055,
          33.72818312927
        ]
      }
    },
    {
      "type": "Feature",
      "properties": {
        "record": "BA-202603517",
        "address": "26 STANDISH AVE NW, ATLANTA GA 30309",
        "status": "ACA Pending",
        "date": "07/27/2026",
        "description": null,
        "owner": null,
        "tree_dbh": null,
        "tree_location": null,
        "reason_removal": null,
        "tree_description": null,
        "tree_number": null,
        "species": null
      },
      "geometry": {
        "type": "Point",
        "coordinates": [
          -84.394301966758,
          33.799128279943
        ]
      }
    },
    {
      "type": "Feature",
      "properties": {
        "record": "BA-202603532",
        "address": "2237 PENELOPE ST NW, ATLANTA GA 30314",
        "status": "ACA Pending",
        "date": "07/27/2026",
        "description": null,
        "owner": null,
        "tree_dbh": null,
        "tree_location": null,
        "reason_removal": null,
        "tree_description": null,
        "tree_number": null,
        "species": null
      },
      "geometry": {
        "type": "Point",
        "coordinates": [
          -84.457166633716,
          33.756007904912
        ]
      }
    },
    {
      "type": "Feature",
      "properties": {
        "record": "BA-202603519",
        "address": "730 GLADSTONE RD NW, ATLANTA GA 30318",
        "status": "ACA Pending",
        "date": "07/27/2026",
        "description": null,
        "owner": null,
        "tree_dbh": null,
        "tree_location": null,
        "reason_removal": null,
        "tree_description": null,
        "tree_number": null,
        "species": null
      },
      "geometry": {
        "type": "Point",
        "coordinates": [
          -84.411446981267,
          33.814372839683
        ]
      }
    },
    {
      "type": "Feature",
      "properties": {
        "record": "BA-202603530",
        "address": "763 CASPLAN ST SW, ATLANTA GA 30310",
        "status": "ACA Pending",
        "date": "07/27/2026",
        "description": null,
        "owner": null,
        "tree_dbh": null,
        "tree_location": null,
        "reason_removal": null,
        "tree_description": null,
        "tree_number": null,
        "species": null
      },
      "geometry": {
        "type": "Point",
        "coordinates": [
          -84.413199401882,
          33.707001005416
        ]
      }
    },
    {
      "type": "Feature",
      "properties": {
        "record": "BA-202603523",
        "address": "1887 LAKEWOOD TER SE, ATLANTA GA 30315",
        "status": "ACA Pending",
        "date": "07/27/2026",
        "description": null,
        "owner": null,
        "tree_dbh": null,
        "tree_location": null,
        "reason_removal": null,
        "tree_description": null,
        "tree_number": null,
        "species": null
      },
      "geometry": {
        "type": "Point",
        "coordinates": [
          -84.380948641802,
          33.702288828017
        ]
      }
    },
    {
      "type": "Feature",
      "properties": {
        "record": "BA-202603529",
        "address": "45 VALLEY RD NW, ATLANTA GA 30305",
        "status": "ACA Pending",
        "date": "07/27/2026",
        "description": null,
        "owner": null,
        "tree_dbh": null,
        "tree_location": null,
        "reason_removal": null,
        "tree_description": null,
        "tree_number": null,
        "species": null
      },
      "geometry": {
        "type": "Point",
        "coordinates": [
          -84.389391326335,
          33.849484856771
        ]
      }
    },
    {
      "type": "Feature",
      "properties": {
        "record": "BA-202603522",
        "address": "2510 LOGHAVEN DR NW, ATLANTA GA 30318",
        "status": "ACA Pending",
        "date": "07/27/2026",
        "description": null,
        "owner": null,
        "tree_dbh": null,
        "tree_location": null,
        "reason_removal": null,
        "tree_description": null,
        "tree_number": null,
        "species": null
      },
      "geometry": {
        "type": "Point",
        "coordinates": [
          -84.469924726832,
          33.760173433181
        ]
      }
    },
    {
      "type": "Feature",
      "properties": {
        "record": "BA-202603540",
        "address": "1766 GARRAUX RD NW, ATLANTA GA 30327",
        "status": "ACA Pending",
        "date": "07/27/2026",
        "description": null,
        "owner": null,
        "tree_dbh": null,
        "tree_location": null,
        "reason_removal": null,
        "tree_description": null,
        "tree_number": null,
        "species": null
      },
      "geometry": {
        "type": "Point",
        "coordinates": [
          -84.445828158044,
          33.853819845461
        ]
      }
    },
    {
      "type": "Feature",
      "properties": {
        "record": "BA-202603544",
        "address": "1980 HONEYSUCKLE LN SW, ATLANTA GA 30311",
        "status": "ACA Pending",
        "date": "07/27/2026",
        "description": null,
        "owner": null,
        "tree_dbh": null,
        "tree_location": null,
        "reason_removal": null,
        "tree_description": null,
        "tree_number": null,
        "species": null
      },
      "geometry": {
        "type": "Point",
        "coordinates": [
          -84.454329109669,
          33.710628052583
        ]
      }
    },
    {
      "type": "Feature",
      "properties": {
        "record": "BA-202603542",
        "address": "4268 WIEUCA OVERLOOK NE, ATLANTA GA 30342",
        "status": "ACA Pending",
        "date": "07/27/2026",
        "description": null,
        "owner": null,
        "tree_dbh": null,
        "tree_location": null,
        "reason_removal": null,
        "tree_description": null,
        "tree_number": null,
        "species": null
      },
      "geometry": {
        "type": "Point",
        "coordinates": [
          -84.372675199077,
          33.871154255908
        ]
      }
    },
    {
      "type": "Feature",
      "properties": {
        "record": "BA-202603537",
        "address": "2904 GLENWOOD AVE SE, ATLANTA GA 30317",
        "status": "ACA Pending",
        "date": "07/27/2026",
        "description": null,
        "owner": null,
        "tree_dbh": null,
        "tree_location": null,
        "reason_removal": null,
        "tree_description": null,
        "tree_number": null,
        "species": null
      },
      "geometry": {
        "type": "Point",
        "coordinates": [
          -84.291947359932,
          33.73898394568
        ]
      }
    },
    {
      "type": "Feature",
      "properties": {
        "record": "BA-202603543",
        "address": "1081 CUMBERLAND RD NE, ATLANTA GA 30306",
        "status": "ACA Pending",
        "date": "07/27/2026",
        "description": null,
        "owner": null,
        "tree_dbh": null,
        "tree_location": null,
        "reason_removal": null,
        "tree_description": null,
        "tree_number": null,
        "species": null
      },
      "geometry": {
        "type": "Point",
        "coordinates": [
          -84.351449002251,
          33.795642315926
        ]
      }
    },
    {
      "type": "Feature",
      "properties": {
        "record": "BA-202603534",
        "address": "1349 WESTVIEW DR SW, ATLANTA GA 30310",
        "status": "ACA Pending",
        "date": "07/27/2026",
        "description": null,
        "owner": null,
        "tree_dbh": null,
        "tree_location": null,
        "reason_removal": null,
        "tree_description": null,
        "tree_number": null,
        "species": null
      },
      "geometry": {
        "type": "Point",
        "coordinates": [
          -84.431402964686,
          33.747405049481
        ]
      }
    },
    {
      "type": "Feature",
      "properties": {
        "record": "BA-202603541",
        "address": "4231 WIEUCA OVERLOOK NE, ATLANTA GA 30342",
        "status": "ACA Pending",
        "date": "07/27/2026",
        "description": null,
        "owner": null,
        "tree_dbh": null,
        "tree_location": null,
        "reason_removal": null,
        "tree_description": null,
        "tree_number": null,
        "species": null
      },
      "geometry": {
        "type": "Point",
        "coordinates": [
          -84.372618391096,
          33.871049822072
        ]
      }
    },
    {
      "type": "Feature",
      "properties": {
        "record": "BA-202603525",
        "address": "2 EAGLE ROW NE, ATLANTA GA",
        "status": "ACA Pending",
        "date": "07/27/2026",
        "description": null,
        "owner": null,
        "tree_dbh": null,
        "tree_location": null,
        "reason_removal": null,
        "tree_description": null,
        "tree_number": null,
        "species": null
      },
      "geometry": {
        "type": "Point",
        "coordinates": [
          -84.323766622217,
          33.79511443867
        ]
      }
    },
    {
      "type": "Feature",
      "properties": {
        "record": "BA-202603535",
        "address": "467 LAKESHORE DR NE, ATLANTA GA 30307",
        "status": "ACA Pending",
        "date": "07/27/2026",
        "description": null,
        "owner": null,
        "tree_dbh": null,
        "tree_location": null,
        "reason_removal": null,
        "tree_description": null,
        "tree_number": null,
        "species": null
      },
      "geometry": {
        "type": "Point",
        "coordinates": [
          -84.324754919784,
          33.767737135687
        ]
      }
    },
    {
      "type": "Feature",
      "properties": {
        "record": "BA-202603536",
        "address": "3235 ARGONNE DR NW, ATLANTA GA 30305",
        "status": "ACA Pending",
        "date": "07/27/2026",
        "description": null,
        "owner": null,
        "tree_dbh": "24",
        "tree_location": "See Drawing",
        "reason_removal": "Dead tree",
        "tree_description": "double hardwood, oak speciesReason for Removal:Dead treeComments:Need to remove limbs for safety, busy street for both cars and pedestrians\n\t\t\n\t\n\t\n                                \n                            \n                        \n                    \n                        \n                            \n                                \n                                    \n                                        \n                                         Parcel Information\n                                \n                            \n                            \n                                \n                                    \n\t\tParcel Number:17 01420002015 *Block:--Lot:--Subdivision:--",
        "tree_number": "1",
        "species": "HW"
      },
      "geometry": {
        "type": "Point",
        "coordinates": [
          -84.406197981028,
          33.843607693314
        ]
      }
    }
  ]
}