{
  "type": "FeatureCollection",
  "features": [
    {
      "type": "Feature",
      "properties": {
        "record": "BA-202603992",
        "address": "656 EAST PELHAM RD NE, ATLANTA GA 30324",
        "status": "ACA Pending",
        "date": "08/14/2026",
        "description": null,
        "owner": null,
        "tree_dbh": "1",
        "tree_location": "Front, east side of yard",
        "reason_removal": "Dying tree",
        "tree_description": "Very large oakReason for Removal:Dying treeComments:I had an arborist from Arbor-nomics come to the house today and they think the tree is dead.\n\t\t\n\t\n\t\n                                \n                            \n                        \n                    \n                        \n                            \n                                \n                                    \n                                        \n                                         Parcel Information\n                                \n                            \n                            \n                                \n                                    \n\t\tParcel Number:17 00510001015 *Block:--Lot:--Subdivision:--",
        "tree_number": "1",
        "species": "Oak"
      },
      "geometry": {
        "type": "Point",
        "coordinates": [
          -84.365395266761,
          33.801866447961
        ]
      }
    },
    {
      "type": "Feature",
      "properties": {
        "record": "BA-202603974",
        "address": "2657 FORREST AVE NW, ATLANTA GA 30318",
        "status": "ACA Pending",
        "date": "08/14/2026",
        "description": null,
        "owner": null,
        "tree_dbh": null,
        "tree_location": null,
        "reason_removal": null,
        "tree_description": null,
        "tree_number": null,
        "species": null
      },
      "geometry": {
        "type": "Point",
        "coordinates": [
          -84.47448784411,
          33.812955261235
        ]
      }
    },
    {
      "type": "Feature",
      "properties": {
        "record": "BA-202603977",
        "address": "782 ROSEDALE AVE SE, ATLANTA GA 30312",
        "status": "ACA Pending",
        "date": "08/14/2026",
        "description": null,
        "owner": null,
        "tree_dbh": null,
        "tree_location": null,
        "reason_removal": null,
        "tree_description": null,
        "tree_number": null,
        "species": null
      },
      "geometry": {
        "type": "Point",
        "coordinates": [
          -84.36704951154,
          33.732492955452
        ]
      }
    },
    {
      "type": "Feature",
      "properties": {
        "record": "BA-202603980",
        "address": "618 IRWIN ST NE, ATLANTA GA 30312",
        "status": "ACA Pending",
        "date": "08/14/2026",
        "description": null,
        "owner": null,
        "tree_dbh": null,
        "tree_location": null,
        "reason_removal": null,
        "tree_description": null,
        "tree_number": null,
        "species": null
      },
      "geometry": {
        "type": "Point",
        "coordinates": [
          -84.367113731739,
          33.757646342107
        ]
      }
    },
    {
      "type": "Feature",
      "properties": {
        "record": "BA-202603978",
        "address": "490 BROWNLEE RD SW, ATLANTA GA 30311",
        "status": "ACA Pending",
        "date": "08/14/2026",
        "description": null,
        "owner": null,
        "tree_dbh": null,
        "tree_location": null,
        "reason_removal": null,
        "tree_description": null,
        "tree_number": null,
        "species": null
      },
      "geometry": {
        "type": "Point",
        "coordinates": [
          -84.496662276341,
          33.743008587807
        ]
      }
    },
    {
      "type": "Feature",
      "properties": {
        "record": "BA-202603973",
        "address": "3370 HABERSHAM RD NW, ATLANTA GA 30305",
        "status": "ACA Pending",
        "date": "08/14/2026",
        "description": null,
        "owner": null,
        "tree_dbh": null,
        "tree_location": null,
        "reason_removal": null,
        "tree_description": null,
        "tree_number": null,
        "species": null
      },
      "geometry": {
        "type": "Point",
        "coordinates": [
          -84.393696689145,
          33.847063382762
        ]
      }
    },
    {
      "type": "Feature",
      "properties": {
        "record": "BA-202603975",
        "address": "2478 FERNLEAF CT NW, ATLANTA GA 30318",
        "status": "ACA Pending",
        "date": "08/14/2026",
        "description": null,
        "owner": null,
        "tree_dbh": null,
        "tree_location": null,
        "reason_removal": null,
        "tree_description": null,
        "tree_number": null,
        "species": null
      },
      "geometry": {
        "type": "Point",
        "coordinates": [
          -84.439779272805,
          33.820862421328
        ]
      }
    },
    {
      "type": "Feature",
      "properties": {
        "record": "BA-202603976",
        "address": "712 GASKILL ST SE, ATLANTA GA 30316",
        "status": "ACA Pending",
        "date": "08/14/2026",
        "description": null,
        "owner": null,
        "tree_dbh": null,
        "tree_location": null,
        "reason_removal": null,
        "tree_description": null,
        "tree_number": null,
        "species": null
      },
      "geometry": {
        "type": "Point",
        "coordinates": [
          -84.364420214314,
          33.748283859583
        ]
      }
    },
    {
      "type": "Feature",
      "properties": {
        "record": "BA-202603987",
        "address": "720 HILL ST SE, ATLANTA GA 30315",
        "status": "ACA Pending",
        "date": "08/14/2026",
        "description": null,
        "owner": null,
        "tree_dbh": null,
        "tree_location": null,
        "reason_removal": null,
        "tree_description": null,
        "tree_number": null,
        "species": null
      },
      "geometry": {
        "type": "Point",
        "coordinates": [
          -84.378366785395,
          33.734984845725
        ]
      }
    },
    {
      "type": "Feature",
      "properties": {
        "record": "BA-202603989",
        "address": "1776 HELEN DR NE, ATLANTA GA 30306",
        "status": "ACA Pending",
        "date": "08/14/2026",
        "description": null,
        "owner": null,
        "tree_dbh": null,
        "tree_location": null,
        "reason_removal": null,
        "tree_description": null,
        "tree_number": null,
        "species": null
      },
      "geometry": {
        "type": "Point",
        "coordinates": [
          -84.339355957546,
          33.801917985025
        ]
      }
    },
    {
      "type": "Feature",
      "properties": {
        "record": "BA-202603982",
        "address": "685 CARON CIR NW, ATLANTA GA 00000",
        "status": "ACA Pending",
        "date": "08/14/2026",
        "description": null,
        "owner": null,
        "tree_dbh": null,
        "tree_location": null,
        "reason_removal": null,
        "tree_description": null,
        "tree_number": null,
        "species": null
      },
      "geometry": {
        "type": "Point",
        "coordinates": [
          -84.485386680335,
          33.774582945167
        ]
      }
    },
    {
      "type": "Feature",
      "properties": {
        "record": "BA-202603984",
        "address": "962 BOULEVARD SE, ATLANTA GA 30312",
        "status": "ACA Pending",
        "date": "08/14/2026",
        "description": null,
        "owner": null,
        "tree_dbh": null,
        "tree_location": null,
        "reason_removal": null,
        "tree_description": null,
        "tree_number": null,
        "species": null
      },
      "geometry": {
        "type": "Point",
        "coordinates": [
          -84.368324068055,
          33.72818312927
        ]
      }
    },
    {
      "type": "Feature",
      "properties": {
        "record": "BA-202603979",
        "address": "1218 WEST PACES FERRY RD NW, ATLANTA GA 30327",
        "status": "ACA Pending",
        "date": "08/14/2026",
        "description": null,
        "owner": null,
        "tree_dbh": null,
        "tree_location": null,
        "reason_removal": null,
        "tree_description": null,
        "tree_number": null,
        "species": null
      },
      "geometry": {
        "type": "Point",
        "coordinates": [
          -84.428024466587,
          33.849645892053
        ]
      }
    },
    {
      "type": "Feature",
      "properties": {
        "record": "26TMP-053338",
        "address": "25 VALLEY RD NW, ATLANTA GA 30305",
        "status": "",
        "date": "08/14/2026",
        "description": null,
        "owner": null,
        "tree_dbh": null,
        "tree_location": null,
        "reason_removal": null,
        "tree_description": null,
        "tree_number": null,
        "species": null
      },
      "geometry": {
        "type": "Point",
        "coordinates": [
          -84.389025368805,
          33.849004371296
        ]
      }
    },
    {
      "type": "Feature",
      "properties": {
        "record": "BA-202603983",
        "address": "37 CLIFTON ST NE, ATLANTA GA 30317",
        "status": "ACA Pending",
        "date": "08/14/2026",
        "description": null,
        "owner": "Aaron Levitt",
        "tree_dbh": "59",
        "tree_location": "Front left corner of property",
        "reason_removal": "Significant cavity/area of decay",
        "tree_description": "significant decay at base, dieback/decline exceeding 1/3 total canopyReason for Removal:Significant cavity/area of decayComments:Ribbon\n\t\t\n\t\n\t\n                                \n                            \n                        \n                    \n                        \n                            \n                                \n                                    \n                                        \n                                         Parcel Information\n                                \n                            \n                            \n                                \n                                    \n\t\tParcel Number:15 207 01 004 *Block:--Lot:--Subdivision:--",
        "tree_number": "1",
        "species": "Southern Red Oak"
      },
      "geometry": {
        "type": "Point",
        "coordinates": [
          -84.33168472165,
          33.754169823258
        ]
      }
    }
  ]
}