{
  "type": "FeatureCollection",
  "features": [
    {
      "type": "Feature",
      "properties": {
        "record": "BA-202603828",
        "address": "1919 WELLBOURNE DR NE, ATLANTA GA 30324",
        "status": "ACA Pending",
        "date": "08/08/2026",
        "description": null,
        "owner": null,
        "tree_dbh": "14",
        "tree_location": "located along property line between homes",
        "reason_removal": "Other",
        "tree_description": "Hazardous, leaning, destructiveReason for Removal:Other\n\t\t\n\t\n\t\n                                \n                            \n                        \n                    \n                        \n                            \n                                \n                                    \n                                        \n                                         Parcel Information\n                                \n                            \n                            \n                                \n                                    \n\t\tParcel Number:17 00500007005 *Block:--Lot:--Subdivision:--",
        "tree_number": "1",
        "species": "Hackberry"
      },
      "geometry": {
        "type": "Point",
        "coordinates": [
          -84.360037534244,
          33.807024344848
        ]
      }
    },
    {
      "type": "Feature",
      "properties": {
        "record": "BA-202603830",
        "address": "871 CARDOVA DR NE, ATLANTA GA 30324",
        "status": "ACA Pending",
        "date": "08/08/2026",
        "description": null,
        "owner": "BISHOP PAUL W",
        "tree_dbh": "55",
        "tree_location": "back yard by b fence",
        "reason_removal": "Uncorrectable defect",
        "tree_description": "very large failing oak with large crack developing in main crotch, held together with temp riggingReason for Removal:Uncorrectable defectComments:large lead peeling off has potinal to hit house behind fence\n\t\t\n\t\n\t\n                                \n                            \n                        \n                    \n                        \n                            \n                                \n                                    \n                                        \n                                         Parcel Information\n                                \n                            \n                            \n                                \n                                    \n\t\tParcel Number:17 00050004056 *Block:--Lot:--Subdivision:--",
        "tree_number": "1",
        "species": "water oak"
      },
      "geometry": {
        "type": "Point",
        "coordinates": [
          -84.359133452284,
          33.816659826458
        ]
      }
    },
    {
      "type": "Feature",
      "properties": {
        "record": "BA-202603827",
        "address": "2166 HOSEA L WILLIAMS DR NE, ATLANTA GA 30317",
        "status": "ACA Pending",
        "date": "08/08/2026",
        "description": null,
        "owner": null,
        "tree_dbh": null,
        "tree_location": null,
        "reason_removal": null,
        "tree_description": null,
        "tree_number": null,
        "species": null
      },
      "geometry": {
        "type": "Point",
        "coordinates": [
          -84.316976065041,
          33.751217283087
        ]
      }
    },
    {
      "type": "Feature",
      "properties": {
        "record": "BA-202603829",
        "address": "1919 WELLBOURNE DR NE, ATLANTA GA 30324",
        "status": "ACA Pending",
        "date": "08/08/2026",
        "description": null,
        "owner": null,
        "tree_dbh": null,
        "tree_location": null,
        "reason_removal": null,
        "tree_description": null,
        "tree_number": null,
        "species": null
      },
      "geometry": {
        "type": "Point",
        "coordinates": [
          -84.360037534244,
          33.807024344848
        ]
      }
    },
    {
      "type": "Feature",
      "properties": {
        "record": "BA-202603826",
        "address": "1600 PEACHTREE ST NW, ATLANTA GA 30309",
        "status": "ACA Pending",
        "date": "08/08/2026",
        "description": null,
        "owner": null,
        "tree_dbh": null,
        "tree_location": null,
        "reason_removal": null,
        "tree_description": null,
        "tree_number": null,
        "species": null
      },
      "geometry": {
        "type": "Point",
        "coordinates": [
          -84.390692767657,
          33.798019096223
        ]
      }
    }
  ]
}