{
  "type": "FeatureCollection",
  "features": [
    {
      "type": "Feature",
      "properties": {
        "record": "BA-202605157",
        "address": "2807 NORTH HILLS DR NE, ATLANTA GA 30305",
        "status": "ACA Pending",
        "date": "10/05/2026",
        "description": null,
        "owner": null,
        "tree_dbh": "36",
        "tree_location": "front right",
        "reason_removal": "Dying tree",
        "tree_description": "This tree has signs of ambrosia beetle as well as phytophthora root rot. The canopy has approximately 10% live canopy. Tree is DDH",
        "tree_number": "1",
        "species": "holly"
      },
      "geometry": {
        "type": "Point",
        "coordinates": [
          -84.372100637257,
          33.831158532488
        ]
      }
    },
    {
      "type": "Feature",
      "properties": {
        "record": "BA-202605155",
        "address": "2630 PEACHTREE BATTLE PL NW, ATLANTA GA 30327",
        "status": "ACA Pending",
        "date": "10/05/2026",
        "description": null,
        "owner": null,
        "tree_dbh": "12",
        "tree_location": "front yard",
        "reason_removal": "Dead tree",
        "tree_description": "Dead oak tree that we have been advised to have taken downReason for Removal:Dead treeComments:just looking to take down the single dead tree that is threatening the house\n\t\t\n\t\n\t\n                                \n                            \n                        \n                    \n                        \n                            \n                                \n                                    \n                                        \n                                         Parcel Information\n                                \n                            \n                            \n                                \n                                    \n\t\tParcel Number:17 01950008001 *Block:--Lot:--Subdivision:--",
        "tree_number": "1",
        "species": "oak"
      },
      "geometry": {
        "type": "Point",
        "coordinates": [
          -84.43276350096,
          33.827525151691
        ]
      }
    },
    {
      "type": "Feature",
      "properties": {
        "record": "BA-202605169",
        "address": "125 MONTGOMERY FERRY DR NE, ATLANTA GA 30309",
        "status": "ACA Pending",
        "date": "10/05/2026",
        "description": null,
        "owner": "Jake Mendel",
        "tree_dbh": "12",
        "tree_location": "Front yard",
        "reason_removal": "Other",
        "tree_description": null,
        "tree_number": "1",
        "species": "Crepe myrtle"
      },
      "geometry": {
        "type": "Point",
        "coordinates": [
          -84.377402026077,
          33.799292086543
        ]
      }
    },
    {
      "type": "Feature",
      "properties": {
        "record": "BA-202605158",
        "address": "384 CATIVO DR SW, ATLANTA GA 30311",
        "status": "ACA Pending",
        "date": "10/05/2026",
        "description": null,
        "owner": "Patricia Burkes",
        "tree_dbh": "20",
        "tree_location": "Right side of backyard",
        "reason_removal": "Dying tree",
        "tree_description": "fusiform canker midway up trunkReason for Removal:Uncorrectable defectComments:Orange paint\n\t\t\n\t\t\n\t\t\tTree number:2Species:PineTree Size (DBH):26Tree location:Middle of backyardDescription of Tree:fusiform canker at baseReason for Removal:Uncorrectable defectComments:Orange paint\n\t\t\n\t\t\n\t\t\tTree number:3Species:PineTree Size (DBH):17Tree location:Middle of backyardDescription of Tree:fusiform canker at baseReason for Removal:Uncorrectable defectComments:Orange paint\n\t\t\n\t\t\n\t\t\tTree number:4Species:PineTree Size (DBH):18Tree location:Right side of backyardDescription of Tree:Dead sparReason for Removal:Dying treeComments:Orange paint\n\t\t\n\t\n\t\n                                \n                            \n                        \n                    \n                        \n                            \n                                \n                                    \n                                        \n                                         Parcel Information\n                                \n                            \n                            \n                                \n                                    \n\t\tParcel Number:14 02040001060 *Block:--Lot:--Subdivision:--",
        "tree_number": "1",
        "species": "Pine"
      },
      "geometry": {
        "type": "Point",
        "coordinates": [
          -84.470433369905,
          33.745380103862
        ]
      }
    },
    {
      "type": "Feature",
      "properties": {
        "record": "BA-202605171",
        "address": "1450 VAN VLECK AVE SE, ATLANTA GA 30316",
        "status": "ACA Pending",
        "date": "10/05/2026",
        "description": null,
        "owner": "Connor DeBruin and Caroline Snyder",
        "tree_dbh": "3040",
        "tree_location": "Rear right of house, as viewed from the street",
        "reason_removal": "Dead tree",
        "tree_description": "Large Southern Red Oak with shelf/bracket fungus growing along a vertical seam on the trunk and a hollow sound when knocked. Large open cavity at the base with soft, termite-damaged decayed wood that can be pulled out by hand. Tree is held up mainly by the root flares on either side of the cavity. Located next to the fence and close to the house. See image0.jpeg (trunk/fungus) and image1.jpeg (base cavity).Reason for Removal:Dead treeComments:Assessed by an ISA-certified, TRAQ-qualified arborist from Arborguard Tree Specialists on 10/1/2026, who rated the tree HIGH RISK of failure due to extensive decay on the back side and recommended removal as soon as possible. Four tree companies have inspected the tree and all recommended removal.\n\t\t\n\t\n\t\n                                \n                            \n                        \n                    \n                        \n                            \n                                \n                                    \n                                        \n                                         Parcel Information\n                                \n                            \n                            \n                                \n                                    \n\t\tParcel Number:15 175 04 122 *Block:--Lot:--Subdivision:--",
        "tree_number": "1",
        "species": "Southern Red Oak"
      },
      "geometry": {
        "type": "Point",
        "coordinates": [
          -84.339861688482,
          33.736414824884
        ]
      }
    },
    {
      "type": "Feature",
      "properties": {
        "record": "26TMP-065752",
        "address": "2291 BAYWOOD DR SE, ATLANTA GA 30315",
        "status": "",
        "date": "10/05/2026",
        "description": null,
        "owner": null,
        "tree_dbh": null,
        "tree_location": null,
        "reason_removal": null,
        "tree_description": null,
        "tree_number": null,
        "species": null
      },
      "geometry": {
        "type": "Point",
        "coordinates": [
          -84.388024394547,
          33.691634701859
        ]
      }
    },
    {
      "type": "Feature",
      "properties": {
        "record": "BA-202605142",
        "address": "906 VIRGINIA CIR NE, ATLANTA GA 00000",
        "status": "ACA Pending",
        "date": "10/05/2026",
        "description": null,
        "owner": "Amy Parker",
        "tree_dbh": "33",
        "tree_location": "backyard close to alley",
        "reason_removal": "Significant cavity/area of decay",
        "tree_description": "33in Water Oak located in the back by the alleyway. Tree has history of multiple limb failures and has buttress rot as indicated by the presence of fungal fruiting bodies.Reason for Removal:Significant cavity/area of decay\n\t\t\n\t\n\t\n                                \n                            \n                        \n                    \n                        \n                            \n                                \n                                    \n                                        \n                                         Parcel Information\n                                \n                            \n                            \n                                \n                                    \n\t\tParcel Number:17 00010007033 *Block:--Lot:--Subdivision:--",
        "tree_number": "1",
        "species": "Water Oak"
      },
      "geometry": {
        "type": "Point",
        "coordinates": [
          -84.358009263642,
          33.78107008239
        ]
      }
    },
    {
      "type": "Feature",
      "properties": {
        "record": "26TMP-065760",
        "address": "2961 MOCKINGBIRD LN SW, ATLANTA GA 30311",
        "status": "",
        "date": "10/05/2026",
        "description": null,
        "owner": null,
        "tree_dbh": null,
        "tree_location": null,
        "reason_removal": null,
        "tree_description": null,
        "tree_number": null,
        "species": null
      },
      "geometry": {
        "type": "Point",
        "coordinates": [
          -84.484286325861,
          33.72769773048
        ]
      }
    },
    {
      "type": "Feature",
      "properties": {
        "record": "BA-202605166",
        "address": "3230 WEST ROXBORO RD NE, ATLANTA GA 30324",
        "status": "ACA Pending",
        "date": "10/05/2026",
        "description": null,
        "owner": "MACARIO A VEGA LEDERER",
        "tree_dbh": "7",
        "tree_location": "FRONT OF HOUSE",
        "reason_removal": "Other",
        "tree_description": "CREPEMYRTLE WITH SEVER PRUNING AND SCALESReason for Removal:Diseased\n\t\t\n\t\t\n\t\t\tTree number:18Species:CREPEMYRTLETree Size (DBH):7Tree location:FRONT OF HOUSEDescription of Tree:CREPEMYRTLE WITH SEVER PRUNING AND SCALESReason for Removal:DiseasedComments:DAVID GENNNARO STATED THAT TREE WAS A CANDIDATE FOR DDH DUE TO EXTREME PRUNING\n\t\t\n\t\t\n\t\t\tTree number:7Species:POPLARTree Size (DBH):36Tree location:FRONT LEFT OF DRIVEWAYDescription of Tree:HIGH CANOPY ON STEEP SLOPE WITH IMPACT TO STRUCTURAL ROOT PLATE DUE TO RETAINING WALLSReason for Removal:OtherComments:DAVID GENNNARO STATED THAT TREE MAY BE A CANDIDATE FOR DDH DUE TO IMPACT TO STRUCTURAL ROOT PLATE FROM RETAINING WALL AND STEEP SLOPE\n\t\t\n\t\t\n\t\t\tTree number:9Species:POPLARTree Size (DBH):28Tree location:LEFT SIDE OF HOUSEDescription of Tree:HIGH CANOPY ON STEEP SLOPE WITH IMPACT TO STRUCTURAL ROOT PLATE DUE TO RETAINING WALLSReason for Removal:OtherComments:DAVID GENNNARO STATED THAT TREE MAY BE A CANDIDATE FOR DDH DUE TO IMPACT TO STRUCTURAL ROOT PLATE FROM RETAINING WALL AND STEEP SLOPE\n\t\t\n\t\t\n\t\t\tTree number:10Species:POPLARTree Size (DBH):45Tree location:LEFT SIDE OF HOUSEDescription of Tree:HIGH CANOPY ON STEEP SLOPE WITH IMPACT TO STRUCTURAL ROOT PLATE DUE TO RETAINING WALLSReason for Removal:OtherComments:DAVID GENNNARO STATED THAT TREE MAY BE A CANDIDATE FOR DDH DUE TO IMPACT TO STRUCTURAL ROOT PLATE FROM RETAINING WALL AND STEEP SLOPE\n\t\t\n\t\n\t\n                                \n                            \n                        \n                    \n                        \n                            \n                                \n                                    \n                                        \n                                         Parcel Information\n                                \n                            \n                            \n                                \n                                    \n\t\tParcel Number:17 00080006037 *Block:--Lot:--Subdivision:--",
        "tree_number": "17",
        "species": "POPLAR"
      },
      "geometry": {
        "type": "Point",
        "coordinates": [
          -84.350532294045,
          33.843054308891
        ]
      }
    },
    {
      "type": "Feature",
      "properties": {
        "record": "BA-202605151",
        "address": "341 COCHRAN DR NW, ATLANTA GA 30327",
        "status": "ACA Pending",
        "date": "10/05/2026",
        "description": null,
        "owner": "CARUSI ANGELO A",
        "tree_dbh": "30",
        "tree_location": "back yard East side",
        "reason_removal": "Other",
        "tree_description": "Large and leaning, tree otherwise appears healthyReason for Removal:OtherComments:Concern that rains could loosen soil to point where tree would fall with strong winds\n\t\t\n\t\n\t\n                                \n                            \n                        \n                    \n                        \n                            \n                                \n                                    \n                                        \n                                         Parcel Information\n                                \n                            \n                            \n                                \n                                    \n\t\tParcel Number:17 01380002079 *Block:--Lot:--Subdivision:--",
        "tree_number": "1",
        "species": "poplar"
      },
      "geometry": {
        "type": "Point",
        "coordinates": [
          -84.399022757164,
          33.877247905339
        ]
      }
    },
    {
      "type": "Feature",
      "properties": {
        "record": "26TMP-065353",
        "address": "1054 CRANE RD NE, ATLANTA GA 30324",
        "status": "",
        "date": "10/05/2026",
        "description": null,
        "owner": null,
        "tree_dbh": null,
        "tree_location": null,
        "reason_removal": null,
        "tree_description": null,
        "tree_number": null,
        "species": null
      },
      "geometry": {
        "type": "Point",
        "coordinates": [
          -84.354365867727,
          33.839748637275
        ]
      }
    },
    {
      "type": "Feature",
      "properties": {
        "record": "BA-202605170",
        "address": "3725 ADKINS RD NW, ATLANTA GA 30331",
        "status": "ACA Pending",
        "date": "10/05/2026",
        "description": null,
        "owner": null,
        "tree_dbh": "48",
        "tree_location": "back yard",
        "reason_removal": "Dead tree",
        "tree_description": "tall dead or dying tree Reason for Removal:Dead treeComments:backyard area. Tree my possibly fall on property\n\t\t\n\t\t\n\t\t\tTree number:2Species:pineTree Size (DBH):45Tree location:back yardDescription of Tree:tall dead or dying Reason for Removal:Dead treeComments:tree moves when wind is blowing. Concerns of tree falling on home\n\t\t\n\t\t\n\t\t\tTree number:3Species:pineTree Size (DBH):50Tree location:back yardDescription of Tree:tall dead or dyingReason for Removal:Dead treeComments:tree moves when wind is blowing. Concerns of tree falling on home\n\t\t\n\t\t\n\t\t\tTree number:4Species:pineTree Size (DBH):60Tree location:back yard Description of Tree:dead or dying treeReason for Removal:Dead treeComments:tree moves when wind is blowing. Concerns of tree falling on home\n\t\t\n\t\n\t\n                                \n                            \n                        \n                    \n                        \n                            \n                                \n                                    \n                                        \n                                         Parcel Information\n                                \n                            \n                            \n                                \n                                    \n\t\tParcel Number:14F00160002080 *Block:--Lot:--Subdivision:--",
        "tree_number": "1",
        "species": "pine"
      },
      "geometry": {
        "type": "Point",
        "coordinates": [
          -84.509372372252,
          33.773509418848
        ]
      }
    },
    {
      "type": "Feature",
      "properties": {
        "record": "26TMP-065746",
        "address": "953 HARWELL ST NW, ATLANTA GA 30314",
        "status": "",
        "date": "10/05/2026",
        "description": null,
        "owner": null,
        "tree_dbh": null,
        "tree_location": null,
        "reason_removal": null,
        "tree_description": null,
        "tree_number": null,
        "species": null
      },
      "geometry": {
        "type": "Point",
        "coordinates": [
          -84.418583114159,
          33.755625795106
        ]
      }
    },
    {
      "type": "Feature",
      "properties": {
        "record": "BA-202605156",
        "address": "720 AMSTERDAM AVE NE, ATLANTA GA 30306",
        "status": "ACA Pending",
        "date": "10/05/2026",
        "description": null,
        "owner": "ADAMS GORDON R",
        "tree_dbh": "30",
        "tree_location": "Rear",
        "reason_removal": "Dead tree",
        "tree_description": "Dead",
        "tree_number": "1",
        "species": "Pine"
      },
      "geometry": {
        "type": "Point",
        "coordinates": [
          -84.363499741399,
          33.787670852182
        ]
      }
    },
    {
      "type": "Feature",
      "properties": {
        "record": "BA-202605167",
        "address": "346 CLIFTON RD NE, ATLANTA GA 30307",
        "status": "ACA Pending",
        "date": "10/05/2026",
        "description": null,
        "owner": null,
        "tree_dbh": "22",
        "tree_location": "Back left",
        "reason_removal": "Significant cavity/area of decay",
        "tree_description": "22-in Oak back left of house has fruiting bodies Decay and hole at baseReason for Removal:Significant cavity/area of decayComments:22-in Oak back left of house has fruiting bodies Decay and hole at base\n\t\t\n\t\n\t\n                                \n                            \n                        \n                    \n                        \n                            \n                                \n                                    \n                                        \n                                         Parcel Information\n                                \n                            \n                            \n                                \n                                    \n\t\tParcel Number:15 210 01 128 *Block:--Lot:--Subdivision:--",
        "tree_number": "1",
        "species": "Oak"
      },
      "geometry": {
        "type": "Point",
        "coordinates": [
          -84.333052729412,
          33.76411731616
        ]
      }
    },
    {
      "type": "Feature",
      "properties": {
        "record": "BA-202605154",
        "address": "1499 LANIER PL NE, ATLANTA GA 30306",
        "status": "ACA Pending",
        "date": "10/05/2026",
        "description": null,
        "owner": null,
        "tree_dbh": "9",
        "tree_location": "Front of the house",
        "reason_removal": "Uncorrectable defect",
        "tree_description": "Dangerous tree leaning over powerlines.Reason for Removal:Uncorrectable defect\n\t\t\n\t\n\t\n                                \n                            \n                        \n                    \n                        \n                            \n                                \n                                    \n                                        \n                                         Parcel Information\n                                \n                            \n                            \n                                \n                                    \n\t\tParcel Number:17 00020003001 *Block:--Lot:--Subdivision:--",
        "tree_number": "1",
        "species": "Oak"
      },
      "geometry": {
        "type": "Point",
        "coordinates": [
          -84.354451648971,
          33.793820048942
        ]
      }
    },
    {
      "type": "Feature",
      "properties": {
        "record": "BA-202605164",
        "address": "1560 CLAIRMONT RD NE, ATLANTA GA",
        "status": "ACA Pending",
        "date": "10/05/2026",
        "description": null,
        "owner": "Emory University",
        "tree_dbh": "18",
        "tree_location": "1700 Starvine Way",
        "reason_removal": "Dead tree",
        "tree_description": "dead pine Reason for Removal:Dead treeComments:located in the meadow on the side of Clifton School at 1700 Starvine Way\n\t\t\n\t\t\n\t\t\tTree number:2Species:pine Tree Size (DBH):22Tree location:1700 Starvine WayDescription of Tree:fungal bodies, dead pineReason for Removal:Dead treeComments:located on hill on side of Clifton Childcare 1700 Starvine Way\n\t\t\n\t\t\n\t\t\tTree number:3Species:pineTree Size (DBH):21Tree location:1700 Starvine WayDescription of Tree:dead pineReason for Removal:Dead treeComments:located on hill on side of Clifton Childcare at 1700 Starvine Way\n\t\t\n\t\n\t\n                                \n                            \n                        \n                    \n                        \n                            \n                                \n                                    \n                                        \n                                         Parcel Information\n                                \n                            \n                            \n                                \n                                    \n\t\tParcel Number:18 060 02 001 *Block:--Lot:--Subdivision:EMORY ANNEXATION",
        "tree_number": "1",
        "species": "pine"
      },
      "geometry": {
        "type": "Point",
        "coordinates": [
          -84.30658228993,
          33.827035024468
        ]
      }
    },
    {
      "type": "Feature",
      "properties": {
        "record": "BA-202605152",
        "address": "27 ATLANTA AVE SE, ATLANTA GA 30315",
        "status": "ACA Pending",
        "date": "10/05/2026",
        "description": null,
        "owner": "MAC CRESCENT NO TWO LLC",
        "tree_dbh": "30",
        "tree_location": "Between 27 Atlanta Ave and 31 Atlanta Ave",
        "reason_removal": "Other",
        "tree_description": "Unsure of the species or size (I just estimated), or what tree number means. It is a large tree between my house and my neighbor's house. Reason for Removal:OtherComments:My neighbor has sent me a formal letter of concerns and has asked me to submit this application because it is dropping branches on her house and causing damage. She believes it may be dying or diseased. I have no idea the state of the tree so am hoping an arborist can help. \n\t\t\n\t\n\t\n                                \n                            \n                        \n                    \n                        \n                            \n                                \n                                    \n                                        \n                                         Parcel Information\n                                \n                            \n                            \n                                \n                                    \n\t\tParcel Number:14 00550001002 *Block:--Lot:--Subdivision:--",
        "tree_number": "1",
        "species": "Unsure"
      },
      "geometry": {
        "type": "Point",
        "coordinates": [
          -84.386956465924,
          33.730338023
        ]
      }
    },
    {
      "type": "Feature",
      "properties": {
        "record": "BA-202605168",
        "address": "1347 NORTHVIEW AVE NE, ATLANTA GA 30306",
        "status": "ACA Pending",
        "date": "10/05/2026",
        "description": null,
        "owner": "REINER MITCHELL BUDDY MENKES JENNY ANNE",
        "tree_dbh": "24",
        "tree_location": "left of house between neighbors",
        "reason_removal": "Invasive/undesirable tree",
        "tree_description": "24in Bradford Pear\n-within 5ft of house\n-decaying main stem\n-damaging property \n-limb failure\n-tip declineReason for Removal:Invasive/undesirable treeComments:24in Bradford Pear\n-within 5ft of house\n-decaying main stem\n-damaging property \n-limb failure",
        "tree_number": "1",
        "species": "Bradford Pear"
      },
      "geometry": {
        "type": "Point",
        "coordinates": [
          -84.35754593254,
          33.791644363846
        ]
      }
    },
    {
      "type": "Feature",
      "properties": {
        "record": "BA-202605150",
        "address": "1295 DONNELLY AVE SW, APT1, ATLANTA GA 30310",
        "status": "ACA Pending",
        "date": "10/05/2026",
        "description": null,
        "owner": "TIDELANDS EAST LLC",
        "tree_dbh": "24",
        "tree_location": "at end of leasing office bldg",
        "reason_removal": "Other",
        "tree_description": "large tree that leans more and more each year it seems, split in middle had grown deeper 50 ft tall almostReason for Removal:OtherComments:mulitiple issues with the poor tree.  it is leaning over 2 buldings probably due to damage from lightening strike down middle splitting it apart plus there is rot as we look up about 20 ft and the split widens.\n\t\t\n\t\n\t\n                                \n                            \n                        \n                    \n                        \n                            \n                                \n                                    \n                                        \n                                         Parcel Information\n                                \n                            \n                            \n                                \n                                    \n\t\tParcel Number:14 0139  LL023 *Block:--Lot:--Subdivision:--",
        "tree_number": "1",
        "species": "southern oak"
      },
      "geometry": {
        "type": "Point",
        "coordinates": [
          -84.430006799359,
          33.734992954445
        ]
      }
    },
    {
      "type": "Feature",
      "properties": {
        "record": "BA-202605146",
        "address": "1218 WEST PACES FERRY RD NW, ATLANTA GA 30327",
        "status": "ACA Pending",
        "date": "10/05/2026",
        "description": null,
        "owner": "HEALEY INVESTMENTS L P  ET AL",
        "tree_dbh": "7",
        "tree_location": "parking lot, behind the wall",
        "reason_removal": "Uncorrectable defect",
        "tree_description": "Tree exhibits poor structural form, including a forked stem, unbalanced crown, and overextended lateral branching. The tree is growing immediately adjacent to the existing brick retaining wall. The wall exhibits significant localized bulging, displacement, and separation of masonry near the tree. Continued trunk and root growth presents an ongoing conflict with the retaining wall and may contribute to further displacement. Removal is recommended due to the tree’s poor structural form and its proximity to the visibly compromised retaining wallReason for Removal:Uncorrectable defect\n\t\t\n\t\t\n\t\t\tTree number:2Species:Pinus taedaTree Size (DBH):17Tree location:parking lot, behind the wallDescription of Tree:Tree is growing immediately adjacent to the existing brick retaining wall, with the trunk and root flare in direct conflict with the wall. The adjacent masonry exhibits substantial outward displacement, bulging, and separation along the mortar joints. Continued radial trunk and root growth is incompatible with the existing wall and may contribute to progressive displacement. Removal is recommended to eliminate the tree-wall conflict and facilitate necessary retaining wall repair/reconstruction.Reason for Removal:Uncorrectable defect\n\t\t\n\t\t\n\t\t\tTree number:3Species:PinusTree Size (DBH):7Tree location:parking lot, behind the wallDescription of Tree:Tree exhibits significant crown defects, including a dead/broken leader and previous stem failure within the upper crown. The resulting crown is structurally compromised and unbalanced. The tree is also growing immediately adjacent to the existing retaining wall, creating an additional site conflict. Removal is recommended due to the dead leader, compromised crown structure, and proximity to the retaining wall.Reason for Removal:Dying tree\n\t\t\n\t\t\n\t\t\tTree number:4Species:Pinus taedaTree Size (DBH):7Tree location:parking lot, behind the wallDescription of Tree:Tree exhibits a pronounced phototropic lean and an unbalanced crown with overextended lateral branching. The asymmetric growth pattern has resulted in poor structural form and crown distribution. Removal is recommended due to the tree’s poor structural form and site constraints associated with the retaining wall.Reason for Removal:Uncorrectable defect\n\t\t\n\t\t\n\t\t\tTree number:5Species:Pinus taeda Tree Size (DBH):7Tree location:parking lot behind the wallDescription of Tree:Tree exhibits a pronounced phototropic lean and an unbalanced crown with overextended lateral branching. The asymmetric growth pattern has resulted in poor structural form and crown distribution. Removal is recommended due to the tree’s poor structural form and site constraints associated with the retaining wall.Reason for Removal:Uncorrectable defect\n\t\t\n\t\t\n\t\t\tTree number:6Species:Pinus taedaTree Size (DBH):8Tree location:parking lot behind the wallDescription of Tree:Tree exhibits a pronounced phototropic lean and an unbalanced crown with overextended lateral branching. The asymmetric growth pattern has resulted in poor structural form and crown distribution. Removal is recommended due to the tree’s poor structural form and site constraints associated with the retaining wall.Reason for Removal:Uncorrectable defect\n\t\t\n\t\t\n\t\t\tTree number:7Species:Pinus taedaTree Size (DBH):22Tree location:parking lot behind the wallDescription of Tree:Tree is a mature pine growing immediately upslope of and in close proximity to the existing retaining wall. Due to its size and location, the tree's structural root system likely extends into the area associated with the wall and its reconstruction. Retaining-wall repair and associated excavation may result in substantial disturbance to the tree's structural rooting area. Additionally, removal of the adjacent pines will alter the tree's existing stand conditions and increase its exposure to wind loading. Due to the anticipated root-zone disturbance, proximity to the retaining wall, and change in surrounding stand conditions, removal is recommended as part of the retaining-wall reconstruction.Reason for Removal:Uncorrectable defect\n\t\t\n\t\t\n\t\t\tTree number:8Species:PinusTree Size (DBH):8Tree location:parking lot, behind the wall Description of Tree:Tree exhibits a pronounced phototropic lean and an unbalanced crown with overextended lateral branching. The asymmetric growth pattern has resulted in poor structural form and crown distribution. Removal is recommended due to the tree’s poor structural form and site constraints associated with the retaining wall.Reason for Removal:Uncorrectable defect\n\t\t\n\t\n\t\n                                \n                            \n                        \n                    \n                        \n                            \n                                \n                                    \n                                        \n                                         Parcel Information\n                                \n                            \n                            \n                                \n                                    \n\t\tParcel Number:17 01980001032 *Block:--Lot:--Subdivision:--",
        "tree_number": "1",
        "species": "Pinus"
      },
      "geometry": {
        "type": "Point",
        "coordinates": [
          -84.428024466587,
          33.849645892053
        ]
      }
    },
    {
      "type": "Feature",
      "properties": {
        "record": "26TMP-065732",
        "address": "1575 NORTHSIDE DR NW, A, ATLANTA GA 30318",
        "status": "",
        "date": "10/05/2026",
        "description": null,
        "owner": null,
        "tree_dbh": null,
        "tree_location": null,
        "reason_removal": null,
        "tree_description": null,
        "tree_number": null,
        "species": null
      },
      "geometry": {
        "type": "Point",
        "coordinates": [
          -84.407772340192,
          33.799525207772
        ]
      }
    },
    {
      "type": "Feature",
      "properties": {
        "record": "BA-202605163",
        "address": "1433 NORTH MORNINGSIDE DR NE, ATLANTA GA 30306",
        "status": "Issued",
        "date": "10/05/2026",
        "description": null,
        "owner": "Hamilton Reavey",
        "tree_dbh": "12",
        "tree_location": "Back",
        "reason_removal": "Uncorrectable defect",
        "tree_description": "Root/ground failure, tree uprooted onto retaining wall and driveway blocking accessReason for Removal:Uncorrectable defect\n\t\t\n\t\n\t\n                                \n                            \n                        \n                    \n                        \n                            \n                                \n                                    \n                                        \n                                         Parcel Information\n                                \n                            \n                            \n                                \n                                    \n\t\tParcel Number:17 00020001017 *Block:--Lot:--Subdivision:--",
        "tree_number": "1",
        "species": "Flowering Pear"
      },
      "geometry": {
        "type": "Point",
        "coordinates": [
          -84.35755453293,
          33.79358925296
        ]
      }
    },
    {
      "type": "Feature",
      "properties": {
        "record": "26TMP-065750",
        "address": "871 SMITH ST SW, ATLANTA GA 30310",
        "status": "",
        "date": "10/05/2026",
        "description": null,
        "owner": null,
        "tree_dbh": null,
        "tree_location": null,
        "reason_removal": null,
        "tree_description": null,
        "tree_number": null,
        "species": null
      },
      "geometry": {
        "type": "Point",
        "coordinates": [
          -84.400865436622,
          33.731211028109
        ]
      }
    },
    {
      "type": "Feature",
      "properties": {
        "record": "BA-202605144",
        "address": "3975 STATEWOOD RD NE, ATLANTA GA 30342",
        "status": "ACA Pending",
        "date": "10/05/2026",
        "description": null,
        "owner": null,
        "tree_dbh": "26",
        "tree_location": "front yard",
        "reason_removal": "Dead tree",
        "tree_description": "as you can see in the picture all three pines are located together and are dying. the homeowner is worried they can come down or break limbs in a sudden storm Reason for Removal:Dying tree\n\t\t\n\t\t\n\t\t\tTree number:2Species:pineTree Size (DBH):15Tree location:front yardDescription of Tree:this is 2 of 3 dead pines the homeowner would like to remove Reason for Removal:Dead tree\n\t\t\n\t\t\n\t\t\tTree number:3Species:pineTree Size (DBH):18Tree location:front yardDescription of Tree:this is 3 of 3 dead pines in the front yard the homeowner would like removed Reason for Removal:Dead tree\n\t\t\n\t\n\t\n                                \n                            \n                        \n                    \n                        \n                            \n                                \n                                    \n                                        \n                                         Parcel Information\n                                \n                            \n                            \n                                \n                                    \n\t\tParcel Number:17 00430007041 *Block:--Lot:--Subdivision:--",
        "tree_number": "1",
        "species": "pine"
      },
      "geometry": {
        "type": "Point",
        "coordinates": [
          -84.366692929445,
          33.863995086388
        ]
      }
    },
    {
      "type": "Feature",
      "properties": {
        "record": "BA-202605145",
        "address": "20 BATES AVE NE, ATLANTA GA 30317",
        "status": "ACA Pending",
        "date": "10/05/2026",
        "description": null,
        "owner": "GLOVER JOHN C IV RODD TONI D",
        "tree_dbh": "12",
        "tree_location": "center right rear growing out of the driveway",
        "reason_removal": "Dying tree",
        "tree_description": "Dying tree",
        "tree_number": "1",
        "species": "cherry"
      },
      "geometry": {
        "type": "Point",
        "coordinates": [
          -84.317533333497,
          33.752135363426
        ]
      }
    },
    {
      "type": "Feature",
      "properties": {
        "record": "BA-202605162",
        "address": "388 COCHRAN DR NW, ATLANTA GA 30327",
        "status": "Accepted",
        "date": "10/05/2026",
        "description": null,
        "owner": null,
        "tree_dbh": "25",
        "tree_location": "front Right",
        "reason_removal": "Dying tree",
        "tree_description": "This is an invasive species.Reason for Removal:Dying tree\n\t\t\n\t\n\t\n                                \n                            \n                        \n                    \n                        \n                            \n                                \n                                    \n                                        \n                                         Parcel Information\n                                \n                            \n                            \n                                \n                                    \n\t\tParcel Number:17 01380002050 *Block:--Lot:--Subdivision:--",
        "tree_number": "1",
        "species": "Bradford pear"
      },
      "geometry": {
        "type": "Point",
        "coordinates": [
          -84.399978578585,
          33.877159649818
        ]
      }
    },
    {
      "type": "Feature",
      "properties": {
        "record": "BA-202605143",
        "address": "2660 LENOX RD NE, ATLANTA GA 30324",
        "status": "Accepted",
        "date": "10/05/2026",
        "description": null,
        "owner": "Lenox Pointe Owners Association",
        "tree_dbh": "14",
        "tree_location": "Rear of Unit 50",
        "reason_removal": "Dying tree",
        "tree_description": "Trees have significant canopy diebackReason for Removal:Dying treeComments:Site map\n\t\t\n\t\t\n\t\t\tTree number:2Species:Pin OakTree Size (DBH):15Tree location:trees are located in the main corridor to the complexDescription of Tree:Trees have significant canopy diebackReason for Removal:Dying treeComments:Site map\n\t\t\n\t\t\n\t\t\tTree number:3Species:Pin OakTree Size (DBH):16Tree location:trees are located in the main corridor to the complexDescription of Tree:Trees have significant canopy diebackReason for Removal:Dying tree\n\t\t\n\t\t\n\t\t\tTree number:4Species:Pin OakTree Size (DBH):17Tree location:trees are located in the main corridor to the complexDescription of Tree:Trees have significant canopy diebackReason for Removal:Dying treeComments:Site plan\n\t\t\n\t\t\n\t\t\tTree number:5Species:Pin OakTree Size (DBH):18Tree location:trees are located in the main corridor to the complexDescription of Tree:Trees have significant canopy diebackReason for Removal:Dying treeComments:Site plan\n\t\t\n\t\t\n\t\t\tTree number:6Species:Pin OakTree Size (DBH):20Tree location:trees are located in the main corridor to the complexDescription of Tree:Trees have significant canopy diebackReason for Removal:Dying treeComments:Site plan\n\t\t\n\t\t\n\t\t\tTree number:51Species:River BirchTree Size (DBH):10Tree location:tree is located near the retention pondDescription of Tree:Decay at baseReason for Removal:Significant cavity/area of decayComments:Site plan\n\t\t\n\t\t\n\t\t\tTree number:38Species:Cherry LaurelTree Size (DBH):9Tree location:trees are located in front of building 18Description of Tree:Significant canopy declineReason for Removal:Dying treeComments:Site plan\n\t\t\n\t\t\n\t\t\tTree number:39Species:Cherry LaurelTree Size (DBH):9Tree location:trees are located in front of building 18Description of Tree:Significant canopy declineReason for Removal:Dying treeComments:Site plan\n\t\t\n\t\t\n\t\t\tTree number:10Species:RiverbirchTree Size (DBH):19Tree location:Rear of Unit 50Description of Tree:Lean/restricted root spaceReason for Removal:Uncorrectable defectComments:Site plan\n\t\t\n\t\t\n\t\t\tTree number:13Species:Cherry LaurelTree Size (DBH):12Tree location:Rear of 42Description of Tree:Tree in declineReason for Removal:Dying treeComments:Site plan\n\t\t\n\t\t\n\t\t\tTree number:7Species:River BirchTree Size (DBH):8Tree location:Bldg 18Description of Tree:Tree is in decline/restricted root spaceReason for Removal:Uncorrectable defectComments:Site plan\n\t\t\n\t\t\n\t\t\tTree number:8Species:MapleTree Size (DBH):24Tree location:Rear of 42Description of Tree:Significant canopy declineReason for Removal:Dying treeComments:Site plan\n\t\t\n\t\n\t\n                                \n                            \n                        \n                    \n                        \n                            \n                                \n                                    \n                                        \n                                         Parcel Information\n                                \n                            \n                            \n                                \n                                    \n\t\tParcel Number:17 00060004049 *Block:--Lot:--Subdivision:--",
        "tree_number": "1",
        "species": "Pin Oak"
      },
      "geometry": {
        "type": "Point",
        "coordinates": [
          -84.356818681964,
          33.832343561979
        ]
      }
    },
    {
      "type": "Feature",
      "properties": {
        "record": "BA-202605165",
        "address": "1847 HARBIN RD SW, ATLANTA GA 30311",
        "status": "Accepted",
        "date": "10/05/2026",
        "description": null,
        "owner": "BOOZER MAMIE LOU RILEY",
        "tree_dbh": "26",
        "tree_location": "Backyard",
        "reason_removal": "Dying tree",
        "tree_description": "Tree struck by lightning at the top, causing a huge lateral to fall. Making a portion of the back yard unusable and causing damage to the fence. We need to remove this and the tree asap. Rot is setting in at the top of the tree. Reason for Removal:Dying tree\n\t\t\n\t\n\t\n                                \n                            \n                        \n                    \n                        \n                            \n                                \n                                    \n                                        \n                                         Parcel Information\n                                \n                            \n                            \n                                \n                                    \n\t\tParcel Number:14 0218  LL086 *Block:--Lot:--Subdivision:--",
        "tree_number": "1",
        "species": "Oak"
      },
      "geometry": {
        "type": "Point",
        "coordinates": [
          -84.481410688586,
          33.705074696814
        ]
      }
    },
    {
      "type": "Feature",
      "properties": {
        "record": "BA-202605153",
        "address": "880 SOMERSET DR NW, ATLANTA GA 30327",
        "status": "Accepted",
        "date": "10/05/2026",
        "description": null,
        "owner": "KARP HAZEL B",
        "tree_dbh": "22",
        "tree_location": "front yard",
        "reason_removal": "Uncorrectable defect",
        "tree_description": "The subject tree exhibits significant canopy decline characterized by a thin, sparse crown, reduced live foliage, and multiple dead and declining branches throughout the upper canopy. The tree also exhibits poor main-stem architecture, including irregular stem form and branching structure within the upper crown. Thecombination of poor main-stem architecture, the significant stem defect, and progressive canopy dieback indicates reduced structural and physiological condition.Reason for Removal:Dying tree\n\t\t\n\t\t\n\t\t\tTree number:2Species:HickoryTree Size (DBH):16Tree location:back yardDescription of Tree:The subject tree exhibits poor overall structure characterized by an irregular, twisting main stem and poor crown architecture. Multiple dead and declining branches are present within the canopy, along with vine growth extending into the crown and along portions of the main stem. The tree has an irregular and reduced canopy with evidence of progressive crown decline. The combination of poor stem architecture, deadwood, vine growth, and declining canopy condition indicates reduced vitality and poor long-term suitability for retention.Reason for Removal:Uncorrectable defect\n\t\t\n\t\t\n\t\t\tTree number:3Species:PinusTree Size (DBH):28Tree location:back yard Description of Tree:The subject tree is in poor condition and exhibits significant structural and physiological decline. The main stem contains multiple large wounds/cankered areas with extensive bark disruption and exposed woody tissue. The tree has also experienced substantial crown dieback and previous branch/stem loss, resulting in a significantly reduced and irregular live canopy. These defects indicate diminished vitality and compromised structural condition. Given the extent of the main-stem defects, previous canopy loss, and continued crown decline, the tree has a poor long-term prognosis and is recommended for removal.Reason for Removal:Uncorrectable defect\n\t\t\n\t\t\n\t\t\tTree number:4Species:hickoryTree Size (DBH):18Tree location:back yardDescription of Tree:The subject tree exhibits a basal cavity/opening at the lower main stem, indicating a significant structural defect at a critical load-bearing portion of the tree. The tree also exhibits poor overall architecture, including pronounced stem deviations and phototropic growth resulting in an asymmetric canopy and lean toward the residence. Dead branches are present within the crown. The combination of the basal defect, poor stem architecture, asymmetric loading, and proximity/orientation toward the residence reduces the tree’s long-term suitability for retention.Reason for Removal:Uncorrectable defect\n\t\t\n\t\t\n\t\t\tTree number:5Species:Red MapleTree Size (DBH):25Tree location:front yardDescription of Tree:The subject tree exhibits an unbalanced and asymmetric canopy, with approximately 30% of the crown extending outside the main trunk axis and toward/over the residence. This growth form has resulted in increased asymmetric loading toward the structure. The tree also exhibits poor basal architecture and is located in close proximity to the residence, with large surface roots extending toward the foundation. The combination of asymmetric crown development, poor overall architecture, and proximity to the residence reduces the tree’s long-term suitability for retention. The tree is considered to be in poor condition with a poor long-term prognosis and is recommended for removalReason for Removal:Uncorrectable defect\n\t\t\n\t\t\n\t\t\tTree number:6Species:HollyTree Size (DBH):16Tree location:front yardDescription of Tree:The tree is located in very close proximity to the residence and exhibits poor root architecture, including large, concentrated surface roots at and immediately adjacent to the trunk flare. The confined growing area and proximity of the root system to the foundation create an undesirable long-term conflict with the structure. Given the tree's mature size, restricted growing space, and compromised root architecture, the tree has poor long-term suitability for retention and is recommended for removal.Reason for Removal:Uncorrectable defect\n\t\t\n\t\t\n\t\t\tTree number:7Species:Japanese MapleTree Size (DBH):18Tree location:front yardDescription of Tree:large open cavity with internal decay is present on the main stem at an old pruning wound, with additional decay associated with a second large pruning wound. The tree also exhibits multiple large scaffold stems originating from a relatively confined union. The combination of significant trunk decay, compromised wound closure, multi-stem structure, and close proximity to the residence increases the potential consequences of stem or scaffold failure. Root conflicts exist as tripping hazards and could be impacting utilities and foundation. Reason for Removal:Uncorrectable defect\n\t\t\n\t\n\t\n                                \n                            \n                        \n                    \n                        \n                            \n                                \n                                    \n                                        \n                                         Parcel Information\n                                \n                            \n                            \n                                \n                                    \n\t\tParcel Number:17 01610002010 *Block:--Lot:--Subdivision:--",
        "tree_number": "1",
        "species": "Hickory"
      },
      "geometry": {
        "type": "Point",
        "coordinates": [
          -84.417034234797,
          33.877414176169
        ]
      }
    },
    {
      "type": "Feature",
      "properties": {
        "record": "BA-202605140",
        "address": "3030 HUMPHRIES DR SE, ATLANTA GA 30354",
        "status": "Accepted",
        "date": "10/05/2026",
        "description": null,
        "owner": null,
        "tree_dbh": "24",
        "tree_location": "0",
        "reason_removal": "Other",
        "tree_description": "This is a Pine tree is leaning towards the house.Reason for Removal:OtherComments:This tree is a threat to the house and the lives of my family.\n\t\t\n\t\t\n\t\t\tTree number:0Species:0Tree Size (DBH):0Tree location:0Description of Tree:0Reason for Removal:OtherComments:0\n\t\t\n\t\t\n\t\t\tTree number:0Species:0Tree Size (DBH):0Tree location:0Description of Tree:0Reason for Removal:OtherComments:0\n\t\t\n\t\n\t\n                                \n                            \n                        \n                    \n                        \n                            \n                                \n                                    \n                                        \n                                         Parcel Information\n                                \n                            \n                            \n                                \n                                    \n\t\tParcel Number:14 00360001043 *Block:--Lot:--Subdivision:--",
        "tree_number": "1",
        "species": "0"
      },
      "geometry": {
        "type": "Point",
        "coordinates": [
          -84.375918223827,
          33.672565470201
        ]
      }
    },
    {
      "type": "Feature",
      "properties": {
        "record": "26TMP-065751",
        "address": "1847 BRAEBURN CIR SE, ATLANTA GA 30316",
        "status": "",
        "date": "10/05/2026",
        "description": null,
        "owner": null,
        "tree_dbh": null,
        "tree_location": null,
        "reason_removal": null,
        "tree_description": null,
        "tree_number": null,
        "species": null
      },
      "geometry": {
        "type": "Point",
        "coordinates": [
          -84.326755243411,
          33.734926012151
        ]
      }
    },
    {
      "type": "Feature",
      "properties": {
        "record": "BA-202605161",
        "address": "2493 SPRINGDALE RD SW, ATLANTA GA 30315",
        "status": "Accepted",
        "date": "10/05/2026",
        "description": null,
        "owner": "Eric Heck",
        "tree_dbh": "20",
        "tree_location": "Right side of backyard",
        "reason_removal": "Dying tree",
        "tree_description": "15% lean over secondary line and drivewayReason for Removal:Uncorrectable defectComments:Orange paint\n\t\t\n\t\t\n\t\t\tTree number:2Species:PineTree Size (DBH):24Tree location:Middle of front yardDescription of Tree:codominant leaders with included bark next to primaryReason for Removal:Uncorrectable defectComments:Orange paint\n\t\t\n\t\t\n\t\t\tTree number:3Species:PineTree Size (DBH):18Tree location:Right side of front yardDescription of Tree:fusiform canker midway up trunk. Primary leader failureReason for Removal:Uncorrectable defectComments:Orange paint\n\t\t\n\t\t\n\t\t\tTree number:4Species:PineTree Size (DBH):12Tree location:Right side of backyardDescription of Tree:fusiform canker midway up trunkReason for Removal:Uncorrectable defectComments:Orange paint\n\t\t\n\t\t\n\t\t\tTree number:5Species:Black CherryTree Size (DBH):12Tree location:Right side of backyardDescription of Tree:30% canopy deadReason for Removal:Dying treeComments:Orange paint\n\t\t\n\t\n\t\n                                \n                            \n                        \n                    \n                        \n                            \n                                \n                                    \n                                        \n                                         Parcel Information\n                                \n                            \n                            \n                                \n                                    \n\t\tParcel Number:14 01010008004 *Block:--Lot:--Subdivision:--",
        "tree_number": "1",
        "species": "Pine"
      },
      "geometry": {
        "type": "Point",
        "coordinates": [
          -84.414903799322,
          33.686638112663
        ]
      }
    },
    {
      "type": "Feature",
      "properties": {
        "record": "BA-202605160",
        "address": "130 WEST PACES FERRY RD NW, ATLANTA GA 30305",
        "status": "Accepted",
        "date": "10/05/2026",
        "description": null,
        "owner": "ATLANTA HISTORICAL SOC INC",
        "tree_dbh": "20",
        "tree_location": "Atlanta History Center, Quarry Garden",
        "reason_removal": "Dying tree",
        "tree_description": "large loblolly pineReason for Removal:Dying treeComments:This tree has a long column of decay and dead wood along the trunk. Several large cracks have developed and there has been significant borer activity this summer. Likely an old lighting strike.\n\t\t\n\t\n\t\n                                \n                            \n                        \n                    \n                        \n                            \n                                \n                                    \n                                        \n                                         Parcel Information\n                                \n                            \n                            \n                                \n                                    \n\t\tParcel Number:17 0099  LL387 *Block:--Lot:--Subdivision:--",
        "tree_number": "1",
        "species": "loblolly pine"
      },
      "geometry": {
        "type": "Point",
        "coordinates": [
          -84.385501088624,
          33.842269672223
        ]
      }
    },
    {
      "type": "Feature",
      "properties": {
        "record": "BA-202605141",
        "address": "3433 PACES FOREST RD NW, ATLANTA GA 30327",
        "status": "Accepted",
        "date": "10/05/2026",
        "description": null,
        "owner": null,
        "tree_dbh": "16",
        "tree_location": "Right side of driveway at Street",
        "reason_removal": "Dead tree",
        "tree_description": "Trees in the middle of the yard leaning hard over the drivewayReason for Removal:Significant cavity/area of decayComments:Oak Tree has several holes in the base and up the trunk and has a hard lean over the driveway towards the neighbors\n\t\t\n\t\t\n\t\t\tTree number:2Species:Pecan Tree Size (DBH):15Tree location:Front center leaning over carport towards houseDescription of Tree: front center leaning over carports towards houseReason for Removal:Uncorrectable defectComments:Tree has a hard lean towards the house most of the weight is on that side as well, cannot be corrected\n\t\t\n\t\t\n\t\t\tTree number:3Species:Cherry Tree Size (DBH):10Tree location:Right side of driveway at StreetDescription of Tree:Under magnolia tree right side of driveway at StreetReason for Removal:Dead treeComments:Tree is decayed and falling apart \n\t\t\n\t\n\t\n                                \n                            \n                        \n                    \n                        \n                            \n                                \n                                    \n                                        \n                                         Parcel Information\n                                \n                            \n                            \n                                \n                                    \n\t\tParcel Number:17 01810001019 *Block:--Lot:--Subdivision:--",
        "tree_number": "1",
        "species": "Oak"
      },
      "geometry": {
        "type": "Point",
        "coordinates": [
          -84.424934307519,
          33.84905225504
        ]
      }
    },
    {
      "type": "Feature",
      "properties": {
        "record": "BA-202605159",
        "address": "3479 ROLLING GREEN RIDGE SW, ATLANTA GA 30331",
        "status": "Accepted",
        "date": "10/05/2026",
        "description": null,
        "owner": "Erie Heath",
        "tree_dbh": "20",
        "tree_location": "Left of car port",
        "reason_removal": "Uncorrectable defect",
        "tree_description": "codominant leaders with included bark. edge tree right next to carport",
        "tree_number": "1",
        "species": "Pine"
      },
      "geometry": {
        "type": "Point",
        "coordinates": [
          -84.503288057075,
          33.70936231805
        ]
      }
    }
  ]
}